store_id,name,street,city,state_name,zip,email,phone,latitude,longitude,state,brand,updated
tx114th,114th,"11417 Slide Rd, Ste 100",Lubbock,Texas,79424,tx.114th@crumbl.com,(806) 370-1442,33.4889863,-101.9212443,TX,Crumbl,2024-11-01
41ststreet,41st Street,4027 W 41st St,Sioux Falls,South Dakota,57106,siouxfalls@crumbl.com,(605) 305-4018,43.5134552,-96.7750692,SD,Crumbl,2024-11-01
ok71ststreet,71st Street,11007 E 71st St,Tulsa,Oklahoma,74133,ok.71st@crumbl.com,(539) 399-1211,36.0613988,-95.8539426,OK,Crumbl,2024-11-01
7thstreet,7th Street,2300 W 7th St,Fort Worth,Texas,76107,tx.7thstreet@crumbl.com,(682) 285-2798,32.75129106658444,-97.35045687914489,TX,Crumbl,2024-11-01
txabilene,Abilene,3560 S Clack St ,Abilene,Texas,79606,tx.abilene@crumbl.com,(325) 244-7687,32.408516,-99.7731061,TX,Crumbl,2024-11-01
gaacworth,Acworth,"3330 Cobb Pkwy NW, Ste 14C",Acworth,Georgia,30101,ga.acworth@crumbl.com,(470) 632-8080,34.03644817820953,-84.6770445023096,GA,Crumbl,2024-11-01
txaddison,Addison,"14891 Preston Rd, Ste 100",Dallas,Texas,75254,txaddison@crumbl.com,(469) 825-3974,32.9506177,-96.8064351,TX,Crumbl,2024-11-01
ahwatukee,Ahwatukee,"4910 E Ray Rd, Ste 7",Phoenix,Arizona,85044,ahwatukee@crumbl.com,(480) 877-9677,33.3204782,-111.9775,AZ,Crumbl,2024-11-01
hiainahaina,Aina Haina,"820 W Hind Dr, Ste 120",Honolulu,Hawaii,96821,hi.ainahaina@crumbl.com,808) 272-9080,21.2791918,-157.7536257,HI,Crumbl,2024-11-01
alalabaster,Alabaster,100 Colonial Promenade Pkwy,Alabaster,Alabama,35007,al.alabaster@crumbl.com,(205) 285-3203,33.2298263,-86.80236819999999,AL,Crumbl,2024-11-01
alamoranch,Alamo Ranch,"5531 W Loop 1604 N, Ste 111",San Antonio,Texas,78253,alamoranch@crumbl.com,(830) 346-1314,29.4909191,-98.7098326,TX,Crumbl,2024-11-01
gaalbany,Albany,"2707 Dawson Rd, Unit 8",Albany,Georgia,31707,ga.albany@crumbl.com,(229) 299-9727,31.61992,-84.22179,GA,Crumbl,2024-11-01
albany,Albany,2500 Santiam Hwy SE,Albany ,Oregon,97322,albany@crumbl.com,(541) 248-1218,44.6310487,-123.0762518,OR,Crumbl,2024-11-01
laalexandria,Alexandria,"2303 S MacArthur Dr, Ste B",Alexandria,Louisiana,71301,la.alexandria@crumbl.com,tel:3187699960,31.2728977,-92.4641772,LA,Crumbl,2024-11-01
ilalgonquin,Algonquin,2535 County Line Rd,Algonquin,Illinois,60102,il.algonquin@crumbl.com,(224) 699-0660,42.152804980529105,-88.33690607323857,IL,Crumbl,2024-11-01
aliana,Aliana,"10445 W Grand Pkwy S, Ste 130",Richmond,Texas,77407,aliana@crumbl.com,(346) 322-1096,29.65404887669803,-95.70822411456592,TX,Crumbl,2024-11-01
alisoviejo,Aliso Viejo,24032 Aliso Creek Rd,Laguna Niguel,California,92677,caalisoviejo@crumbl.com,(949) 339-1548,33.5547983,-117.7113671,CA,Crumbl,2024-11-01
allen,Allen,"845 W Stacy Rd, Bldg A, Ste 145",Allen,Texas,75013,allen@crumbl.com,(469) 290-5993,33.1299481,-96.6645559,TX,Crumbl,2024-11-01
caalmaden,Almaden,5353 Almaden Expy suite n 64,San Jose,California,95118,ca.almaden@crumbl.com,(669) 207-5172,37.25308440000001,-121.8777855,CA,Crumbl,2024-11-01
alpharetta,Alpharetta,"4190 Old Milton Pkwy, Ste 2L",Alpharetta,Georgia,30005,alpharetta@crumbl.com,(470) 281-9209,34.0592447,-84.2346861,GA,Crumbl,2024-11-01
flaltamontesprings,Altamonte Springs,"150 S State Rd, Ste 434",Altamonte Springs,Florida,32714,fl.altamontesprings@crumbl.com,(689) 206-9103,28.661190,-81.419820,FL,Crumbl,2024-11-01
txamarillo,Amarillo,"3562 S Soncy Rd, Ste 341 ",Amarillo,Texas,79119,tx.amarillo@crumbl.com,(806) 223-0332,35.17051192793885,-101.94011427668889,TX,Crumbl,2024-11-01
utamericanfork,American Fork,"586 N 900 W, Suite 6",American Fork,Utah,84003,ut.americanfork@crumbl.com,(801) 609-1992,40.3887584,-111.8231046,UT,Crumbl,2024-11-01
iaames,Ames,"414 S Duff Ave, Ste 104",Ames,Iowa,50010,ia.ames@crumbl.com,(515) 598-7171,42.0184462,-93.6094236,IA,Crumbl,2024-11-01
amherst,Amherst,"1595 Niagara Falls Blvd, Ste 600",Amherst,New York,14228,amherst@crumbl.com,(716) 899-4004,42.9976843,-78.8223342,NY,Crumbl,2024-11-01
ohamherst,Amherst,"7420 Oak Point Rd, Ste B",Lorain,Ohio,44053,oh.amherst@crumbl.com,(440) 634-1950,41.4134134,-82.2389468,OH,Crumbl,2024-11-01
ammon,Ammon,2656 E Sunnyside Rd,Ammon,Idaho,83406,idahofalls@crumbl.com,(208) 268-8222,43.467858,-111.981298,ID,Crumbl,2024-11-01
caanaheimplaza,Anaheim Plaza,510 N Euclid St,Anaheim,California,92801,ca.anaheimplaza@crumbl.com,(657) 208-8089,33.8406348,-117.9400945,CA,Crumbl,2024-11-01
scanderson,Anderson,"3501 Clemson Blvd, Ste 10",Anderson,South Carolina,29621,sc.anderson@crumbl.com,(864) 375-4587,34.54981090809078,-82.67553672729613,SC,Crumbl,2024-11-01
ohanderson,Anderson,"7625 Beechmont Ave, Ste B ",Cincinnati,Ohio,45255,oh.anderson@crumbl.com,(513) 286-3444,39.07213,-84.34619,OH,Crumbl,2024-11-01
iaankeny,Ankeny,"802 SE Oralabor Rd, Ste 108",Ankeny,Iowa,50021,ia.ankeny@crumbl.com,(515) 650-8361,41.70345594508936,-93.58538881557023,IA,Crumbl,2024-11-01
annarbor,Ann Arbor,"215 N Maple Rd, Ste A-2",Ann Arbor,Michigan,48103,annarbor@crumbl.com,(734) 274-6623,42.283070,-83.783562,MI,Crumbl,2024-11-01
mdannapolis,Annapolis,2576 Solomons Island Rd,Annapolis,Maryland,21401,md.annapolis@crumbl.com,(443) 214-0137,38.974280,-76.544326,MD,Crumbl,2024-11-01
tnantioch,Antioch,"4060 Cane Ridge Pkwy, Ste 611",Antioch,Tennessee,37013,tn.antioch@crumbl.com, (615) 326-9415,36.0325676,-86.64458169999999,TN,Crumbl,2024-11-01
ncapex,Apex,1105 Pine Plaza Dr,Apex,North Carolina,27523,nc.apex@crumbl.com,(919) 249-6874,35.7474559,-78.8303285,NC,Crumbl,2024-11-01
applevalley,Apple Valley,"15052 Gleason Path, Ste 105",Apple Valley,Minnesota,55124,applevalley@crumbl.com,(612) 474-4217,44.731122,-93.214094,MN,Crumbl,2024-11-01
caapplevalley,Apple Valley,"19179 Bear Valley Rd, Ste 10",Apple Valley,California,92308,ca.applevalley@crumbl.com,(760) 503-4804,34.470390,-117.246030,CA,Crumbl,2024-11-01
wiappleton,Appleton,4353 W Wisconsin Ave,Appleton,Wisconsin,54913,wi.appleton@crumbl.com,(920) 221-1980,44.272540,-88.471600,WI,Crumbl,2024-11-01
arcadia,Arcadia,3736 E Indian School Rd,Phoenix,Arizona,85018,arcadia@crumbl.com,(602) 661-3777,33.4957241,-112.0005722,AZ,Crumbl,2024-11-01
mnardenhills,Arden Hills,"3833 Lexington Ave N, Ste 104",Arden Hills,Minnesota,55126,mn.ardenhills@crumbl.com,(612) 564-5940,45.057010,-93.147840,MN,Crumbl,2024-11-01
ilarlingtonheights,Arlington Heights,3 W Rand Rd,Arlington Heights,Illinois,60004,il.arlingtonheights@crumbl.com,(224) 286-1038,42.114110,-87.983560,IL,Crumbl,2024-11-01
moarnold,Arnold,840 Arnold Commons Dr,Arnold,Missouri,63010,mo.arnold@crumbl.com,(636) 204-3199,38.438201307477414,-90.38268255925844,MO,Crumbl,2024-11-01
azarrowhead,Arrowhead,"8085 W Bell Rd, Ste 106",Peoria,Arizona,85382,az.arrowhead@crumbl.com,(623) 471-5732,33.6359462,-112.229645,AZ,Crumbl,2024-11-01
ashburn,Ashburn,"44110 Ashburn Shopping Plaza, #180",Ashburn,Virginia,20147,ashburn@crumbl.com,(571) 491-4084,39.0444456,-77.4758814,VA,Crumbl,2024-11-01
ncasheville,Asheville,"1816 Hendersonville Rd, Ste 10",Asheville,North Carolina,28803,nc.asheville@crumbl.com,(828) 417-0696,35.5054123,-82.5227693,NC,Crumbl,2024-11-01
gaashleypark,Ashley Park,"549 Bullsboro Dr, Ste B",Newnan,Georgia,30265,ga.ashleypark@crumbl.com,470-724-9802 ,33.3924129,-84.7591041,GA,Crumbl,2024-11-01
gaathens,Athens,"196 Alps Rd, Ste 5",Athens ,Georgia,30606,ga.athens@crumbl.com,(706) 389-5894,33.94435,-83.40946,GA,Crumbl,2024-11-01
maattleboro,Attleboro,"228 Washington St, Ste A-155",Attleboro,Massachusetts,02703,ma.attleboro@crumbl.com,(508) 399-1171,41.924247,-71.3560992,MA,Crumbl,2024-11-01
alauburn,Auburn,2638 Enterprise Dr,Opelika,Alabama,36801,al.auburn@crumbl.com,(334) 203-4783,32.61815456794853,-85.40864185144493,AL,Crumbl,2024-11-01
caauburn,Auburn,11855 Willow Creek Dr,Auburn,California,95603,ca.auburn@crumbl.com,(530) 328-0026,38.938461,-121.097588,CA,Crumbl,2024-11-01
coauroracityplace,Aurora City Place,"14222 E Cedar Ave, Ste C",Aurora ,Colorado,80012,co.auroracityplace@crumbl.com,(720) 496-0309,39.7128771,-104.8223539,CO,Crumbl,2024-11-01
flaventura,Aventura,"20533 Biscayne Blvd, Ste E-6",Aventura,Florida,33180,fl.aventura@crumbl.com,(754) 202-0249,25.96600,-80.14445,FL,Crumbl,2024-11-01
ohavon,Avon,"1813 Nagel Rd, Ste 300",Avon,Ohio,44011,oh.avon@crumbl.com,(440) 517-1609,41.460330,-81.987980,OH,Crumbl,2024-11-01
inavon,Avon,8788 E US Hwy 36,Avon,Indiana,46123,in.avon@crumbl.com,(317) 742-9615,39.7636493,-86.3658631,IN,Crumbl,2024-11-01
ctavon,Avon,"315 W Main St, Ste 113",Avon,Connecticut,06001,ct.avon@crumbl.com,(860) 321-8844,41.8132004,-72.8584288,CT,Crumbl,2024-11-01
avondale,Avondale,"10120 W McDowell Rd, Ste 150",Avondale,Arizona,85392,avondale@crumbl.com,(480) 937-0396,33.4650914,-112.277737,AZ,Crumbl,2024-11-01
bakersfield,Bakersfield,"10530 Stockdale Hwy, Unit Q100",Bakersfield,California,93311,bakersfield@crumbl.com,(661) 241-0903,35.352562,-119.119646,CA,Crumbl,2024-11-01
flbannerman,Bannerman,6668 Thomasville Rd,Tallahassee,Florida,32312,fl.bannerman@crumbl.com,(850) 296-9801,30.560890,-84.219510,FL,Crumbl,2024-11-01
batonrouge,Baton Rouge,"6555 Siegen Ln, Ste 10",Baton Rouge,Louisiana,70809,batonrouge@crumbl.com,(225) 228-0120,30.387446,-91.061072,LA,Crumbl,2024-11-01
ncbattleground,Battleground,"3709 Battleground Ave, Unit K",Greensboro,North Carolina,27410,nc.battleground@crumbl.com,(336) 218-9084,36.1296961,-79.8589266,NC,Crumbl,2024-11-01
nybayplaza,Bay Plaza,2276A Bartow Ave,The Bronx,New York,10475,ny.bayplaza@crumbl.com,(347) 333-5805,40.86627969079935,-73.82630626760194,NY,Crumbl,2024-11-01
prbayam贸n,Bayam贸n,"1500 Ave Ram贸n Luis Rivera, Plaza del Parque Shopping",Bayam贸n,Puerto Rico,00961,pr.bayamon@crumbl.com,939-320-4158,18.412271,-66.16147,,Crumbl,2024-11-01
txbaytown,Baytown,"8824 N Hwy 146, Ste 100",Baytown,Texas,77523,tx.baytown@crumbl.com,(281) 421-2566	,29.81939,-94.89652,TX,Crumbl,2024-11-01
beachhaven,Beach Haven,"3267 Hodges Blvd, Ste 2",Jacksonville,Florida,32224,eastjacksonville@crumbl.com,(904) 373-4947,30.286457,-81.458277,FL,Crumbl,2024-11-01
ohbeachwood,Beachwood,24345 Chagrin Blvd,Beachwood,Ohio,44122,oh.beachwood@crumbl.com,(216) 245-3691,41.4657697,-81.5084881,OH,Crumbl,2024-11-01
txbeaumont,Beaumont,"4036 Dowlen Rd, Ste A",Beaumont,Texas,77706,tx.beaumont@crumbl.com,(409) 240-0023,30.118530,-94.167770,TX,Crumbl,2024-11-01
ohbeavercreek,Beavercreek,"2260 N Fairfield Rd, Ste G",Beavercreek,Ohio,45431,oh.beavercreek@crumbl.com,(937) 343-4369,39.7558836,-84.0531578,OH,Crumbl,2024-11-01
beaverton,Beaverton,2725 SW Cedar Hills Blvd,Beaverton,Oregon,97005,beaverton@crumbl.com,(503) 985-6934,45.495520,-122.809360,OR,Crumbl,2024-11-01
wvbeckley,Beckley,130 Beckley Crossing Shopping Ctr,Beckley,West Virginia,25801,wv.beckley@crumbl.com,(681) 305-0696,37.8012713,-81.1824365,WV,Crumbl,2024-11-01
txbeecave,Bee Cave,"3944 S FM 620 Rd, Ste 120",Bee Cave,Texas,78738,tx.beecave@crumbl.com,(737) 260-3030,30.3112684,-97.9469032,TX,Crumbl,2024-11-01
mdbelair,Bel Air,551 Baltimore Pike,Bel Air,Maryland,21014,md.belair@crumbl.com,(240) 410-3833,39.527470,-76.353280,MD,Crumbl,2024-11-01
cabellaterra,Bella Terra,"7631 Edinger Ave, Ste 1504",Huntington Beach,California,92647,ca.bellaterra@crumbl.com,(657) 400-2012,33.7319574,-117.996376,CA,Crumbl,2024-11-01
bellaire,Bellaire,"5103 Bellaire Blvd, Ste 140",Bellaire,Texas,77401,bellaire@crumbl.com,(281) 937-2100,29.7050968,-95.4681702,TX,Crumbl,2024-11-01
nebellevue,Bellevue,10403 S 15th St,Bellevue,Nebraska,68123,ne.bellevue@crumbl.com,tel:4023905136,41.1581041,-95.9347729,NE,Crumbl,2024-11-01
wabellevue,Bellevue,14855 Main Street,Bellevue,Washington,98007,wa.bellevue@crumbl.com,(425) 532-3518,47.609800,-122.141590,WA,Crumbl,2024-11-01
orbend,Bend,"63455 N Hwy 97, Ste 56",Bend ,Oregon,97703,or.bend@crumbl.com,(541) 316-5345,44.1011376,-121.3044416,OR,Crumbl,2024-11-01
pabensalem,Bensalem,200 Rockhill Dr,Bensalem,Pennsylvania,19020,pa.bensalem@crumbl.com,267) 563-8017,40.1358065,-74.9601146,PA,Crumbl,2024-11-01
arbenton,Benton,"20770 Interstate 30 N, Ste 135",Benton,Arkansas,72019,ar.benton@crumbl.com,(501) 557-3008,34.6102338,-92.5329851,AR,Crumbl,2024-11-01
bentonville,Bentonville,"500 SE Walton Blvd, Ste 10",Bentonville,Arkansas,72712,bentonville@crumbl.com,(479) 326-8304,36.3348288,-94.20494749999999,AR,Crumbl,2024-11-01
caberkeley,Berkeley,"2400 Bancroft Way, Ste B",Berkeley,California,94704,ca.berkeley@crumbl.com,(341) 333-6690,37.8680558,-122.2610652,CA,Crumbl,2024-11-01
pabethelpark,Bethel Park,2409 South Park Rd,Bethel Park,Pennsylvania,15102,pa.bethelpark@crumbl.com,(412) 947-1800,40.32963489999999,-80.02264360000001,PA,Crumbl,2024-11-01
nybigtree,Big Tree,4154 McKinley Pkwy,Hamburg,New York,14075,ny.bigtree@crumbl.com,(716) 412-0466,42.77164,-78.81207,NY,Crumbl,2024-11-01
billings,Billings,"27 Shiloh Rd, Ste 6",Billings,Montana,59106,mt.billings@crumbl.com,(406) 530-7327,45.771149,-108.617003,MT,Crumbl,2024-11-01
bismarck,Bismarck,"820 43rd Ave NE, Ste 120 ",Bismarck,North Dakota,58503,bismarck@crumbl.com,(701) 557-3103,46.853198,-100.7818649,ND,Crumbl,2024-11-01
mibloomfieldhills,Bloomfield Hills,4036 Telegraph Rd,Bloomfield Hills,Michigan,48302,mi.bloomfieldhills@crumbl.com,(248) 462-6676,42.5810109,-83.2816513,MI,Crumbl,2024-11-01
inbloomington,Bloomington,"1155 S College Mall Rd, Ste B",Bloomington,Indiana,47401,in.bloomington@crumbl.com,(812) 668-7779,39.15415443151949,-86.4971866839554,IN,Crumbl,2024-11-01
ohboardman,Boardman,449 Boardman Poland Rd,Boardman,Ohio,44512,oh.boardman@crumbl.com,(216) 359-3611,41.022198,-80.644919,OH,Crumbl,2024-11-01
flbocaraton,Boca Raton,"2200 Glades Rd, Ste 508",Boca Raton,Florida,33431,fl.bocaraton@crumbl.com,(561) 872-4515,26.3670914,-80.1266535,FL,Crumbl,2024-11-01
boise,Boise,8665 W Franklin Rd,Boise,Idaho,83709,id.boise@crumbl.com,(208) 922-7297,43.6049271,-116.2866271,ID,Crumbl,2024-11-01
ilbolingbrook,Bolingbrook,763 E Boughton Rd,Bolingbrook,Illinois,60440,il.bolingbrook@crumbl.com,(630) 755-5797,41.7230464,-88.0370973,IL,Crumbl,2024-11-01
vabonair,Bon Air,"2003 Huguenot Rd, Suite 103",Richmond,Virginia,23235,va.bonair@crumbl.com,(804) 302-0162,37.5205767,-77.6150001,VA,Crumbl,2024-11-01
wabonneylake,Bonney Lake,20411 98th St E,Bonney Lake,Washington,98391,wabonneylake@crumbl.com,(253) 321-5796,47.1673508,-122.1586732,WA,Crumbl,2024-11-01
labossiercity,Bossier City,"2650 Airline Dr, Ste 300",Bossier City,Louisiana,71111,la.bossiercity@crumbl.com,(318) 404-1326,32.552521,-93.709541,LA,Crumbl,2024-11-01
bountiful,Bountiful,463 S Main St,Bountiful,Utah,84010,ut.bountiful@crumbl.com,(385) 399-9899,40.8847696,-111.8826346,UT,Crumbl,2024-11-01
kybowlinggreen,Bowling Green,"130 Walton Ave, Unit E",Bowling Green,Kentucky,42104,ky.bowlinggreen@crumbl.com,(270)715-2159,36.951300,-86.434190,KY,Crumbl,2024-11-01
bozeman,Bozeman,1060 Fowler Ave,Bozeman,Montana,59718,bozeman@crumbl.com,(406) 351-4589,45.668620,-111.082310,MT,Crumbl,2024-11-01
gabradleypark,Bradley Park,"1635 Whittlesey Rd, Ste 450A",Columbus,Georgia,31904-3071,ga.bradleypark@crumbl.com,(706) 309-4111,32.534207,-84.969330,GA,Crumbl,2024-11-01
brandon,Brandon,"10963 Causeway Blvd, Ste B",Brandon ,Florida,33511,brandon@crumbl.com,(813) 540-0776,27.9223915,-82.3293415,FL,Crumbl,2024-11-01
brea,Brea,955 E Birch St,Brea,California,92821,brea@crumbl.com,(562) 371-8973,33.918930,-117.886010,CA,Crumbl,2024-11-01
cabrentwood,Brentwood,"5421 Lone Tree Way, Ste 130",Brentwood,California,94513,ca.brentwood@crumbl.com,(925) 308-5057,37.960745,-121.74963,CA,Crumbl,2024-11-01
tnbrentwood,Brentwood,"330 Franklin Rd, Ste 140A",Brentwood,Tennessee,37027,brentwood@crumbl.com,(615) 267-3161,36.0255273,-86.7920465,TN,Crumbl,2024-11-01
njbrick,Brick,56 Brick Plaza ,Brick Township,New Jersey,08723,nj.brick@crumbl.com,(201) 212-4091,40.05785,-74.13971,NJ,Crumbl,2024-11-01
ilbrickyard,Brickyard,"2650 N Narragansett Ave, Ste C3",Chicago,Illinois,60639,il.brickyard@crumbl.com,(773) 466-2244,41.9286013,-87.78601739999999,IL,Crumbl,2024-11-01
wvbridgeport,Bridgeport,268 Emily Drive,Clarksburg,West Virginia,26301,wv.bridgeport@crumbl.com,(304) 209-5654,39.2744094,-80.2845785,WV,Crumbl,2024-11-01
njbridgewater,Bridgewater,"332 Chimney Rock Rd, Unit A110",Bound Brook,New Jersey,08805,nj.bridgewater@crumbl.com,(908) 270-2259,40.5780525,-74.5585717,NJ,Crumbl,2024-11-01
briercreek,Brier Creek,"8531 Brier Creek Pkwy, Ste 115",Raleigh ,North Carolina,27617,briercreek@crumbl.com,(984) 201-1194,35.9051565,-78.7843947,NC,Crumbl,2024-11-01
brighamcity,Brigham City,"725 W 1200 S, Suite B1",Perry,Utah,84302,brighamcity@crumbl.com,(435) 339-0101,41.4840096,-112.0276737,UT,Crumbl,2024-11-01
nybrighton,Brighton,2780 Monroe Ave,Rochester,New York,14618,ny.brighton@crumbl.com,(585) 666-9924,43.11288924640507,-77.5492204591608,NY,Crumbl,2024-11-01
brighton,Brighton,"2325 Prairie Center Pkwy, Unit E",Brighton,Colorado,80601,brighton@crumbl.com,(720) 727-0953,39.954390,-104.777730,CO,Crumbl,2024-11-01
mibrighton,Brighton,"9864 E Grand River Ave, Ste 150",Brighton,Michigan,48116,mi.brighton@crumbl.com,(810) 295-2414,42.52086652,-83.76601626,MI,Crumbl,2024-11-01
mabrighton,Brighton,127 Guest St,Boston,Massachusetts,02135,ma.brighton@crumbl.com,(617)798-4556,42.35734,-71.14273,MA,Crumbl,2024-11-01
cabristolplace,Bristol Place,"3388 S Bristol St, Ste A",Santa Ana,California,92704,ca.bristolplace@crumbl.com,(657) 212-6090,33.7017754,-117.8866331,CA,Crumbl,2024-11-01
vabristol,Bristol,10007 Dominion Place,Bristol,Virginia,24202,va.bristol@crumbl.com,(276) 268-2729,36.6329126,-82.1289817,VA,Crumbl,2024-11-01
vabristow,Bristow,9942 Sowder Village Square,Manassas,Virginia,20109,va.bristow@crumbl.com,(571) 358-8925,38.7394378,-77.5356496,VA,Crumbl,2024-11-01
pabroadcastingsquare,Broadcasting Square,2779 Paper Mill Rd ,Reading ,Pennsylvania,19610,pa.broadcastingsquare@crumbl.com,(484) 258-1102,40.3603877,-75.9850055,PA,Crumbl,2024-11-01
okbrokenarrow,Broken Arrow,1340 E Hillside Dr,Broken Arrow,Oklahoma,74012,okbrokenarrow@crumbl.com,(539) 600-2093,36.065475,-95.774800,OK,Crumbl,2024-11-01
wibrookfield,Brookfield,17550 b-1 West Bluemound Road,Brookfield,Wisconsin,53045,wi.brookfield@crumbl.com,(262) 226-2868,43.036701,-88.133400,WI,Crumbl,2024-11-01
gabrookhaven,Brookhaven,"804 Town Blvd, Ste A1035",Atlanta,Georgia,30319,ga.brookhaven@crumbl.com,(470) 668-5045,33.8702168,-84.3381836,GA,Crumbl,2024-11-01
txbrooks,Brooks,"7511 S New Braunfels Ave, Ste 101",San Antonio,Texas,78235 ,tx.brooks@crumbl.com,(210) 263-1402,29.350778,-98.4491522,TX,Crumbl,2024-11-01
pabroomall,Broomall,"1991 Sproul Rd, Unit 42B",Broomall,Pennsylvania,19008,pa.broomall@crumbl.com,(484) 451-8411,39.961578,-75.355171,PA,Crumbl,2024-11-01
flbrowardblvd,Broward Blvd,"2630 W Broward Blvd, Ste 303",Fort Lauderdale,Florida,33312,fl.browardblvd@crumbl.com,(754) 296-0068,26.120546411524515,-80.17676718446451,FL,Crumbl,2024-11-01
inbrownsburg,Brownsburg,943 N Green St,Brownsburg,Indiana,46112,in.brownsburg@crumbl.com,(317) 520-2522,39.8555641,-86.39234,IN,Crumbl,2024-11-01
txbrownsville,Brownsville,"4345 N Exp 77/83, Ste D-200",Brownsville,Texas,78520,tx.brownsville@crumbl.com,956) 374-4596 ,25.962610,-97.511150,TX,Crumbl,2024-11-01
gabrunswick,Brunswick,"131 Altama Connector Rd, Unit 1",Brunswick,Georgia,31525,ga.brunswick@crumbl.com,(912)254-0040,31.2153681,-81.4856935,GA,Crumbl,2024-11-01
txbryantirvin,Bryant Irvin,4851 Bryant Irvin Rd ,Fort Worth,Texas,76132,tx.bryantirvin@crumbl.com,(682) 348-4729,32.677820,-97.415860,TX,Crumbl,2024-11-01
ctbucklandhills,Buckland Hills,"1540 Pleasant Valley Rd, Ste E",Manchester,Connecticut,06042,ct.bucklandhills@crumbl.com,(860) 281-2131,41.80705,-72.5587355,CT,Crumbl,2024-11-01
ilbuffalogrove,Buffalo Grove,1530 E Lake Cook Rd,Wheeling,Illinois,60090,il.buffalogrove@crumbl.com,(224) 279-0548,42.15474682406865,-87.95291791840077,IL,Crumbl,2024-11-01
gabuford,Buford,"3205 Woodward Crossing Blvd, Ste B01A",Buford,Georgia,30519,ga.buford@crumbl.com,(470) 238-8041,34.0700947,-83.9798432,GA,Crumbl,2024-11-01
caburbank,Burbank,3619 W Magnolia Blvd,Burbank,California,91505,ca.burbank@crumbl.com,(747) 248-1279,34.1681073,-118.3467835,CA,Crumbl,2024-11-01
txburleson,Burleson,"140 NW John Jones Dr, Ste 108",Burleson,Texas,76028,txburleson@crumbl.com,(682) 200-3423,32.523177647708515,-97.34796450653846,TX,Crumbl,2024-11-01
waburlington,Burlington,1815 Marketplace Drive,Burlington,Washington,98233,wa.burlington@crumbl.com,(360)707-4953,48.451004,-122.3387676,WA,Crumbl,2024-11-01
ncburlington,Burlington,"139 Huffman Mill Rd, Unit 103",Burlington,North Carolina,27215,nc.burlington@crumbl.com,336) 278-1501,36.0799075,-79.4856696,NC,Crumbl,2024-11-01
cacaloaks,Cal Oaks,40984 California Oaks Rd,Murrieta,California,92562,ca.caloaks@crumbl.com,(951) 290-0073,33.5677345,-117.207879,CA,Crumbl,2024-11-01
cacalabasas,Calabasas,"4732 Commons Way, Ste G ",Calabasas,California,91302,ca.calabasas@crumbl.com,(818) 431-5290,34.1539038,-118.6438671,CA,Crumbl,2024-11-01
mdcalifornia,California,"45000 St Andrews Church Rd, Ste C",California,Maryland,20619,md.california@crumbl.com,(443) 342-4048,38.3035507,-76.5243063,MD,Crumbl,2024-11-01
wacamas,Camas,530 Southeast 192nd Avenue suite 102,Vancouver,Washington,98683,wa.camas@crumbl.com,(360) 558-7500,45.6172268,-122.4766296,WA,Crumbl,2024-11-01
macambridge,Cambridge,425 Massachusetts Ave,Cambridge,Massachusetts,02139,ma.cambridge@crumbl.com,(617) 798-7098,42.36390792837914,-71.1007525122267,MA,Crumbl,2024-11-01
cacamdenunion,Camden Union,2007 Camden Ave,San Jose,California,95124,ca.camdenunion@crumbl.com,(669) 279-2141,37.262190,-121.931880,CA,Crumbl,2024-11-01
gacampcreek,Camp Creek,"3645 Marketplace Blvd, Ste 140",East Point,Georgia,30344,ga.campcreek@crumbl.com,(470) 317-3332,33.6580359,-84.5033936,GA,Crumbl,2024-11-01
ohcanalwinchester,Canal Winchester,6310 Gender Rd,Canal Winchester,Ohio,43110,oh.canalwinchester@crumbl.com,(614) 321-8502,39.852474,-82.8285159,OH,Crumbl,2024-11-01
cannery,Cannery,"2598 E Craig Rd, Ste 100",North Las Vegas,Nevada,89030,cannery@crumbl.com,(702) 623-5110,36.2402485,-115.1148467,NV,Crumbl,2024-11-01
ohcanton,Canton,6791 Strip Ave NW ,North Canton,Ohio,44720,oh.canton@crumbl.com,(234) 262-0782,40.879810309299714,-81.43339587337427,OH,Crumbl,2024-11-01
micanton,Canton,42049 Ford Rd,Canton,Michigan,48187,mi.canton@crumbl.com,(734) 228-4807,42.3214765,-83.4563273,MI,Crumbl,2024-11-01
gacanton,Canton,"2018 Cumming Hwy, Ste 102",Canton,Georgia,30115,ga.canton@crumbl.com,(678) 890-0718,34.2367787,-84.4571788,GA,Crumbl,2024-11-01
arcantrell,Cantrell,"11525 Cantrell Rd, Ste 304",Little Rock,Arkansas,72212,ar.cantrell@crumbl.com,(501) 333-9080,34.7924089,-92.4024906,AR,Crumbl,2024-11-01
cacarlsbad,Carlsbad,"961 Palomar Airport Rd, Ste 108 ",Carlsbad,California,92011,ca.carlsbad@crumbl.com,(760) 607 6144,33.1213801,-117.3143064,CA,Crumbl,2024-11-01
carmel,Carmel,2446 E 146th St,Carmel,Indiana,46033,in.carmel@crumbl.com,(317) 324-8041,40.0012359,-86.1216805,IN,Crumbl,2024-11-01
flcarrollwood,Carrollwood,15718 N Dale Mabry Hwy,Tampa,Florida,33618,fl.carrollwood@crumbl.com,(813) 521-7200,28.0958185,-82.5033653,FL,Crumbl,2024-11-01
orcascadestation,Cascade Station,10115 NE Cascade Pkwy,Portland,Oregon,97220,or.cascadestation@crumbl.com,(971) 380-4334,45.5728446,-122.5580887,OR,Crumbl,2024-11-01
casper,Casper,"5030 E 2nd St, Suite 5",Casper,Wyoming,82609,casper@crumbl.com,(307) 215-3319,42.8481429,-106.2572249,WY,Crumbl,2024-11-01
flcasselberry,Casselberry,3405 S US Hwy 1792,Casselberry,Florida,32707,fl.casselberry@crumbl.com,(407) 618-0775,28.6779072,-81.3377898,FL,Crumbl,2024-11-01
txcastlehills,Castle Hills,"4770 State Hwy 121, Ste 155",Lewisville,Texas,75056,tx.castlehills@crumbl.com,(972) 662-8868,33.0650175,-96.8877841,TX,Crumbl,2024-11-01
castlerock,Castle Rock,"323 Metzler Dr, Ste 102",Castle Rock,Colorado,80108,castlerock@crumbl.com,(720) 466-3009.,39.409272,-104.859060,CO,Crumbl,2024-11-01
cedarcity,Cedar City,1233 Sage Dr,Cedar City,Utah,84720,cedarcity@crumbl.com,(435) 383-2400,37.655771,-113.0858982,UT,Crumbl,2024-11-01
iacedarfalls,Cedar Falls,"421 Viking Plaza Dr, Ste 400",Cedar Falls ,Iowa,50613,ia.cedarfalls@crumbl.com,(319) 242-3817,42.4834744,-92.4435065,IA,Crumbl,2024-11-01
txcedarhill,Cedar Hill,"428 E FM 1382, Ste C",Cedar Hill,Texas,75104,tx.cedarhill@crumbl.com,(469) 780-2725,32.59149389855472,-96.93767108177411,TX,Crumbl,2024-11-01
txcedarpark,Cedar Park,"1335 E Whitestone Blvd, Ste H500",Cedar Park ,Texas,78613,tx.cedarpark@crumbl.com,(512) 337-2914,30.5281757,-97.8159891,TX,Crumbl,2024-11-01
cedarrapids,Cedar Rapids,"1005 Blairs Ferry Rd NE, Ste 50",Cedar Rapids,Iowa,52402,cedarrapids@crumbl.com,(319) 259-6347,42.0344685,-91.6513636,IA,Crumbl,2024-11-01
centennial,Centennial,5590 Painted Mirage Rd,Las Vegas,Nevada,89149,vegas_centennial@crumbl.com,(702) 707-9822,36.2626527,-115.2583032,NV,Crumbl,2024-11-01
centerville,Centerville,356 Market Place Dr,Centerville,Utah,84014,ut.centerville@crumbl.com,(385) 200-2179,40.920600,-111.887170,UT,Crumbl,2024-11-01
cocentralpark,Central Park,"7505 E 35th Ave, Ste 385",Denver,Colorado,80238,co.centralpark@crumbl.com,(720) 316-0002,39.7658759,-104.9004657,CO,Crumbl,2024-11-01
cacerritos,Cerritos,"11417 South St, Ste C-2",Cerritos,California,90703,ca.cerritos@crumbl.com,(562) 249-5003,33.8592357,-118.0904546,CA,Crumbl,2024-11-01
pachambersburg,Chambersburg,"520 Gateway Ave, Ste 12",Chambersburg,Pennsylvania,17201,pa.chambersburg@crumbl.com,tel:7174144563,39.9386227,-77.6322835,PA,Crumbl,2024-11-01
ilchampaign,Champaign,2005 S Neil St,Champaign,Illinois,61820,il.champaign@crumbl.com,(217) 366-2183,40.0920822,-88.2461876,IL,Crumbl,2024-11-01
txchampions,Champions,"8675 Spring Cypress Rd, Ste D",Spring,Texas,77379,tx.champions@crumbl.com,(281) 631-5819,30.0347326,-95.5537192,TX,Crumbl,2024-11-01
azchandlerhamiltonhigh,Chandler Hamilton High,"3731 S Arizona Ave, Ste 5",Chandler,Arizona,85248,az.chandlerhamiltonhigh@crumbl.com,(480) 269-8365,33.2509532,-111.8406028,AZ,Crumbl,2024-11-01
chandler,Chandler,"2780 W Chandler Blvd, Ste 5",Chandler,Arizona,85224,chandler@crumbl.com,(480) 561-0229,33.3064493,-111.8910185,AZ,Crumbl,2024-11-01
vachantilly,Chantilly,"14337 Newbrook Dr, Suite #503",Chantilly,Virginia,20151,va.chantilly@crumbl.com,(571) 353-3365,38.8773605,-77.4441936,VA,Crumbl,2024-11-01
ncchapelhill,Chapel Hill,"133 W Franklin St, Ste 150",Chapel Hill,North Carolina,27516,nc.chapelhill@crumbl.com,(984) 261-2222,35.910470,-79.057550,NC,Crumbl,2024-11-01
wvcharleston,Charleston,2824 Mountaineer Blvd,Charleston,West Virginia,25309,wv.charleston@crumbl.com,(304) 306-2252,38.318408280749594,-81.71763422565644,WV,Crumbl,2024-11-01
charlotte,Charlotte,7918A Rea Rd,Charlotte,North Carolina,28277,charlotte@crumbl.com,(704) 781-8111,35.059030,-80.813110,NC,Crumbl,2024-11-01
vacharlottesville,Charlottesville,129 Community St,Charlottesville,Virginia,22911,va.charlottesville@crumbl.com,(434) 218-3836,38.1276404,-78.4446099,VA,Crumbl,2024-11-01
chattanooga,Chattanooga,"8021 E Brainerd Rd, Ste 103",Chattanooga,Tennessee,37421,chattanooga@crumbl.com,423) 225-6001,35.004920,-85.150605,TN,Crumbl,2024-11-01
nychelsea,Chelsea,238 7th Ave,New York,New York,10011,ny.chelsea@crumbl.com,(212) 930-3826,40.744710,-73.995490,NY,Crumbl,2024-11-01
cocherrycreek,Cherry Creek,"400 S Colorado Blvd, Ste A",Denver,Colorado,80246,co.cherrycreek@crumbl.com,(720) 603-1651,39.7096357,-104.9403042,CO,Crumbl,2024-11-01
njcherryhill,Cherry Hill,950 Garden Park Blvd,Cherry Hill,New Jersey,08002,nj.cherryhill@crumbl.com,(856) 254-2058,39.9292784,-75.0340897,NJ,Crumbl,2024-11-01
mochesterfield,Chesterfield,1624 Clarkson Rd,Chesterfield,Missouri,63017,mo.chesterfield@crumbl.com,(636) 733-6630,38.644530,-90.563730,MO,Crumbl,2024-11-01
michesterfield,Chesterfield,27795 23 Mile Rd,Chesterfield,Michigan,48051,mi.chesterfield@crumbl.com,586) 315-1141,42.6749755,-82.8310182,MI,Crumbl,2024-11-01
cheyenne,Cheyenne,1400 Dell range blvd unit 85 ,Cheyenne,Wyoming,82009,cheyenne@crumbl.com,(307) 316-3797,41.1622845,-104.8066208,WY,Crumbl,2024-11-01
chico,Chico,"855 East Ave, Ste 220",Chico,California,95926,chico@crumbl.com,(530) 230-9361,39.760640,-121.843930,CA,Crumbl,2024-11-01
ohchillicothe,Chillicothe,"1075 N Bridge St, Ste 202",Chillicothe,Ohio,45601,oh.chillicothe@crumbl.com,(740) 672-5165,39.3583885,-82.9738455,OH,Crumbl,2024-11-01
cachino,Chino,"4005 Grand Ave, Ste C",Chino,California,91710,ca.chino@crumbl.com,(909) 898-7348,33.9967,-117.7186561,CA,Crumbl,2024-11-01
okchisholmcreek,Chisholm Creek,13004 N Pennsylvania Ave,Oklahoma City,Oklahoma,73120,ok.chisholmcreek@crumbl.com,(405) 463-1802,35.602297,-97.548766,OK,Crumbl,2024-11-01
chisholmtrail,Chisholm Trail,9613 Ten Gallon Dr,Fort Worth,Texas, 76123,tx.chisholmtrail@crumbl.com,(682) 207-3697,32.604840,-97.410300,TX,Crumbl,2024-11-01
dechristiana,Christiana,3138 Fashion Center Blvd,Newark,Delaware,19702,de.christiana@crumbl.com,((302) 214-4776,39.6704979,-75.64992509999999,DE,Crumbl,2024-11-01
cincoranch,Cinco Ranch,"23730 Westheimer Pkwy, Ste J",Katy,Texas,77494,tx.cincoranch@crumbl.com,(281) 937-4101,29.736555,-95.776958,TX,Crumbl,2024-11-01
cacitrusheights,Citrus Heights,"6920 Auburn Blvd, Ste 120",Citrus Heights,California,95621,cacitrusheights@crumbl.com,(279) 201-9383,38.6916727,-121.3000506,CA,Crumbl,2024-11-01
cacityofindustry,City of Industry,17501 Colima Rd,City of Industry,California,91748,ca.cityofindustry@crumbl.com,(626) 559-0160,33.9910145,-117.9246256,CA,Crumbl,2024-11-01
clackamas,Clackamas,8946 SE Sunnyside Rd,Clackamas,Oregon,97015,clackamas@crumbl.com,(503) 583-8500,45.4309332,-122.571811651,OR,Crumbl,2024-11-01
caclairemont,Clairemont,"5665 Balboa Ave, Ste 105",San Diego,California,92111,ca.clairemont@crumbl.com,(858) 522-9732,32.8200374,-117.1811723,CA,Crumbl,2024-11-01
njclark,Clark,1255 Raritan Rd,Clark,New Jersey,07066,nj.clark@crumbl.com,(732) 540-1845,40.63062,-74.30520,NJ,Crumbl,2024-11-01
waclarkston,Clarkston,440 Bridge St ,Clarkston,Washington,99403,wa.clarkston@crumbl.com,(509) 596-0211,46.4211032,-117.0458018,WA,Crumbl,2024-11-01
tnclarksville,Clarksville,"2864 Wilma Rudolph Blve, Ste 80",Clarksville,Tennessee,37040,tn.clarksville@crumbl.com,(931) 378-8168,36.59269,-87.29345,TN,Crumbl,2024-11-01
mdclarksville,Clarksville,"6030 Daybreak Cir, Ste 350",Clarksville,Maryland,21029,md.clarksville@crumbl.com,(240) 358-1244,39.210699809082016,-76.93542055620607,MD,Crumbl,2024-11-01
nyclay,Clay,"8395 Oswego Rd, Ste 109",Liverpool,New York,13090,ny.clay@crumbl.com,(315) 203-6408,43.17755892,-76.2569940505936,NY,Crumbl,2024-11-01
flclearwater,Clearwater,"2719 Gulf to Bay Blvd, Ste 1120",Clearwater,Florida,33759,fl.clearwater@crumbl.com,727) 371-8779,27.9600912,-82.7273667,FL,Crumbl,2024-11-01
flclermont,Clermont,2427 S Highway 27,Clermont,Florida,34711,fl.clermont@crumbl.com,(352) 604-0989,28.536490,-81.734650,FL,Crumbl,2024-11-01
clevelandtn,Cleveland,"615 Paul Huff Pkwy, Ste 106",Cleveland,Tennessee,37312,cleveland@crumbl.com,(423) 244-0430,35.210346,-84.859413,TN,Crumbl,2024-11-01
nycliftonpark,Clifton Park,"22 Clifton Country Rd, Ste 50",Clifton Park,New York,12065,ny.cliftonpark@crumbl.com,(518) 406-6880,42.859141,-73.777927,NY,Crumbl,2024-11-01
tnclintonhwy,Clinton Hwy,"6672 Clinton Hwy, Ste 104",Knoxville,Tennessee,37912,tn.clintonhwy@crumbl.com,(865) 512-6162,36.007449,-84.022659,TN,Crumbl,2024-11-01
clovis,Clovis,"1850 Herndon Ave, Ste 109",Clovis,California,93611,clovis@crumbl.com,(559) 345-5304,36.836981,-119.682230,CA,Crumbl,2024-11-01
flcobblestonecommons,Cobblestone Commons,"8855 W Boynton Beach Blvd, Ste 330",Boynton Beach,Florida,33472,fl.cobblestonecommons@crumbl.com,(561) 810-2580,26.5289872,-80.1857050,FL,Crumbl,2024-11-01
coeurdalene,Coeur d'Alene,3524 N Government Way,Coeur d'Alene,Idaho,83815,coeurdalene@crumbl.com,(208) 408-0685,47.708060,-116.785040,ID,Crumbl,2024-11-01
incoliseum,Coliseum,433 W Coliseum Blvd,Fort Wayne,Indiana,46805,in.coliseum@crumbl.com,(260) 205-8111,41.1179614,-85.1467095,IN,Crumbl,2024-11-01
txcollegestation,College Station,"11659 FM 2154, Ste 150 ",College Station,Texas,77845,tx.collegestation@crumbl.com,(979) 321-5612,30.5835294,-96.3240615,TX,Crumbl,2024-11-01
tncollierville,Collierville,"1337 W Poplar Ave, Ste 106",Collierville,Tennessee,38017,tn.collierville@crumbl.com,(901) 625-4506,35.045859,-89.70683810000001,TN,Crumbl,2024-11-01
colonialheights,Colonial Heights,707 South Park BLVD. Suit 4 ,Colonial Heights,Virginia,23834,colonialheights@crumbl.com,(804) 302-0345,37.2476646,-77.3901518,VA,Crumbl,2024-11-01
coloradosprings,Colorado Springs,"5102 N Nevada Ave, Ste 120",Colorado Springs,Colorado,80918,co.coloradosprings@crumbl.com,7194010030,38.902700,-104.818090,CO,Crumbl,2024-11-01
columbia,Columbia,"21 Conley Rd, Ste R",Columbia,Missouri,65201,columbia@crumbl.com,(573) 355-5787,38.948850,-92.296238,MO,Crumbl,2024-11-01
ncconcord,Concord Mills,"8915 Christenbury Pkwy, Ste 20",Concord,North Carolina,28027,ncconcord@crumbl.com,(980) 825-7022,35.3753689,-80.7360579,NC,Crumbl,2024-11-01
concord,Concord,"2015 Diamond Blvd, Ste E-150",Concord,California,94520,concord@crumbl.com,(925) 476-4996,37.973220,-122.057400,CA,Crumbl,2024-11-01
nhconcord,Concord,98 Fort Eddy Rd,Concord,New Hampshire,03301,nh.concord@crumbl.com,"""(603) 602-8482 """,43.21500109999999,-71.5298323,NH,Crumbl,2024-11-01
txconroe,Conroe,351 S Loop 336 W,Conroe,Texas,77304,txconroe@crumbl.com,(936) 249-2061,30.278399245164028,-95.46499741690427,TX,Crumbl,2024-11-01
arconway,Conway,"1100 S Amity Rd, Ste F",Conway,Arkansas,72032,ar.conway@crumbl.com,(501) 803-2401,35.0652177,-92.4132774,AR,Crumbl,2024-11-01
tncookeville,Cookeville,"1255 Interstate Dr, Ste 105",Cookeville,Tennessee,38501,tn.cookeville@crumbl.com,(423) 445-8880,36.1387593,-85.5074565,TN,Crumbl,2024-11-01
mncoonrapids,Coon Rapids,12629 Riverdale Blvd,Coon Rapids,Minnesota,55448,mn.coonrapids@crumbl.com,(651) 395-7723,45.19990,-93.34995,MN,Crumbl,2024-11-01
coralsprings,Coral Springs,6071 Coral Ridge Dr,Coral Springs,Florida,33076,coralsprings@crumbl.com,(754) 241-0237,26.305926,-80.277990,FL,Crumbl,2024-11-01
alcornerstone,Cornerstone,7736 Vaughn Rd,Montgomery,Alabama,36116,al.cornerstone@crumbl.com,(334) 230-7669,32.337074,-86.182161,AL,Crumbl,2024-11-01
corvallis,Corvallis,1705 NW 9th St,Corvallis,Oregon,97330,corvallis@crumbl.com,(541) 286-6611,44.583417,-123.2579719,OR,Crumbl,2024-11-01
cacostamesa,Costa Mesa,"369 E 17th St, Ste 3",Costa Mesa,California,92627,ca.costamesa@crumbl.com,(657) 339-2002,33.6308993,-117.9134974,CA,Crumbl,2024-11-01
cacosumnesriver,Cosumnes River,"8240 Delta Shores Cir S, Ste 120",Sacramento,California,95832,ca.cosumnesriver@crumbl.com,(279) 895-7022,38.4613378,-121.4940869,CA,Crumbl,2024-11-01
nccotswold,Cotswold,116 S Sharon Amity Rd,Charlotte,North Carolina,28211,nc.cotswold@crumbl.com,(704) 444-0765,35.1769654,-80.8013873,NC,Crumbl,2024-11-01
cottleville,Cottleville,6079 Mid Rivers Mall Dr,Cottleville,Missouri,63304,cottleville@crumbl.com,(636) 706-5076,38.746540,-90.634990,MO,Crumbl,2024-11-01
nmcottonwood,Cottonwood,"10420 Coors Bypass NW, Ste 104-B ",Albuquerque,New Mexico,87114,nm.cottonwood@crumbl.com,(505) 357-3640,35.206811,-106.658267,NM,Crumbl,2024-11-01
cottonwood,Cottonwood,1844 Fort Union Blvd,Cottonwood Heights,Utah,84121,ut.cottonwood@crumbl.com,(385) 246-1004,40.6240555,-111.8386465,UT,Crumbl,2024-11-01
lacovington,Covington,"70360 LA-21, Ste 5",Covington,Louisiana,70433,la.covington@crumbl.com,985) 200-5906,30.451536863516914,-90.13584804517158,LA,Crumbl,2024-11-01
covington,Covington,"16915 SE 272nd St, Ste 102",Covington,Washington,98042,covington@crumbl.com,(253) 235-9542,47.356330,-122.116051,WA,Crumbl,2024-11-01
pacranberrytownship,Cranberry Township,"1691 Route 228, Ste E",Cranberry Township,Pennsylvania,16066,pa.cranberry@crumbl.com,(878) 252-2200,40.68651522935341,-80.08145254639139,PA,Crumbl,2024-11-01
cocreekwalk,Creekwalk,120 E Cheyenne Rd,Colorado Springs,Colorado,80906,co.creekwalk@crumbl.com,(719) 285-0199,38.807120,-104.824020,CO,Crumbl,2024-11-01
mocrestwood,Crestwood,9563 Watson Rd,Crestwood,Missouri,63126,mo.crestwood@crumbl.com,(314) 530-4178,38.558683,-90.381353,MO,Crumbl,2024-11-01
azcrossroads,Crossroads,"4811 E Grant Rd, Ste 107",Tucson,Arizona,85712,az.crossroads@crumbl.com,(520) 372-5998,32.25171630000001,-110.8914015,AZ,Crumbl,2024-11-01
ilcrystallake,Crystal Lake,"5500 Northwest Hwy, Unit B",Crystal Lake,Illinois,60014,il.crystallake@crumbl.com,779) 800-6608,42.227100,-88.304270,IL,Crumbl,2024-11-01
caculvercity,Culver City,"3810 Midway Ave, Ste 290",Culver City,California,90232,ca.culvercity@crumbl.com,(424) 258-9428,34.0171575,-118.4084582,CA,Crumbl,2024-11-01
cumming,Cumming,"405 Peachtree Pkwy, Ste 120",Cumming,Georgia,30041,cumming@crumbl.com,(470) 239-1986,34.153211,-84.173176,GA,Crumbl,2024-11-01
flcutlerbay,Cutler Bay,18457 S Dixie Hwy,Cutler Bay,Florida,33157,fl.cutlerbay@crumbl.com,(786) 432-0369,25.598026724290484,-80.35104419614846,FL,Crumbl,2024-11-01
ohcuyahogafalls,Cuyahoga Falls,"753 Howe Ave, Ste D",Cuyahoga Falls,Ohio,44221,oh.cuyahogafalls@crumbl.com,(216) 354-2866,41.1196415,-81.47205009999999,OH,Crumbl,2024-11-01
cypress,Cypress,"28610 US-290, Ste F-15",Cypress,Texas,77433,cypress@crumbl.com,(281) 694-4220,29.993227,-95.746348,TX,Crumbl,2024-11-01
msdiberville,D'Iberville,"3950 Promenade Pkwy, Ste C ",D'Iberville,Mississippi,39540,ms.diberville@crumbl.com,(228) 256-0425,30.4568397,-88.9059656,MS,Crumbl,2024-11-01
gadalton,Dalton,"1304 W Walnut Ave, Ste 1",Dalton,Georgia,30720,ga.dalton@crumbl.com,(706) 397-7900,34.7604467,-84.9934498,GA,Crumbl,2024-11-01
nvdamonteranch,Damonte Ranch,"193 Damonte Ranch Pkwy, Ste T",Reno,Nevada,89521,nv.damonteranch@crumbl.com,(775) 391-6943,39.4206331,-119.7553774,NV,Crumbl,2024-11-01
cadanapoint,Dana Point,"32545 Golden Lantern, Ste C",Dana Point,California,92629,ca.danapoint@crumbl.com,(949) 352-4793,33.4906733,-117.6993005,CA,Crumbl,2024-11-01
ctdanbury,Danbury,"71 Newtown Rd, Ste 5",Danbury,Connecticut,06810,ct.danbury@crumbl.com,(203) 297-8107,41.40851,-73.41524,CT,Crumbl,2024-11-01
fldaniabeach,Dania Beach,4021 Oakwood Blvd,Hollywood,Florida,33020,fl.daniabeach@crumbl.com,(754) 280-4810 ,26.046719,-80.1592605,FL,Crumbl,2024-11-01
madanvers,Danvers,35 Independence Way,Danvers,Massachusetts,01923,ma.danvers@crumbl.com,(978) 560-3608,42.54987579034243,-70.94004226509901,MA,Crumbl,2024-11-01
aldaphne,Daphne,"1802 US Hwy 98, Unit D",Daphne,Alabama,36526,al.daphne@crumbl.com,(251) 210-7737,30.6049503,-87.8967526,AL,Crumbl,2024-11-01
madartmouth,Dartmouth,452 A State Rd,Dartmouth,Massachusetts,02747,ma.dartmouth@crumbl.com,(339) 255-5020,41.643238014087785,-70.9968357649089,MA,Crumbl,2024-11-01
iadavenport,Davenport,4036 E 53rd St,Davenport,Iowa,52807,ia.davenport@crumbl.com,(563) 275-2246 ,41.575700,-90.514720,IA,Crumbl,2024-11-01
fldavenport,Davenport,2100 Posner Blvd,Davenport,Florida,33837,fl.davenport@crumbl.com,(863) 306-5696,28.2284432,-81.6480133,FL,Crumbl,2024-11-01
davie,Davie,2272 S University Dr,Davie,Florida,33324,fl.davie@crumbl.com,(754) 241-9835,26.0940653,-80.251140,FL,Crumbl,2024-11-01
sddawleyfarm,Dawley Farm,5908 E 18th St,Sioux Falls,South Dakota,57110,sd.dawleyfarm@crumbl.com,(605) 857-3993,43.53656660000001,-96.6532556,SD,Crumbl,2024-11-01
gadawsonville,Dawsonville,"12 Dawson Market Way, Ste 200",Dawsonville,Georgia,30534,ga.dawsonville@crumbl.com,(706) 350-5553,34.35043,-84.05045,GA,Crumbl,2024-11-01
fldaytonabeach,Daytona Beach,"1808 W International Speedway Blvd, Ste 204",Daytona Beach,Florida,32114,fl.daytonabeach@crumbl.com,3867773823,29.1932049,-81.0703021,FL,Crumbl,2024-11-01
ildekalb,DeKalb,2566 Sycamore Rd,DeKalb,Illinois,60115,il.dekalb@crumbl.com,tel:8157876083,41.9564095,-88.7205642,IL,Crumbl,2024-11-01
fldeland,DeLand,2385 South Woodland Blvd,DeLand,Florida,32724,fl.deland@crumbl.com,(386) 456-3093,28.98738,-81.29767,FL,Crumbl,2024-11-01
aldecatur,Decatur,"2804 Spring Ave SW, Ste A",Decatur,Alabama,35603,al.decatur@crumbl.com,(938) 829-0955,34.5572653,-87.0019914,AL,Crumbl,2024-11-01
madedham,Dedham,751 Providence Hwy,Dedham,Massachusetts,02026,ma.dedham@crumbl.com,(781) 613-8228,42.24031859999999,-71.1789506,MA,Crumbl,2024-11-01
delmar,Del Mar,2646 Del Mar Heights Rd ,Del Mar,California,92014,cadelmar@crumbl.com,(858) 284-4728,32.9504292,-117.2464572,CA,Crumbl,2024-11-01
delafield,Delafield,2926 Golf Road,Delafield,Wisconsin,53018,delafield@crumbl.com,(262) 256-0250,43.053160,-88.368430,WI,Crumbl,2024-11-01
ohdelaware,Delaware,"820 Sunbury Rd, Unit 622",Delaware,Ohio,43015,oh.delaware@crumbl.com,(740) 206-8375,40.293047,-83.037478,OH,Crumbl,2024-11-01
fldelraybeach,Delray Beach,"1911 S Federal Hwy, Ste 214",Delray Beach,Florida,33483,fl.delraybeach@crumbl.com,(561) 948-5570,26.4371728,-80.0710101,FL,Crumbl,2024-11-01
mideltacrossing,Delta Crossing,"501 N Marketplace Blvd, Ste E",Lansing ,Michigan,48917,mi.deltacrossing@crumbl.com,(517) 329-1035,42.7398359,-84.6750846,MI,Crumbl,2024-11-01
txdentontowncenter,Denton Town Center,"1719 S Loop 288, Ste 150",Denton,Texas,76205,tx.dentontowncenter@crumbl.com,(940) 220-8054,33.191110,-97.096980,TX,Crumbl,2024-11-01
nydepew,Depew,"4900 Transit Rd, Ste 500",Depew,New York,14043,ny.depew@crumbl.com,(716) 415-5505,42.8772399,-78.6978674,NY,Crumbl,2024-11-01
derby,Derby,"1918 N Rock Rd, Ste 700",Derby,Kansas,67037,derby@crumbl.com,(316) 252-3848,37.567620,-97.243510,KS,Crumbl,2024-11-01
fldestin,Destin,"4447 Commons Dr E, Ste K112",Destin,Florida,32541,fl.destin@crumbl.com,(850) 389-4689,30.3920486,-86.42748089999999,FL,Crumbl,2024-11-01
nydewitt,Dewitt,3405 Erie Blvd E,Syracuse,New York,13214,ny.dewitt@crumbl.com,(315) 400-2332,43.047710,-76.069860,NY,Crumbl,2024-11-01
cadiamondbar,Diamond Bar,22438 Golden Springs Dr,Diamond Bar,California,91765,ca.diamondbar@crumbl.com,(909) 345-0550,34.0053019,-117.8234457,CA,Crumbl,2024-11-01
padicksoncity,Dickson City,700 Commerce Blvd,Dickson City,Pennsylvania,18519,pa.dicksoncity@crumbl.com,(272) 203-4697,41.4630792,-75.646023,PA,Crumbl,2024-11-01
akdimond,Dimond,"8840 Old Seward Hwy, Unit A",Anchorage,Alaska,99515,ak.dimond@crumbl.com,907-931-7677 ,61.1403683,-149.8672856,AK,Crumbl,2024-11-01
fldoral,Doral,"9971 W Flagler St, Ste 200",Miami,Florida,33174,fl.doral@crumbl.com,(786) 373-4671,25.76933,-80.35768,FL,Crumbl,2024-11-01
madorchester,Dorchester,21 District Ave,Dorchester,Massachusetts,02125,ma.dorchester@crumbl.com,(857) 271-2003,42.3256217,-71.0618757,MA,Crumbl,2024-11-01
aldothan,Dothan,"4650 W Main St, Unit 603",Dothan,Alabama,36305,al.dothan@crumbl.com,(334) 325-0220,31.239460,-85.462140,AL,Crumbl,2024-11-01
cadouglasboulevard,Douglas Boulevard,"1921 Douglas Blvd, Ste 105",Roseville,California,95661,ca.douglasblvd@crumbl.com,(279) 206-3902,38.745930,-121.255410,CA,Crumbl,2024-11-01
gadouglasville,Douglasville,2856 Chapel Hill Rd,Douglasville,Georgia,30135,ga.douglasville@crumbl.com,(470) 243-4744,33.72808941759361,-84.73561597771258,GA,Crumbl,2024-11-01
dedover,Dover,"50 N Dupont Hwy, Ste 10",Dover,Delaware,19901,de.dover@crumbl.com,(302) 608-0698,39.16005,-75.517666,DE,Crumbl,2024-11-01
cadowney,Downey,"8994 Apollo Way, Unit B",Downey,California,90242,ca.downey@crumbl.com,(562) 287-8010,33.9225058,-118.1298825,CA,Crumbl,2024-11-01
draper,Draper,1223 E Draper Pkwy,Draper,Utah,84020,draper@crumbl.com,(385) 237-1430,40.5293405,-111.8558578,UT,Crumbl,2024-11-01
caduarte,Duarte,1014 Huntington Dr,Duarte,California,91010,ca.duarte@crumbl.com,(626) 239-8093,34.1393833,-117.9839425,CA,Crumbl,2024-11-01
cadublin,Dublin,3862 Fallon Rd,Dublin,California,94568,ca.dublin@crumbl.com,(925) 226-8148,37.7050415,-121.8515183,CA,Crumbl,2024-11-01
dublin,Dublin,6780 Perimeter Loop Rd,Dublin,Ohio,43017,dublin@crumbl.com,(614) 465-3888,40.103940,-83.157480,OH,Crumbl,2024-11-01
iadubuque,Dubuque,"3500 Dodge St, Ste 202",Dubuque,Iowa,52003,ia.dubuque@crumbl.com,(563) 231-2198,42.4896771,-90.72200099999999,IA,Crumbl,2024-11-01
mnduluth,Duluth,917 W Central Entrance,Duluth,Minnesota,55811,mn.duluth@crumbl.com,(218) 461-1339,46.8036144,-92.1524648,MN,Crumbl,2024-11-01
durango,Durango,6255 S Durango Dr,Las Vegas,Nevada,89113,nv.durango@crumbl.com,(702) 613-4667,36.075040,-115.280030,NV,Crumbl,2024-11-01
indyer,Dyer,819 Joliet St,Dyer,Indiana,46311,in.dyer@crumbl.com,(219) 440-2063,41.494483,-87.507200,IN,Crumbl,2024-11-01
mneagan,Eagan,"1270 Promenade Place, Ste 130",Eagan,Minnesota,55121,mn.eagan@crumbl.com,(612) 699-2424,44.8343705,-93.1541413,MN,Crumbl,2024-11-01
caeagleglen,Eagle Glen,"3971 Bedford Canyon Rd, Ste 2102",Corona,California,92883,ca.eagleglen@crumbl.com,(209) 671-3885,33.8190371,-117.5213402,CA,Crumbl,2024-11-01
ideagle,Eagle,3116 E State St,Eagle,Idaho,83616,id.eagle@crumbl.com,(208) 370-2638,43.6837738,-116.3168472,ID,Crumbl,2024-11-01
sceasley,Easley,128 Rolling Hills Cir,Easley,South Carolina,29640,sc.easley@crumbl.com,(864) 523-4488,34.8268851,-82.546863,SC,Crumbl,2024-11-01
gaeastcobb,East Cobb,"640 Johnson Ferry Rd, Ste 110",Marietta,Georgia,30068,ga.eastcobb@crumbl.com,(470) 480-8569,33.96436,-84.41107,GA,Crumbl,2024-11-01
rieastgreenwich,East Greenwich,"1000 Division St, Ste 120",East Greenwich,Rhode Island,02818,ri.eastgreenwich@crumbl.com,(401) 317-2022,41.6614825,-71.4946672,RI,Crumbl,2024-11-01
eastmemphis,East Memphis,711 S Mendenhall Rd,Memphis,Tennessee,38117,tn.eastmemphis@crumbl.com,(901) 410-1950,35.1117544,-89.8986942,TN,Crumbl,2024-11-01
ileastpeoria,East Peoria,406 W Washington St,East Peoria,Illinois,61611,il.eastpeoria@crumbl.com,(309) 322-2767,40.670891,-89.584520,IL,Crumbl,2024-11-01
caeastlake,Eastlake,"2240 Otay Lakes Rd, Ste 302",Chula Vista,California,91915,ca.eastlake@crumbl.com,(619) 746-8998,32.6457171,-116.9693014,CA,Crumbl,2024-11-01
txeastlake,Eastlake,"13371 Eastlake Blvd, Bldg 40, Ste 505 ",El Paso,Texas,79928,tx.eastlake@crumbl.com,(915) 229-4411,31.68949,-106.26482,TX,Crumbl,2024-11-01
oheaston,Easton,4034 Morse Crossing ,Columbus,Ohio,43219,oh.easton@crumbl.com,(614) 380-2696,40.0522455,-82.9211022,OH,Crumbl,2024-11-01
caeastvale,Eastvale,"4916 Hamner Ave, Ste 130",Eastvale ,California,91752,ca.eastvale@crumbl.com,(951) 416-0146,33.99937,-117.5579496,CA,Crumbl,2024-11-01
wieauclaire,Eau Claire,4008 Commonwealth Ave,Eau Claire,Wisconsin,54701,wi.eauclaire@crumbl.com,(715) 900-2777,44.7741986,-91.4370687,WI,Crumbl,2024-11-01
mnedenprairie,Eden Prairie,12575 Castlemoor Dr,Eden Prairie,Minnesota,55344,mn.edenprairie@crumbl.com,(651) 728-5747,44.8510609,-93.4354827,MN,Crumbl,2024-11-01
edgewater,Edgewater,1931 Sheridan Blvd ,Edgewater,Colorado,80214,co.edgewater@crumbl.com,(720) 798-5642,39.7473275,-105.0544262,CO,Crumbl,2024-11-01
mnedina,Edina,"7101 France Ave S, Ste 104",Edina,Minnesota,55435,mn.edina@crumbl.com,(651) 728-5752,44.87438,-93.32794,MN,Crumbl,2024-11-01
okedmond,Edmond," 925 W I-35 Frontage Rd, Ste 132",Edmond,Oklahoma,73034,ok.edmond@crumbl.com,(405) 726-1793,35.6492969,-97.4277007,OK,Crumbl,2024-11-01
caelpaseo,El Paseo,"6733 N Riverside Dr, Ste 104 ",Fresno,California,93722,ca.elpaseo@crumbl.com,(559) 666-2333,36.835990,-119.912120,CA,Crumbl,2024-11-01
txeldridge,Eldridge,"1531 Eldridge Pkwy, Ste 190",Houston,Texas,77077,tx.eldridge@crumbl.com,(281) 892-2341,29.756357,-95.6245206,TX,Crumbl,2024-11-01
kyelizabethtown,Elizabethtown,167 Towne Dr,Elizabethtown,Kentucky,42701,ky.elizabethtown@crumbl.com,(270) 304-2164,37.733980402104585,-85.89051053090706,KY,Crumbl,2024-11-01
elkgrove,Elk Grove,7560 Elk Grove Blvd,Elk Grove,California,95757,elkgrove@crumbl.com,(916) 318-0224,38.408399,-121.414963,CA,Crumbl,2024-11-01
paellispreserve,Ellis Preserve,3741 West Chester Pike,Newtown Square ,Pennsylvania,19073,pa.ellispreserve@crumbl.com,(484) 420-7069,39.9870475,-75.4081629,PA,Crumbl,2024-11-01
caencino,Encino,"17401 Ventura Blvd, Ste A35",Encino,California,91316,ca.encino@crumbl.com,(747) 254-0127,34.16136,-118.51189,CA,Crumbl,2024-11-01
eugene,Eugene,"207 Coburg Rd, Ste 107",Eugene,Oregon,97401,eugene@crumbl.com,(541) 246-6565,44.0641149,-123.0757667,OR,Crumbl,2024-11-01
txeuless,Euless,"3001 TX-121, Ste 278",Euless,Texas,76039,tx.euless@crumbl.com,(682) 503-1284,32.880350,-97.100430,TX,Crumbl,2024-11-01
gaevans,Evans,625 Mullins Colony Dr,Evans,Georgia,30809,ga.evans@crumbl.com,(706) 828-1382,33.5287233,-82.1206369,GA,Crumbl,2024-11-01
inevansvillewestside,Evansville Westside,"5435 Pearl Dr, Ste 2",Evansville,Indiana,47712,in.evansvillewestside@crumbl.com,(930) 212-0677,37.9750114,-87.6415407,IN,Crumbl,2024-11-01
inevansville,Evansville,"939 N Burkhardt Rd, Ste B",Evansville,Indiana,47715,in.evansville@crumbl.com,(812) 965-4133,37.9849501,-87.4736865,IN,Crumbl,2024-11-01
paexton,Exton,"126 Woodcutter St, Ste 100",Exton,Pennsylvania,19341,pa.exton@crumbl.com,(484) 876-1166,40.023037,-75.6294234,PA,Crumbl,2024-11-01
flfsu,FSU,"1670 W Tennessee St, Unit 1",Tallahassee,Florida,32304,fl.fsu@crumbl.com,(850) 759-4831,30.4493375,-84.311803,FL,Crumbl,2024-11-01
vafairlakes,Fair Lakes,13075 Fair Lakes Shopping Center,Fairfax,Virginia,22033,va.fairlakes@crumbl.com,(571) 307-6221,38.8549152,-77.3996125,VA,Crumbl,2024-11-01
ctfairfield,Fairfield,2261 Black Rock Tpk,Fairfield,Connecticut,06825,ct.fairfield@crumbl.com,(203) 674-9755,41.1824426,-73.2541499,CT,Crumbl,2024-11-01
cafairfield,Fairfield,"5089 Business Center Dr, Ste 100 ",Fairfield ,California,94534,ca.fairfield@crumbl.com,(707) 344-9691,38.2156947,-122.1428454,CA,Crumbl,2024-11-01
ohfairlawn,Fairlawn,"3750 W Market St, Unit G",Fairlawn,Ohio,44333,oh.fairlawn@crumbl.com,(330) 443-1618,41.134590,-81.635750,OH,Crumbl,2024-11-01
ohfairviewpark,Fairview Park,"3038 Westgate Mall, Ste 20",Fairview Park,Ohio,44126,oh.fairviewpark@crumbl.com,(440) 575-5666,41.4611032,-81.8535285,OH,Crumbl,2024-11-01
vafallschurch,Falls Church,1106-A W Broad St,Falls Church,Virginia,22046,va.fallschurch@crumbl.com,(571) 385-1177,38.8934961,-77.189141,VA,Crumbl,2024-11-01
nmfarmington,Farmington,"5150 E Main St, Ste 104",Farmington,New Mexico,87402,nm.farmington@crumbl.com,(505) 278-0014,36.7694928,-108.1468365,NM,Crumbl,2024-11-01
arfayetteville,Fayetteville,"2621 E Mission Blvd, Ste 1",Fayetteville,Arkansas,72703,ar.fayetteville@crumbl.com,(479) 396-3747,36.0866318,-94.12395939999999,AR,Crumbl,2024-11-01
wafederalway,Federal Way,"1812 S 320th St, Suite B, ",Federal Way,Washington,98003,wa.federalway@crumbl.com,(253) 218-1019,47.3167084,-122.3103075,WA,Crumbl,2024-11-01
mifenton,Fenton,17075 Silver Pkwy,Fenton,Michigan,48430,mi.fenton@crumbl.com,(810) 885-3277,42.7955032,-83.7383928,MI,Crumbl,2024-11-01
kyferncreek,Fern Creek,"7714 Bardstown Rd, Ste 106",Louisville,Kentucky,40291,ky.ferncreek@crumbl.com,(502) 251-1666,38.1347664,-85.580075,KY,Crumbl,2024-11-01
fishers,Fishers,8395 E 116th St,Fishers,Indiana,46038,fishers@crumbl.com,(317) 284-9311,39.956360,-86.020378,IN,Crumbl,2024-11-01
flagstaff,Flagstaff,"319 S Regent St, Ste 203",Flagstaff,Arizona,86001,flagstaff@crumbl.com,(928) 235-2500,35.191921,-111.642670,AZ,Crumbl,2024-11-01
scflorence,Florence,"250 N Beltline Dr, Unit 50",Florence,South Carolina,29501,sc.florence@crumbl.com,(803) 715-4340,34.1938806,-79.82271449999999,SC,Crumbl,2024-11-01
txflowermound,Flower Mound,"2550 Cross Timbers Rd, Ste 108",Flower Mound,Texas,75028,tx.flowermound@crumbl.com,(469) 240-1038,33.03618,-97.06847,TX,Crumbl,2024-11-01
gaflowerybranch,Flowery Branch,"5887 Spout Springs Rd, Ste D401",Flowery Branch,Georgia,30542,ga.flowerybranch@crumbl.com,(470) 458-1877,34.1772261,-83.91116240000001,GA,Crumbl,2024-11-01
msflowood,Flowood,380 Ridge Way,Flowood,Mississippi,39232,ms.flowood@crumbl.com,(601) 790-0906,32.3415305,-90.0650056,MS,Crumbl,2024-11-01
folsom,Folsom,"195 Placerville Rd, Ste 120",Folsom,California,95630,folsom@crumbl.com,(916) 238-6302,38.646110,-121.113340,CA,Crumbl,2024-11-01
wifonddulac,Fond Du Lac,N6667 Rolling Meadows Dr Fond Du Lac Wisconsin 54937,Fond Du Loc,Wisconsin,54937,wi.fonddulac@crumbl.com,(920) 238-3737,43.78406499356138,-88.48746933117802,WI,Crumbl,2024-11-01
cafoothillranch,Foothill Ranch,26552 Towne Centre Dr,Lake Forest ,California,92610,ca.foothillranch@crumbl.com,(949) 264-8539,33.678540,-117.669430,CA,Crumbl,2024-11-01
scforestacres,Forest Acres,"4605 Forest Dr, Ste 3",Columbia,South Carolina,29206,sc.forestacres@crumbl.com,(803) 832-1551,34.02031969841549,-80.97048480464692,SC,Crumbl,2024-11-01
txforney,Forney,"823 FM 548, Ste 120",Forney,Texas,75126,tx.forney@crumbl.com,(469) 505-3637,32.7504331,-96.4454110,TX,Crumbl,2024-11-01
fortcollins,Fort Collins,"3300 S College Ave, Ste 120",Fort Collins,Colorado,80525,fort_collins@crumbl.com,(720) 727-1058,40.541730,-105.076440,CO,Crumbl,2024-11-01
flfortmyers,Fort Myers,"7925 Dani Dr, Ste 130",Fort Myers,Florida,33966,fl.fortmyers@crumbl.com,(239) 236-3183,26.6023176,-81.81038699999999,FL,Crumbl,2024-11-01
gafortoglethorpe,Fort Oglethorpe,112 Battlefield Station Dr,Fort Oglethorpe,Georgia,30742,ga.fortoglethorpe@crumbl.com,(706) 395-5594,34.93832112622786,-85.21711938390558,GA,Crumbl,2024-11-01
arfortsmith,Fort Smith,"3106 S 74th St, Ste 104",Fort Smith,Arkansas,72903,ar.fortsmith@crumbl.com,(479) 274-8588,35.353665037958216,-94.35094445995279,AR,Crumbl,2024-11-01
cafostercity,Foster City,"1000 Metro Center Blvd, Ste D",Foster City ,California,94404,ca.fostercity@crumbl.com,(650) 597-0761,37.56085,-122.27402,CA,Crumbl,2024-11-01
cafountainvalley,Fountain Valley,18900 Brookhurst St,Fountain Valley,California,92708,ca.fountainvalley@crumbl.com,(657) 339-0440,33.68849,-117.95308,CA,Crumbl,2024-11-01
txfourpoints,Four Points,"7900 N FM 620, Ste 110",Austin,Texas,78726,tx.fourpoints@crumbl.com,(737) 219-8427,30.4146191,-97.85090509999999,TX,Crumbl,2024-11-01
mafoxborough,Foxborough,"22 Patriot Place, Ste 117b",Foxborough,Massachusetts,02035,ma.foxborough@crumbl.com,(774) 214-0812,42.0926335,-71.2667673,MA,Crumbl,2024-11-01
franklin,Franklin,"539 Cool Springs Blvd, Ste 110-A",Franklin,Tennessee,37067,tn.franklin@crumbl.com,(615) 422-7722,35.947361,-86.825279,TN,Crumbl,2024-11-01
mdfrederick,Frederick,"200 Shorebird St, Ste B",Frederick,Maryland,21701,mdfrederick@crumbl.com,240) 397-9194,39.447120,-77.395180,MD,Crumbl,2024-11-01
fredericksburg,Fredericksburg,1460 Central Park Blvd Suite 106,Fredericksburg,Virginia,22401,fredericksburg@crumbl.com,(540) 368-6747,38.304399,-77.511868,VA,Crumbl,2024-11-01
fresno,Fresno,7969 N Blackstone Ave,Fresno,California,93711,fresno@crumbl.com,(559) 321-7024,36.851503,-119.792128,CA,Crumbl,2024-11-01
txfrisco,Frisco,"4880 Eldorado Pkwy, Ste 400",Frisco,Texas,75033,tx.frisco@crumbl.com,(469)592-6335,33.1754863,-96.84434499999999,TX,Crumbl,2024-11-01
flgainesville,Gainesville,3230 SW 35th Blvd,Gainesville,Florida,32608,fl.gainesville@crumbl.com,(352) 575-9919,29.6239735,-82.3783606,FL,Crumbl,2024-11-01
gagainesville,Gainesville,952 Dawsonville Hwy,Gainesville,Georgia,30501,ga.gainesville@crumbl.com,(470) 208-2821,34.2997259,-83.85619439999999,GA,Crumbl,2024-11-01
tngallatin,Gallatin,"1483 Nashville Pike, Ste 503",Gallatin ,Tennessee,37066,tn.gallatin@crumbl.com,(615) 989-0337,36.3608167,-86.4985222,TN,Crumbl,2024-11-01
garland,Garland,"5345 N Garland Ave, Ste 106",Garland,Texas,75040,garland@crumbl.com,(469) 750-0748,32.964489,-96.644431,TX,Crumbl,2024-11-01
ncgarner,Garner,162 Shenstone Blvd,Garner,North Carolina,27529,nc.garner@crumbl.com,(984) 279-7196,35.69399993708049,-78.58256257504226,NC,Crumbl,2024-11-01
ncgastonia,Gastonia,"3125 E Franklin Blvd, Ste 105",Gastonia,North Carolina,28056,nc.gastonia@crumbl.com,(704) 228-1230,35.2584095,-81.1263312,NC,Crumbl,2024-11-01
ilgeneva,Geneva,1038 Commons Dr,Geneva,Illinois,60134,il.geneva@crumbl.com,(331) 248-5969,41.894770,-88.343050,IL,Crumbl,2024-11-01
georgetown,Georgetown,"1013 W University Ave, Unit 130",Georgetown,Texas,78628,georgetown@crumbl.com,(512) 630-0363,30.631700,-97.695010,TX,Crumbl,2024-11-01
mdgermantown,Germantown,"20650 Seneca Meadows Pkwy, Unit C1",Germantown,Maryland,20876,md.germantown@crumbl.com,(240) 224-0855,39.198230,-77.255030,MD,Crumbl,2024-11-01
tngermantown,Germantown,"7605 W Farmington Blvd, Ste 3",Germantown,Tennessee,38138,tn.germantown@crumbl.com,(901) 250-6959,35.0950458,-89.8092537,TN,Crumbl,2024-11-01
gigharbor,Gig Harbor,"4784 Borgen Blvd, Suite E",Gig Harbor ,Washington,98332,wa.gigharbor@crumbl.com,2533036300,47.3595709,-122.6048386,WA,Crumbl,2024-11-01
gilbert,Gilbert,"2743 S Market St, Ste 105",Gilbert,Arizona,85295,gilbert@crumbl.com,(480) 645-9555,33.3004796,-111.7431606,AZ,Crumbl,2024-11-01
mogladstone,Gladstone,5247 NE Antioch Rd,Kansas City ,Missouri,64119,mo.gladstone@crumbl.com,(816) 601-0457,39.1896598,-94.5506293,MO,Crumbl,2024-11-01
ilglenellyn,Glen Ellyn,709 W Roosevelt Rd,Glen Ellyn,Illinois,60137,il.glenellyn@crumbl.com,(630) 474-3747,41.859350,-88.057610,IL,Crumbl,2024-11-01
paglenmills,Glen Mills,"1751 Wilmington Pike, Ste C2",Glen Mills,Pennsylvania,19342,pa.glenmills@crumbl.com,(610) 750-9177,39.8753574,-75.5443349,PA,Crumbl,2024-11-01
ilglendaleheights,Glendale Heights,179 W Army Trail Rd,Glendale Heights ,Illinois,60139,il.glendaleheights@crumbl.com,(630) 635-0563,41.938536,-88.0996906,IL,Crumbl,2024-11-01
glendale,Glendale,"9390 W Hanna Ln, Unit B-103",Glendale,Arizona,85305,glendale@crumbl.com, (602)-675-9555,33.53515155711205,-112.2608561569689,AZ,Crumbl,2024-11-01
caglendale,Glendale,157 Caruso Ave,Glendale,California,91210,ca.glendale@crumbl.com,(747) 297-0361,34.1432568,-118.2550578,CA,Crumbl,2024-11-01
glendora,Glendora,"1365 E Gladstone St, Ste 500",Glendora,California,91740,caglendora@crumbl.com,(626) 385-6756,34.1164166,-117.8358593,CA,Crumbl,2024-11-01
cagoleta,Goleta,5660 Calle Real,Goleta,California,93117,ca.goleta@crumbl.com,(209) 791-0047,34.4415691,-119.8224278,CA,Crumbl,2024-11-01
ilgolfmill,Golf Mill,8419 W Golf Rd,Niles,Illinois,60714,il.golfmill@crumbl.com,(224) 348-8887,42.0541862,-87.8364939,IL,Crumbl,2024-11-01
lagonzales,Gonzales,"577 W Hwy 30, Ste B",Gonzales,Louisiana,70737,la.gonzales@crumbl.com,(225) 331-9110,30.21032029,-90.92496858,LA,Crumbl,2024-11-01
goodyear,Goodyear,"790 N Estrella Pkwy, Ste F",Goodyear,Arizona,85338,goodyear@crumbl.com,(623) 259-4311,33.4554954,-112.3929179,AZ,Crumbl,2024-11-01
cagosfordvillage,Gosford Village,"5649 Gosford Rd, Ste 200",Bakersfield,California,93313,ca.gosfordvillage@crumbl.com,(661) 241-0977,35.3061357,-119.0951333,CA,Crumbl,2024-11-01
wigrafton,Grafton,1258 N. Port Washington Rd.,Grafton,Wisconsin,53024,wi.grafton@crumbl.com,(262) 228-6800,43.319469,-87.922340,WI,Crumbl,2024-11-01
ndgrandforks,Grand Forks,"3750 32nd Ave S, Ste 107",Grand Forks,North Dakota,58201,nd.grandforks@crumbl.com,(701) 410-3435,47.8909122,-97.08217850000001,ND,Crumbl,2024-11-01
grandjunction,Grand Junction,"2546 Rimrock Ave, Ste 400",Grand Junction,Colorado,81505,grandjunction@crumbl.com,(970) 368-5033,39.0788568,-108.5832452,CO,Crumbl,2024-11-01
grandprairie,Grand Prairie,"5220 S State Hwy 360, Ste 160",Grand Prairie,Texas,75052,grandprairie@crumbl.com,(682) 777-4658,32.644710,-97.059870,TX,Crumbl,2024-11-01
grandrapids,Grand Rapids,"3577 28th St SE, Ste G4",Grand Rapids,Michigan,49512,grandrapids@crumbl.com,(616) 803-8734,42.912860,-85.579060,MI,Crumbl,2024-11-01
migrandville,Grandville,"4533 Ivanrest Ave SW, Ste A",Grandville,Michigan,49418,mi.grandville@crumbl.com,(616) 221-3344,42.88238,-85.74427,MI,Crumbl,2024-11-01
mtgreatfalls,Great Falls,2114 10th Ave,Great Falls,Montana,59405,mt.greatfalls@crumbl.com,(406) 315-5002,47.4932675,-111.2707625,MT,Crumbl,2024-11-01
greeley,Greeley,"4421 Centerplace Dr, Ste B",Greeley,Colorado,80634,co.greeley@crumbl.com,(720) 727-1296,40.394100,-104.753310,CO,Crumbl,2024-11-01
wigreenbay,Green Bay,2308 S Oneida Street Suite 120,Ashwaubenon,Wisconsin,54304,wi.greenbay@crumbl.com,(920) 393-9499,44.4893003,-88.0686616,WI,Crumbl,2024-11-01
nvgreenvalley,Green Valley,"55 N Stephanie St, Ste 100",Henderson,Nevada,89074,nv.greenvalley@crumbl.com,(725) 238-5799,36.032940,-115.047210,NV,Crumbl,2024-11-01
vagreenbrier,Greenbrier,1412 Greenbrier Parkway Suite 112 ,Chesapeake,Virginia,23320,va.greenbrier@crumbl.com,(276) 231-5591,36.775498203547016,-76.23270908877288,VA,Crumbl,2024-11-01
wigreendale,Greendale,5255 South 76th St. Suite 110,Greendale,Wisconsin,53129,wi.greendale@crumbl.com,(414) 279-0899,42.9491818,-88.0111806,WI,Crumbl,2024-11-01
greensboro,Greensboro,"1218 Bridford Pkwy, Unit A",Greensboro,North Carolina,27407,greensboro@crumbl.com,(336) 316-6599,36.0565367,-79.9066346,NC,Crumbl,2024-11-01
greenville,Greenville,"1118 Woodruff Rd, Unit B ",Greenville,South Carolina,29607,greenville@crumbl.com,(864) 881-2250,34.829640,-82.305330,SC,Crumbl,2024-11-01
greenwoodvillage,Greenwood Village,"8547 E Arapahoe Rd, Unit C",Greenwood Village,Colorado,80112,greenwoodvillage@crumbl.com,(720) 442-8083,39.596320,-104.891280,CO,Crumbl,2024-11-01
greenwood,Greenwood,"1675 W Smith Valley Rd, Ste D4B",Greenwood,Indiana,46142,greenwood@crumbl.com,(463) 200-5249,39.6047975,-86.1566425,IN,Crumbl,2024-11-01
scgreer,Greer,1128 W Wade Hampton Blvd,Greer,South Carolina,29650,sc.greer@crumbl.com,tel:8644164699,34.94353,-82.25585,SC,Crumbl,2024-11-01
algreystone,Greystone,"5403 US Hwy 280, Ste 101",Birmingham,Alabama,35242,al.greystone@crumbl.com,(205) 671-8078,33.4192871,-86.67023309999999,AL,Crumbl,2024-11-01
ohgrovecity,Grove City,1719 Stringtown Rd,Grove City,Ohio,43123,oh.grovecity@crumbl.com,(380) 666-2727,39.87634,-83.04494,OH,Crumbl,2024-11-01
gagrovetown,Grovetown,"285 Meridian Dr, Ste 6B",Grovetown,Georgia,30813,ga.grovetown@crumbl.com,(762) 233-7699,33.4773557,-82.1984058,GA,Crumbl,2024-11-01
prguaynabo,Guaynabo,"1498 Ave Roosevelt Plaza Caparra, Ste 14",Guaynabo,Puerto Rico,00968,pr.guaynabo@crumbl.com, (939) 333-5191,18.41123,-66.10014,,Crumbl,2024-11-01
flgulfbreeze,Gulf Breeze,844 Gulf Breeze Pkwy,Gulf Breeze,Florida,32561,fl.gulfbreeze@crumbl.com,(850) 565-3313,30.360174792497787,-87.16479032156502,FL,Crumbl,2024-11-01
algulfshores,Gulf Shores,"3800 Gulf Shores Pkwy, Bldg 100, Ste 138",Gulf Shores,Alabama,36542,al.gulfshores@crumbl.com,(251) 238-6939,30.3013781,-87.6817196,AL,Crumbl,2024-11-01
msgulfport,Gulfport,"15520 Daniel Blvd, Ste D",Gulfport,Mississippi,39503,ms.gulfport@crumbl.com,(228) 277-1004,30.4364883,-89.1012477,MS,Crumbl,2024-11-01
ilgurnee,Gurnee,7105 Grand Ave,Gurnee,Illinois,60031,il.gurnee@crumbl.com,(224) 252-0422,42.3852868,-87.9773317,IL,Crumbl,2024-11-01
njhamiltontownship,Hamilton Township,634 Marketplace Blvd,Hamilton Township,New Jersey,08691,nj.hamiltontownship@crumbl.com,(609) 659-0693,40.1949775,-74.6360763,NJ,Crumbl,2024-11-01
ohhamilton,Hamilton,3385 Princeton Rd,Hamilton,Ohio,45011,oh.hamilton@crumbl.com,(513) 663-6008,39.38843549699606,-84.50274828508311,OH,Crumbl,2024-11-01
flhamlin,Hamlin,16027 New Independence Pkwy,Winter Garden,Florida,34747,fl.hamlin@crumbl.com,(407) 287-1024,28.4751932,-81.6269350,FL,Crumbl,2024-11-01
flhammocklanding,Hammock Landing,"225 Palm Bay Rd NE, Ste 183",West Melbourne,Florida,32904,fl.hammocklanding@crumbl.com,(321) 477-1022,28.037476,-80.663566,FL,Crumbl,2024-11-01
lahammond,Hammond,209 Palace Dr,Hammond,Louisiana,70403,la.hammond@crumbl.com,(985) 277-9909,30.48183,-90.45880,LA,Crumbl,2024-11-01
vahampton,Hampton,"3977 Kilgore Ave Ste 204, ",Hampton,Virginia,23666,va.hampton@crumbl.com,(757) 504-0256,37.04338778610136,-76.39174746959638,VA,Crumbl,2024-11-01
cahanford,Hanford,"208 N 12th Ave, Ste 103",Hanford ,California,93230,ca.hanford@crumbl.com,(559) 794-2629,36.325160,-119.676130,CA,Crumbl,2024-11-01
mahanover,Hanover,2053 Washington St,Hanover ,Massachusetts,02339,ma.hanover@crumbl.com,(781) 561-0552,42.1558224,-70.8505636,MA,Crumbl,2024-11-01
scharbison,Harbison,150 C Harbison Blvd,Columbia,South Carolina,29212,sc.harbison@crumbl.com,(803) 756-3632,34.0664167,-81.1660925,SC,Crumbl,2024-11-01
vaharrisonburg,Harrisonburg,151 Burgess Road,Harrisonburg,Virginia,22801,va.harrisonburg@crumbl.com,(540) 208-3004,38.433100,-78.850790,VA,Crumbl,2024-11-01
cahastingsranch,Hastings Ranch,3827 E Foothill Blvd,Pasadena,California,91107,ca.hastingsranch@crumbl.com,(626) 604-1399,34.15165,-118.0713146,CA,Crumbl,2024-11-01
mshattiesburg,Hattiesburg,"3720 Hardy St, Ste 6",Hattiesburg,Mississippi,39402,ms.hattiesburg@crumbl.com,(601) 602-5253,31.3230884,-89.3471793,MS,Crumbl,2024-11-01
cahawthorne,Hawthorne,5362 W Rosecrans Ave,Hawthorne,California,90250,ca.hawthorne@crumbl.com,(424)255-1088,33.90168,-118.37379,CA,Crumbl,2024-11-01
vahaymarket,Haymarket,6612 Watts Rd,Haymarket,Virginia,20169,va.haymarket@crumbl.com,(571) 503-1616,38.8144907,-77.6386863,VA,Crumbl,2024-11-01
ohheath,Heath,963C Hebron Rd,Heath,Ohio,43056,oh.heath@crumbl.com,(740) 334-4700,40.0269651,-82.4516528,OH,Crumbl,2024-11-01
heber,Heber City,"75 W 1000 S, #500",Heber City,Utah,84032,ut.heber@crumbl.com,(435) 709-2623,40.494297433662595,-111.4150430523887,UT,Crumbl,2024-11-01
mthelena,Helena,"2030 Cromwell Dixon Ln, Ste J",Helena,Montana,59602,mt.helena@crumbl.com,(406) 204-0568,46.6147516,-112.0086035,MT,Crumbl,2024-11-01
henderson,Henderson,"10575 S Eastern Ave, Ste 190",Henderson,Nevada,89052,henderson@crumbl.com,(702) 623-7348,35.999270,-115.106000,NV,Crumbl,2024-11-01
hendersonville,Hendersonville,"280 Indian Lake Blvd, Ste 110",Hendersonville,Tennessee,37075,hendersonville@crumbl.com,(615) 912-9009,36.327795,-86.593476,TN,Crumbl,2024-11-01
vahenrico,Henrico,"9621 West Broad Street, Suite 2 ",Glen Allen,Virginia,23060,va.henrico@crumbl.com,(804) 476-0019,37.6397636,-77.564556,VA,Crumbl,2024-11-01
nyhenrietta,Henrietta,"100 Marketplace Dr, Ste 120",Henrietta,New York,14623,ny.henrietta@crumbl.com,(585) 358-0049,43.08647933974801,-77.62396192445291,NY,Crumbl,2024-11-01
tnhermitage,Hermitage,"5570 Old Hickory Blvd, Ste 104",Hermitage,Tennessee,37076,tn.hermitage@crumbl.com,(615) 475-5005,36.1806014,-86.6051498,TN,Crumbl,2024-11-01
hesperia,Hesperia,"12717 S Main St, Unit 510",Hesperia,California,92345,hesperia@crumbl.com,(442) 600-4754,34.425330,-117.385670,CA,Crumbl,2024-11-01
nchickory,Hickory,2345 US Hwy 70 SE,Hickory,North Carolina,28602,nc.hickory@crumbl.com,(828) 202-1990,35.703198555105764,-81.29306541349445,NC,Crumbl,2024-11-01
vahickory,Hickory,"236 Carmichael Way, Suite 312",Chesapeake,Virginia,23322,va.hickory@crumbl.com,(757) 317-5253,36.6603908,-76.2337263,VA,Crumbl,2024-11-01
nchighpoint,High Point,"1915 N Main St, Ste 107",High Point,North Carolina,27262,nc.highpoint@crumbl.com,(336) 802-1374,35.9806689,-80.022246,NC,Crumbl,2024-11-01
highlandsranch,Highlands Ranch,"9557 S University Blvd, Ste 102",Highlands Ranch,Colorado,80126,highlandsranch@crumbl.com,(720) 358-0860,39.542261,-104.945432,CO,Crumbl,2024-11-01
ohhilliard,Hilliard,5466 Westpointe Plaza Dr,Columbus,Ohio,43228,oh.hilliard@crumbl.com,(380) 888-6055,39.985230,-83.149540,OH,Crumbl,2024-11-01
tnhillsborovillage,Hillsboro Village,1716 21st Ave S,Nashville,Tennessee,37212,tn.hillsborovillage@crumbl.com,(615) 422-7774,36.137218,-86.800629,TN,Crumbl,2024-11-01
schiltonheadisland,Hilton Head Island,"36 Shelter Cove Ln, Unit 171-A",Hilton Head Island,South Carolina,29928,sc.hiltonheadisland@crumbl.com,(843) 938-4005,32.185810,-80.721700,SC,Crumbl,2024-11-01
gahiram,Hiram,5218 Jimmy Lee Smith Pkwy,Hiram,Georgia,30141,ga.hiram@crumbl.com,(470) 866-4761,33.886902,-84.742650,GA,Crumbl,2024-11-01
tnhixson,Hixson,"5513 Hwy 153, Ste 105",Hixson,Tennessee,37343,tn.hixson@crumbl.com,(423) 243-0209,35.1440291,-85.2520844,TN,Crumbl,2024-11-01
ilhoffmanestates,Hoffman Estates,2726 Sutton Rd,Hoffman Estates,Illinois,60192,il.hoffmanestates@crumbl.com,(224) 484-0074	,42.07265,-88.19091,IL,Crumbl,2024-11-01
miholland,Holland,"12377 James St, Ste D30 ",Holland,Michigan,49424,mi.holland@crumbl.com,(616) 344-1488,42.81454,-86.08876,MI,Crumbl,2024-11-01
nchollysprings,Holly Springs,145 Grand Hill Pl,Holly Springs,North Carolina,27540,nc.hollysprings@crumbl.com,(919) 355-8909,35.6613887,-78.8510035,NC,Crumbl,2024-11-01
njholmdelcommons,Holmdel Commons,2136 NJ-35,Holmdel,New Jersey,07733,nj.holmdelcommons@crumbl.com,(848) 243-0885,40.4120733,-74.1480075,NJ,Crumbl,2024-11-01
ilhomewood,Homewood,17751 S Halsted St,Homewood,Illinois,60430,il.homewood@crumbl.com,(815) 200-6363,41.5670321,-87.6340807,IL,Crumbl,2024-11-01
arhotsprings,Hot Springs,423 Cornerstone Blvd,Hot Springs,Arkansas,71913,ar.hotsprings@crumbl.com,(501) 431-0396,34.4621251,-93.0588066,AR,Crumbl,2024-11-01
azhoughtontowncenter,Houghton Town Center,"9210 S Houghton Rd, Ste 120",Tucson,Arizona,85747,az.houghton@crumbl.com,(520) 355-1289,32.0850215,-110.7741008,AZ,Crumbl,2024-11-01
lahouma,Houma,"1826 Martin Luther King Blvd, Ste J",Houma,Louisiana,70360,la.houma@crumbl.com,(985) 851-9200,29.6229792,-90.7600102,LA,Crumbl,2024-11-01
ohhuberheights,Huber Heights,8288 Old Troy Pike,Huber Heights,Ohio,45424,oh.huberheights@crumbl.com,(937) 280-3040,39.8752458,-84.1392178,OH,Crumbl,2024-11-01
txhudsonoaks,Hudson Oaks,"2950 Fort Worth Hwy, Ste 800",Hudson Oaks,Texas,76087,tx.hudsonoaks@crumbl.com,(682) 294-1834,32.7557025,-97.7152003,TX,Crumbl,2024-11-01
wihudson,Hudson,"1020 Pearson Drive, #E",Hudson,Wisconsin,54016,wi.hudson@crumbl.com,(715) 280-9800,44.9594947,-92.7194079,WI,Crumbl,2024-11-01
mahudson,Hudson,"3 Highland Common E, Ste 300",Hudson,Massachusetts,01749,ma.hudson@crumbl.com,(978) 763-4280,42.394628,-71.595496,MA,Crumbl,2024-11-01
vahullstreet,Hull Street,13624 Hull Street Rd. ,Midlothian,Virginia,23112,va.hullstreet@crumbl.com,(804) 293-0027,37.41047,-77.65497,VA,Crumbl,2024-11-01
txhumble,Humble,"7072 FM 1960 E, Ste 3",Humble,Texas,77346,tx.humble@crumbl.com,(281) 937-2255,29.9972469,-95.1728028,TX,Crumbl,2024-11-01
huntersville,Huntersville,"10109 Northcross Center Ct, Ste 130",Huntersville,North Carolina,28078,huntersville@crumbl.com,(704) 274-3480,35.443110,-80.859590,NC,Crumbl,2024-11-01
txhurst,Hurst,1306 W Pipeline Rd,Hurst,Texas,76053,tx.hurst@crumbl.com,(210) 985-4946,32.8240773,-97.2005467,TX,Crumbl,2024-11-01
moindependence,Independence,18931 E Valley View Pkwy,Independence ,Missouri,64055,mo.independence@crumbl.com,(816) 295-2372,39.03330,-94.35611,MO,Crumbl,2024-11-01
scindianland,Indian Land,"7756 Charlotte Hwy, Ste 102",Indian Land,South Carolina,29707,sc.indianland@crumbl.com,(803) 232-9839,34.9404919,-80.837539,SC,Crumbl,2024-11-01
cainglewood,Inglewood,"3111 W Century Blvd, Ste 104",Inglewood ,California,90303,ca.inglewood@crumbl.com,(424) 261-1913,33.9456977,-118.3270168,CA,Crumbl,2024-11-01
cointerquest,Interquest,"1358 Interquest Pkwy, Ste 150",Colorado Springs,Colorado,80921,co.interquest@crumbl.com,(719) 378-4333,38.990890,-104.800570,CO,Crumbl,2024-11-01
txirving,Irving,"7707 N MacArthur Blvd, Ste 140",Irving,Texas,75063,tx.irving@crumbl.com,(469) 482-9013,32.91155,-96.95967,TX,Crumbl,2024-11-01
waissaquah,Issaquah,"1520 Highlands Dr NE, Ste 110",Issaquah,Washington,98029,wa.issaquah@crumbl.com,(425)600-1030,47.5427247,-122.0208743,WA,Crumbl,2024-11-01
tnjackson,Jackson,"1319 Union University Dr, Unit E",Jackson,Tennessee,38305,tn.jackson@crumbl.com,(731) 298-0910,35.684740,-88.861270,TN,Crumbl,2024-11-01
mojamesriver,James River,1979 E Independence St,Springfield,Missouri,65804,mo.jamesriver@crumbl.com,(417) 708-2699,37.141400,-93.257670,MO,Crumbl,2024-11-01
kyjeffersoncommons,Jefferson Commons,"4901 Outer Loop, Ste 101",Louisville,Kentucky,40219,ky.jeffersoncommons@crumbl.com,(502) 473-9690,38.13974,-85.66716,KY,Crumbl,2024-11-01
injeffersonville,Jeffersonville,3548 E 10th St,Jeffersonville,Indiana,47130,in.jeffersonville@crumbl.com,(502) 795-0922,38.33545,-85.70743,IN,Crumbl,2024-11-01
pajenkintown,Jenkintown,1595 The Fairway,Jenkintown,Pennsylvania,19046,pajenkintown@crumbl.com,(267) 536-5131,40.1071684,-75.1210037,PA,Crumbl,2024-11-01
tnjohnsoncity,Johnson City,"1914 N Roan St, Ste 105",Johnson City ,Tennessee,37601,tn.johnsoncity@crumbl.com,(423) 302-0927,36.3382741,-82.3729149,TN,Crumbl,2024-11-01
lajohnstonstreet,Johnston Street,"2668 Johnston St, Ste A",Lafayette,Louisiana,70503,la.johnstonstreet@crumbl.com,(337) 383-3433,30.2091384,-92.0378432,LA,Crumbl,2024-11-01
johnstown,Johnstown,4948 Thompson Pkwy,Johnstown,Colorado,80534,johnstown@crumbl.com,(970) 399-5558,40.405333,-104.9823096,CO,Crumbl,2024-11-01
jonesvalley,Jones Valley,2750 Carl T Jones Dr SE ,Huntsville,Alabama,35802,al.jonesvalley@crumbl.com,(256) 469-1291,34.6749057,-86.5461974,AL,Crumbl,2024-11-01
arjonesboro,Jonesboro,"3410 E Johnson Ave, Ste E",Jonesboro,Arkansas,72401,ar.jonesboro@crumbl.com,(870) 433-0685,35.8582323,-90.6579569,AR,Crumbl,2024-11-01
mojoplin,Joplin,"430 Geneva Ave, Ste 500 ",Joplin ,Missouri,64801,mo.joplin@crumbl.com,(417) 553-9878,37.085771,-94.4780608,MO,Crumbl,2024-11-01
lajubancrossing,Juban Crossing,"10129 Crossing Way, Ste 470",Denham Springs,Louisiana,70726,la.jubancrossing@crumbl.com,(225) 778-8322,30.4665525,-90.920723,LA,Crumbl,2024-11-01
mikalamazoo,Kalamazoo,5097 Century Ave,Kalamazoo,Michigan,49006,mikalamazoo@crumbl.com,(269) 888-5427,42.270870,-85.650500,MI,Crumbl,2024-11-01
flkannerhwy,Kanner Hwy,213 SW Monterey Rd,Stuart,Florida,34994,fl.kannerhwy@crumbl.com,772) 217-6978,27.176590,-80.254770,FL,Crumbl,2024-11-01
kapolei,Kapolei,"4480 Kapolei Pkwy, Ste 277",Kapolei,Hawaii,96707,kapolei@crumbl.com,(808) 204 9665,21.328740,-158.091010,HI,Crumbl,2024-11-01
flkendall,Kendall,"13520 SW 120th St, Ste 106",Miami,Florida,33186,fl.kendall@crumbl.com,(786) 633-0337,25.6556439,-80.414591,FL,Crumbl,2024-11-01
gakennesaw,Kennesaw,"1300 Ernest Barrett Pkwy, Unit 11",Kennesaw,Georgia,30144,gakennesaw@crumbl.com,(470) 523-9384,33.998550,-84.590430,GA,Crumbl,2024-11-01
kennewick,Kennewick,1102 N Columbia center Blvd. Suite B ,Kennewick,Washington,99336,wa.kennewick@crumbl.com,(509) 873-3309,46.2211187,-119.2254299,WA,Crumbl,2024-11-01
mdkentlands,Kentlands,277 Kentlands Blvd,Gaithersburg,Maryland,20878,md.kentlands@crumbl.com,(240) 812-1656,39.123299,-77.236732,MD,Crumbl,2024-11-01
ohkenwood,Kenwood,7747 Kenwood Rd,Cincinnati,Ohio,45236,oh.kenwood@crumbl.com,(513) 239-7977,39.2021033,-84.3808789,OH,Crumbl,2024-11-01
nckernersville,Kernersville,"1011 S Main St, Ste 101",Kernersville,North Carolina,27284,nc.kernersville@crumbl.com,(336) 515-0062,36.107760,-80.096840,NC,Crumbl,2024-11-01
keystoneshoppes,Keystone Shoppes,3329 E 86th St,Indianapolis,Indiana,46240,keystone@crumbl.com,(317) 343-0446,39.910743,-86.1089747,IN,Crumbl,2024-11-01
txkilleen,Killeen,"201 E Central Texas Expy, Ste 1340",Harker Heights ,Texas,76548,tx.killeen@crumbl.com,(254) 698-1560,31.0719373,-97.6679949,TX,Crumbl,2024-11-01
vakingstowne,Kingstowne,"5810 Kingstowne Center, Ste 100",Alexandria,Virginia,22315,va.kingstowne@crumbl.com,(276) 244-8597,38.7736089,-77.1344157,VA,Crumbl,2024-11-01
kissimmee,Kissimmee,1180 W Osceola Pkwy,Kissimmee,Florida,34741,kissimmee@crumbl.com,(407) 794-0631,28.341101,-81.415339,FL,Crumbl,2024-11-01
txkyle,Kyle,"5180 FM 1626, Ste 110",Kyle,Texas,78640,tx.kyle@crumbl.com,(737) 338-8698,30.01520894,-97.86622137,TX,Crumbl,2024-11-01
calacanada,La Ca帽ada,2031-A Verdugo Blvd,Montrose,California,91020,ca.lacanada@crumbl.com,(747) 268-0657,34.204840,-118.220830,CA,Crumbl,2024-11-01
illagrange,La Grange,"1 N La Grange Rd, Ste D",La Grange,Illinois,60525,il.lagrange@crumbl.com,(708) 328-6399        ,41.8168387,-87.8693199,IL,Crumbl,2024-11-01
lahabra,La Habra,"1901 W Imperial Hwy, Ste C",La Habra,California,90631,lahabra@crumbl.com,(657) 577-9702,33.917695,-117.9665529,CA,Crumbl,2024-11-01
calajolla,La Jolla,"8657 Villa La Jolla Dr, Ste 107",La Jolla ,California,92037,ca.lajolla@crumbl.com,(858) 401-6914,32.86588,-117.23190,CA,Crumbl,2024-11-01
calaquinta,La Quinta,"46480 Washington St, Ste 2",La Quinta,California,92253,ca.laquinta@crumbl.com,(760) 600-9990,33.711380,-116.293580,CA,Crumbl,2024-11-01
calaverne,La Verne,"2416 Foothill Blvd, Ste B",La Verne,California,91750,ca.laverne@crumbl.com,(209) 354-8109,34.1112031,-117.7598312,CA,Crumbl,2024-11-01
walacey,Lacey,8160 Freedom LN NE,Lacey,Washington,98516,wa.lacey@crumbl.com,(360) 464-2053,47.061878,-122.768921,WA,Crumbl,2024-11-01
caladeraranch,Ladera Ranch,"25642 Crown Valley Pkwy, Ste D-4",Mission Viejo,California,92694,ca.laderaranch@crumbl.com,(949) 545-5009,33.56460931549398,-117.63110824534053,CA,Crumbl,2024-11-01
inlafayette,Lafayette,"3575 Promenade Pkwy, Ste 800", Lafayette,Indiana,47909,in.lafayette@crumbl.com,(765) 237-9964,40.3661939,-86.8620285,IN,Crumbl,2024-11-01
lalakecharles,Lake Charles,1704 W Prien Lake Rd,Lake Charles,Louisiana,70601,la.lakecharles@crumbl.com,(337) 419-0077,30.1981831,-93.2456442,LA,Crumbl,2024-11-01
lakeforest,Lake Forest,"23702 El Toro Rd, Ste B",Lake Forest,California,92630,calakeforest@crumbl.com,(949) 519-0791,33.6179249,-117.7024221,CA,Crumbl,2024-11-01
txlakehighlands,Lake Highlands,"6186 Retail Rd, Ste 110",Dallas,Texas,75231,tx.lakehighlands@crumbl.com,(469) 342-1499,32.86124947320661,-96.75392519459687,TX,Crumbl,2024-11-01
lakemary,Lake Mary,"245 Wheelhouse Ln, Ste 1441",Lake Mary,Florida,32746,lakemary@crumbl.com,(321) 233-4552,28.7545546,-81.3345427,FL,Crumbl,2024-11-01
fllakenona,Lake Nona,11829 Narcoossee Rd,Orlando,Florida,32832,fl.lakenona@crumbl.com,(407) 801-6400,28.3936656,-81.2436853,FL,Crumbl,2024-11-01
lakeoswego,Lake Oswego,"4835 Meadows Rd, Ste 141",Lake Oswego,Oregon,97035,lakeoswego@crumbl.com,(503) 673-1667,45.417981,-122.724713,OR,Crumbl,2024-11-01
fllakewashington,Lake Washington,"3000 N Lake Washington Rd, Ste 3088",Melbourne,Florida,32934,fl.lakewashington@crumbl.com,(321) 599-2900,28.1487076,-80.6744971,FL,Crumbl,2024-11-01
illakezurich,Lake Zurich,"727 W Main St, Ste B",Lake Zurich,Illinois,60047,il.lakezurich@crumbl.com,(217) 293-7905,42.18901306578763,-88.10821906349018,IL,Crumbl,2024-11-01
txlakepointe,Lakepointe,"717 Hebron Pkwy, Ste 120",Lewisville,Texas,75057,tx.lakepointe@crumbl.com,(682) 651-7111,33.0097477,-96.969667,TX,Crumbl,2024-11-01
nelakeside,Lakeside,2883 S 168th St,Omaha,Nebraska,68130,ne.lakeside@crumbl.com,402) 807-1267,41.23245,-96.17600,NE,Crumbl,2024-11-01
lakewood,Lakewood,"14650 W Colfax Ave, Unit 130",Lakewood,Colorado,80401,co.lakewood@crumbl.com,(720) 647-7297,39.73126466150136,-105.16381272917957,CO,Crumbl,2024-11-01
walakewood,Lakewood,"5605 Lakewood Towne Center Blvd SW, Suite G",Lakewood ,Washington,98499,wa.lakewood@crumbl.com,(253) 319-5603,47.1652719,-122.5113654,WA,Crumbl,2024-11-01
ohlakewood,Lakewood,14210 Detroit Ave,Lakewood,Ohio,44107,oh.lakewood@crumbl.com,(216) 200-5580,41.485520,-81.792640,OH,Crumbl,2024-11-01
mdlanham,Lanham,"2700 Campus Way N, Ste 102",Lanham,Maryland,20706,md.lanham@crumbl.com,(240) 368-6711,38.922400,-76.846960,MD,Crumbl,2024-11-01
txlaredo,Laredo,"7709 McPherson Rd, Ste 103B",Laredo,Texas,78045,tx.laredo@crumbl.com,(956) 415-0015,27.575446544115728,-99.4728209294162,TX,Crumbl,2024-11-01
nylatham,Latham,664 New Loudon Rd,Latham,New York,12110,ny.latham@crumbl.com,518) 223-8585,42.736160,-73.763230,NY,Crumbl,2024-11-01
laveen,Laveen,"5130 W Baseline Rd, Ste 113",Laveen Village,Arizona,85339,laveen@crumbl.com,(602) 675-9553,33.3793059,-112.1692215,AZ,Crumbl,2024-11-01
nclawndale,Lawndale,2629 Lawndale Dr,Greensboro,North Carolina,27408,nc.lawndale@crumbl.com,(336) 298-2728,36.10255,-79.82127,NC,Crumbl,2024-11-01
galawrenceville,Lawrenceville,875 Lawrenceville - Suwanee Rd,Lawrenceville,Georgia,30043,galawrenceville@crumbl.com,(470) 326-0369,33.970850,-84.016910,GA,Crumbl,2024-11-01
layton,Layton,448 W Antelope Dr,Layton,Utah,84041,layton@crumbl.com,(801) 252-5991,41.0897643,-111.9767481,UT,Crumbl,2024-11-01
txleaguecity,League City,"1620 FM 646 W, Ste F",League City ,Texas,77573,tx.leaguecity@crumbl.com,(281) 713-4714,29.468906445464366,-95.08546576480195,TX,Crumbl,2024-11-01
moleessummit,Lee's Summit,1700 NW Chipman Rd,Lee's Summit,Missouri,64081,mo.leessummit@crumbl.com,(816) 207-4760,38.9284945,-94.4109355,MO,Crumbl,2024-11-01
leesburg,Leesburg,"1008 Edwards Ferry Rd NE, Suite 135",Leesburg,Virginia,20176,va.leesburg@crumbl.com,(571) 440-7006,39.114190,-77.535688,VA,Crumbl,2024-11-01
txlegacydrive,Legacy Drive,"7000 Independence Pkwy, Ste 104C",Plano,Texas,75025,tx.legacydrive@crumbl.com,(469) 795-8008,33.071980,-96.748315,TX,Crumbl,2024-11-01
lehi,Lehi,1820 W Traverse Pkwy,Lehi,Utah,84043,lehiutah@crumbl.com,(801) 823-1272,40.4324575,-111.8812932,UT,Crumbl,2024-11-01
nylevittown,Levittown,3511 Hempstead Tpk,Levittown,New York,11756,ny.levittown@crumbl.com,(516) 421-7111,40.72646659682519,-73.50605237319655,NY,Crumbl,2024-11-01
lexington,Lexington,"5135 Sunset Blvd, Ste J",Lexington,South Carolina,29072,sc.lexington@crumbl.com,(803) 756-3294,34.006437,-81.194662,SC,Crumbl,2024-11-01
kylexington,Lexington,"2160 Sir Barton Way, Ste 141",Lexington,Kentucky,40509,kylexington@crumbl.com,(859) 977-9525,38.021750,-84.419350,KY,Crumbl,2024-11-01
moliberty,Liberty,8420 N Church Rd,Kansas City,Missouri,64157,mo.liberty@crumbl.com,(816) 368-1789,39.2465358,-94.4647707,MO,Crumbl,2024-11-01
illincolnpark,Lincoln Park,2321 N Lincoln Ave,Chicago,Illinois, 60614	,il.lincolnpark@crumbl.com,(773) 394-2525,41.9243407,-87.6491958,IL,Crumbl,2024-11-01
utlindon,Lindon,677 N State St,Lindon,Utah,84042,ut.lindon@crumbl.com,(801) 609-1960,40.3511887,-111.733751,UT,Crumbl,2024-11-01
kslittleapple,Little Apple,"501 N 3rd Place, Ste C",Manhattan,Kansas,66502,ks.littleapple@crumbl.com,(785) 706-9199,39.1836878,-96.5604355,KS,Crumbl,2024-11-01
colittleton,Littleton,"8555 W Belleview Ave, Ste H200",Littleton,Colorado,80123,co.littleton@crumbl.com,720) 805-0420,39.6254658,-105.091841,CO,Crumbl,2024-11-01
calivermore,Livermore,4304 Las Positas Rd,Livermore,California,94551,ca.livermore@crumbl.com,(925) 243-7432,37.7016524,-121.7457102,CA,Crumbl,2024-11-01
milivonia,Livonia,11019 Middlebelt Rd,Livonia,Michigan,48150,mi.livonia@crumbl.com,734) 655-0966,42.3681291,-83.3359235,MI,Crumbl,2024-11-01
illockport,Lockport,16343 W 159th St,Lockport,Illinois,60441,il.lockport@crumbl.com,tel:7792431116,41.5979573,-88.01578049999999,IL,Crumbl,2024-11-01
lodi,Lodi,"2624 W Kettleman Ln, Ste 150 ",Lodi,California,95242,lodi@crumbl.com,(209) 280-0957,38.1150782,-121.3106869,CA,Crumbl,2024-11-01
logan,Logan,1309 N Main St,Logan,Utah,84341,logan@crumbl.com,(385) 498-1039,41.755931,-111.8369266,UT,Crumbl,2024-11-01
colongmont,Longmont,"1248 S Hover St, Ste 100 ",Longmont,Colorado,80501,co.longmont@crumbl.com,(720) 743-2026,40.14561,-105.13019,CO,Crumbl,2024-11-01
txlongview,Longview,3098 N Eastman Rd,Longview ,Texas,75605,tx.longview@crumbl.com,(430) 215-3144,32.5512172,-94.7258661,TX,Crumbl,2024-11-01
calosbanos,Los Banos,"1363 W Pacheco Blvd, Unit B",Los Banos,California,93635,ca.losbanos@crumbl.com,(209)710-5045,37.055860,-120.874650,CA,Crumbl,2024-11-01
lubbock,Lubbock,"6076 Marsha Sharp Freeway, Ste 450",Lubbock,Texas,79407,lubbock@crumbl.com,(806) 318-2444,33.54718,-101.9546891,TX,Crumbl,2024-11-01
txlufkin,Lufkin,"4505 S Medford Dr, Ste 313",Lufkin,Texas,75901,tx.lufkin@crumbl.com,(936) 225-4992,31.3102967,-94.722497,TX,Crumbl,2024-11-01
lutz,Lutz,25922 Sierra Center Blvd,Lutz,Florida,33559,lutz@crumbl.com,(813) 445-6552,28.194765,-82.393838,FL,Crumbl,2024-11-01
valynchburg,Lynchburg, 3911 Wards Road,Lynchburg,Virginia,24502,va.lynchburg@crumbl.com,(434) 219-5251,37.3510737,-79.1844141,VA,Crumbl,2024-11-01
lynnwood,Lynnwood,18411 Alderwood Mall Parkway,Lynnwood,Washington,98037,wa.lynnwood@crumbl.com,(425) 510-0526,47.8314952,-122.2701668,WA,Crumbl,2024-11-01
ohmacedonia,Macedonia,509 E Aurora Rd,Macedonia,Ohio,44056,oh.macedonia@crumbl.com,(234) 206-3438,41.314555,-81.520437,OH,Crumbl,2024-11-01
camadera,Madera,"2180 W Cleveland Ave, Se 112",Madera,California,93637,ca.madera@crumbl.com,(559) 330-1472,36.973890,-120.082880,CA,Crumbl,2024-11-01
madison,Madison,"8141 Hwy 72 W, Ste D",Madison,Alabama,35758,madison@crumbl.com,(256) 258-8153,34.7497214,-86.7546047,AL,Crumbl,2024-11-01
msmadison,Madison,"111 Colony Crossing Way, Unit 120 ",Madison,Mississippi,39110,ms.madison@crumbl.com,(601) 401-0316,32.4754801,-90.144228,MS,Crumbl,2024-11-01
wimadison,Madison,4010 University Ave,Madison,Wisconsin,53705,wimadison@crumbl.com,(608) 440-8578,43.076340,-89.454400,WI,Crumbl,2024-11-01
txmagnolia,Magnolia,"33020 FM 2978, Ste 521 ",Magnolia,Texas,77354,txmagnolia@crumbl.com,(281) 789-8372,30.219437,-95.5696391,TX,Crumbl,2024-11-01
flmahanvillage,Mahan Village,"3122 Mahan Dr, Ste 302 ",Tallahassee,Florida,32308,fl.mahanvillage@crumbl.com,(850) 270-7803,30.461400,-84.225400,FL,Crumbl,2024-11-01
pamainline,Main Line,"50 E Wynnewood Rd, Unit 20",Wynnewood,Pennsylvania,19096,pa.mainline@crumbl.com,(484) 297-2214,40.001400,-75.272240,PA,Crumbl,2024-11-01
njmanalapan,Manalapan,"55 US Hwy 9, Ste 300",Manalapan,New Jersey,07726,nj.manalapan@crumbl.com,(732) 333-8138,40.2917865,-74.3024598,NJ,Crumbl,2024-11-01
flmandarin,Mandarin,"11406 San Jose Blvd, Ste 3",Jacksonville,Florida,32223,fl.mandarin@crumbl.com,(904) 592-9059,30.166460,-81.633460,FL,Crumbl,2024-11-01
mnmankato,Mankato,1860 Adam St,Mankato,Minnesota,56001,mn.mankato@crumbl.com,(507) 821-5020,44.1706863,-93.9529983,MN,Crumbl,2024-11-01
mansfield,Mansfield,"1530 E Debbie Ln, Ste 128",Mansfield,Texas,76063,mansfield@crumbl.com,(817) 779-4775,32.606060,-97.1133027,TX,Crumbl,2024-11-01
maplegrove,Maple Grove,11623 Fountains Dr,Maple Grove,Minnesota,55369,maplegrove@crumbl.com,763-777-7527,45.092994,-93.4273692,MN,Crumbl,2024-11-01
camarconi,Marconi,2607 Marconi Ave,Sacramento,California,95821,ca.marconi@crumbl.com,(916) 407-1155,38.618478,-121.400633,CA,Crumbl,2024-11-01
azmaricopa,Maricopa,"20320 N John Wayne Pkwy, Ste 105",Maricopa,Arizona,85139,az.maricopa@crumbl.com,(602) 675-9660,33.0642468,-112.0484994,AZ,Crumbl,2024-11-01
marietta,Marietta,"3460 Sandy Plains Rd, Ste 510",Marietta,Georgia,30066,marietta@crumbl.com,(678) 203-8885,34.034140457673786,-84.46242310771143,GA,Crumbl,2024-11-01
camarinadelrey,Marina del Rey,4774 Admiralty Way,Marina del Rey,California,90292,ca.marinadelrey@crumbl.com,(424) 738-1070,33.9774939,-118.4383606,CA,Crumbl,2024-11-01
wvmartinsburg,Martinsburg,"245 Retail Commons Pkwy, Ste C011",Martinsburg,West Virginia,25403,wv.martinsburg@crumbl.com,(304) 215-1865,39.43976,-77.99049,WV,Crumbl,2024-11-01
marysville,Marysville,2701 171st Pl NE. #203 ,Marysville,Washington,98271,marysville@crumbl.com,(360) 386-1767,48.1512768,-122.1948289,WA,Crumbl,2024-11-01
tnmaryville,Maryville,"1765 W Broadway Ave, Ste C",Maryville,Tennessee,37801,tn.maryville@crumbl.com,(865) 288-9969,35.734281,-83.994537,TN,Crumbl,2024-11-01
ohmason,Mason,5873 Deerfield Blvd,Mason,Ohio,45040,oh.mason@crumbl.com,(513) 445-4033,39.30600189539475,-84.31665710284973,OH,Crumbl,2024-11-01
nymassapequa,Massapequa,5500 Sunrise Hwy,Massapequa,New York,11758,ny.massapequa@crumbl.com,(516) 905-2396,40.6774775,-73.4344009,NY,Crumbl,2024-11-01
matthews,Matthews,"2217 Matthews Township Pkwy, Ste E",Matthews,North Carolina,28105,nc.matthews@crumbl.com,(980) 245-4663 ,35.129242,-80.702949,NC,Crumbl,2024-11-01
ohmayfield,Mayfield,1241 SOM Center Rd ,Mayfield Heights ,Ohio,44124,oh.mayfield@crumbl.com,(440) 459-0209,41.526430,-81.438700,OH,Crumbl,2024-11-01
njmayslanding,Mays Landing,"4300 Black Horse Pike, Ste 216",Mays Landing,New Jersey,08330,nj.mayslanding@crumbl.com,(609) 837-7797,39.44672,-74.63354,NJ,Crumbl,2024-11-01
mcallen,McAllen,7600 N 10th St,McAllen,Texas,78504,mcallen@crumbl.com,(956) 316-6854,26.271391,-98.216301,TX,Crumbl,2024-11-01
almccalla,McCalla,"4863 Promenade Pkwy, Ste 910",Bessemer,Alabama,35022,al.mccalla@crumbl.com,(205) 800-4107,33.3350344,-86.9926722,AL,Crumbl,2024-11-01
mckinney,McKinney,"3194 W University Dr, Ste 200",McKinney,Texas,75071,mckinney@crumbl.com,(469) 715-5983,33.217640,-96.655420,TX,Crumbl,2024-11-01
pamechanicsburg,Mechanicsburg,"6416 Carlisle Pike, Ste 1400",Mechanicsburg,Pennsylvania,17050,pa.mechanicsburg@crumbl.com,(717) 516-0777,40.24862518193179,-77.01075388864017,PA,Crumbl,2024-11-01
vamechanicsville,Mechanicsville,7316 Bell Creek Road ,Mechanicsville,Virginia,23111,vamechanicsville@crumbl.com,(804) 522-5043,37.6043179,-77.3555381,VA,Crumbl,2024-11-01
medford,Medford,"1250 Biddle Rd, Ste H",Medford,Oregon,97504,or.medford@crumbl.com,(541) 292-5653,42.341950,-122.872920,OR,Crumbl,2024-11-01
mamedford,Medford,23 Revere Beach Pkwy,Medford ,Massachusetts,02155,ma.medford@crumbl.com,(617) 394-8523,42.4040558,-71.0820939,MA,Crumbl,2024-11-01
ohmedina,Medina,1124 N Court St,Medina,Ohio,44256,oh.medina@crumbl.com,(330) 461-9922,41.1568058,-81.8638736,OH,Crumbl,2024-11-01
txmemorial,Memorial,"9774 Katy Freeway, Ste 400",Houston,Texas,77055,tx.houstonmemorial@crumbl.com,(281) 616-7174,29.785910,-95.536720,TX,Crumbl,2024-11-01
camenifee,Menifee,"30076 Haun Rd, Ste 210",Menifee,California,92584,camenifee@crumbl.com,(951) 430-2232,33.6829668,-117.1770773,CA,Crumbl,2024-11-01
wimenomoneefalls,Menomonee Falls,W182N9606 Appleton Ave,Germantown,Wisconsin,53022,wi.menomoneefalls@crumbl.com,(262) 293-6580,43.192928,-88.136864,WI,Crumbl,2024-11-01
ohmentor,Mentor,9662 Mentor Ave,Mentor,Ohio,44060,oh.mentor@crumbl.com,(440) 754-0601,41.683920,-81.293490,OH,Crumbl,2024-11-01
camerced,Merced,"3630 G St, Ste E",Merced,California,95340,ca.merced@crumbl.com,(209) 233-3075,37.332964,-120.468624,CA,Crumbl,2024-11-01
meridian,Meridian,3340 N Eagle Rd,Meridian,Idaho,83646,meridian@crumbl.com,(208) 268-8533,43.634820,-116.353630,ID,Crumbl,2024-11-01
msmeridian,Meridian,"103 S Frontage Rd, Ste 308",Meridian,Mississippi,39301,ms.meridian@crumbl.com,(601) 227-7267,32.3649658,-88.67032449999999,MS,Crumbl,2024-11-01
nymerrick,Merrick,2104 Merrick Ave,Merrick,New York,11566,ny.merrick@crumbl.com,(516) 893-1869,40.66679,-73.55365,NY,Crumbl,2024-11-01
inmerrillville,Merrillville,"1600 E 79th Ave, Ste 102",Merrillville,Indiana,46410,in.merrillville@crumbl.com,(219) 444-0944,41.47421,-87.31719,IN,Crumbl,2024-11-01
mesagrand,Mesa Grand,"1240 E Baseline Rd, Ste 105",Mesa,Arizona,85204,mesagrand@crumbl.com,(602) 661-2500,33.379393,-111.804598,AZ,Crumbl,2024-11-01
mesagroves,Mesa Groves,"1911 E Brown Rd, Ste 3",Mesa,Arizona,85203,mesagroves@crumbl.com,(480) 530-0185,33.4368846,-111.7898654,AZ,Crumbl,2024-11-01
txmesquite,Mesquite,"1515 N Town E Blvd, Ste 106",Mesquite,Texas,75150,tx.mesquite@crumbl.com,(469) 290-2965,32.8121517,-96.6194937,TX,Crumbl,2024-11-01
lametairie,Metairie,"2701 Airline Dr, Unit I",Metairie,Louisiana,70001,la.metairie@crumbl.com,(504) 332-2058,29.975056,-90.1531504,LA,Crumbl,2024-11-01
methuen,Methuen,"90 Pleasant Valley St, Unit 170",Methuen,Massachusetts,01844,methuen@crumbl.com,(978) 291-6956,42.744119,-71.157584,MA,Crumbl,2024-11-01
metro,Metro,2827 West Peoria Ave,Phoenix,Arizona,85029,az.metro@crumbl.com,(480) 937-0381,33.581064,-112.123770,AZ,Crumbl,2024-11-01
flmiamigardens,Miami Gardens,"18050 NW 57th Ave, Ste 103",Hialeah,Florida,33015,fl.miamigardens@crumbl.com,(305) 692-0197,25.9372929,-80.2942578,FL,Crumbl,2024-11-01
ilmichiganave,Michigan Ave,"333 N Michigan Ave, Ste 110",Chicago,Illinois,60601	,il.michiganave@crumbl.com,(312) 462-3558,41.88798999999999,-87.62430119999999,IL,Crumbl,2024-11-01
txmidcounty,Mid County,1605 S Hwy 69,Nederland,Texas,77627,tx.midcounty@crumbl.com,(409) 344-5569,29.94740,-93.99427,TX,Crumbl,2024-11-01
middletown,Middletown,"12949 Shelbyville Rd, Ste 102",Louisville,Kentucky,40243,middletown@crumbl.com,(502) 405-8156,38.2432508,-85.5114413,KY,Crumbl,2024-11-01
midland,Midland,"4400 Midland Dr, Ste 501 ",Midland,Texas,79707,midland@crumbl.com,(432) 237-0380,32.027678,-102.144305,TX,Crumbl,2024-11-01
ncmidtown,Midtown,337 S Kings Dr,Charlotte,North Carolina,28204,nc.midtown@crumbl.com,(980) 505-8558`,35.212070,-80.833740,NC,Crumbl,2024-11-01
ctmilford,Milford,1642B Boston Post Rd,Milford,Connecticut,06460,ct.milford@crumbl.com,(203) 693-1258,41.247677,-73.0276316,CT,Crumbl,2024-11-01
ohmilford,Milford,"1081 OH-28, Ste A",Milford,Ohio,45150,oh.milford@crumbl.com,(513) 214-1332,39.1919758,-84.23520649999999,OH,Crumbl,2024-11-01
mamillbury,Millbury,"70 Worcester-Providence Tpk, Ste 619",Millbury ,Massachusetts,01527,ma.millbury@crumbl.com,(774) 462-0204,42.19705,-71.77626,MA,Crumbl,2024-11-01
millenia,Millenia,"4698 Gardens Park Blvd, Ste 203A",Orlando,Florida,32839,millenia@crumbl.com,(407) 789-2524,28.49468258713212,-81.42475652362913,FL,Crumbl,2024-11-01
njmillville,Millville,2180 N 2nd St,Millville,New Jersey,08332,nj.millville@crumbl.com,tel:8563000469,39.423055,-75.040414,NJ,Crumbl,2024-11-01
camilpitas,Milpitas,537 E Calaveras Blvd,Milpitas,California,95035,ca.milpitas@crumbl.com,(669) 244-5242,37.4344386,-121.8983733,CA,Crumbl,2024-11-01
mnminnetonka,Minnetonka,4747 County Rd 101,Minnetonka ,Minnesota,55345,mn.minnetonka@crumbl.com,(651) 728-9191,44.918680,-93.503040,MN,Crumbl,2024-11-01
ndminot,Minot,1024 24th Ave SW,Minot,North Dakota,58701,nd.minot@crumbl.com,(701) 441-7978,48.208580,-101.310980,ND,Crumbl,2024-11-01
camiramesa,Mira Mesa,"8110 Mira Mesa Blvd, Ste 103",San Diego,California,92126,ca.miramesa@crumbl.com,"(858) 239-4238,",32.9130657,-117.1490948,CA,Crumbl,2024-11-01
inmishawaka,Mishawaka,"5230 N Main St, Ste A",Mishawaka,Indiana,46545,in.mishawaka@crumbl.com,(574) 213-0987,41.708220,-86.180770,IN,Crumbl,2024-11-01
ksmissioncommons,Mission Commons,6021 Metcalf Ave,Mission,Kansas,66202,ks.missioncommons@crumbl.com,(913) 308-6649,39.0197737,-94.6668942,KS,Crumbl,2024-11-01
txmission,Mission,"2505 E Expy 83, Ste 400",Mission,Texas,78572,tx.mission@crumbl.com,(956) 997-5260,26.197946731223126,-98.28300327520991,TX,Crumbl,2024-11-01
missoula,Missoula,"3075 N Reserve St, Suite J ",Missoula,Montana,59808,missoula@crumbl.com,(406) 351-0900,46.893210,-114.040930,MT,Crumbl,2024-11-01
camodesto,Modesto,"3801 Pelandale Ave, Ste A5",Modesto,California,95356,ca.modesto@crumbl.com,(209) 214-9955,37.700508,-121.066541,CA,Crumbl,2024-11-01
ilmokena,Mokena,11249 W Lincoln Hwy,Mokena,Illinois,60448,il.mokena@crumbl.com,(708) 390-7945 ,41.50322,-87.88965,IL,Crumbl,2024-11-01
pamonaca,Monaca,"90 Wagner Rd, Ste B",Monaca,Pennsylvania,15061,pa.monaca@crumbl.com,(201) 201-0029,40.679646,-80.3107957,PA,Crumbl,2024-11-01
pamonroeville,Monroeville,4158 William Penn Hwy,Monroeville ,Pennsylvania, 15146,pa.monroeville@crumbl.com,(412) 357-8845,40.43762504804279,-79.76511521917064,PA,Crumbl,2024-11-01
moore,Moore,"660 SW 19th St, Ste E",Moore,Oklahoma,73160,moore@crumbl.com,(405) 300-0255moore@crumbl.com,35.3191493,-97.497917,OK,Crumbl,2024-11-01
camorganhill,Morgan Hill,"1041 Cochrane Rd, Ste 140",Morgan Hill,California,95037,ca.morganhill@crumbl.com,(408) 659-4951,37.155570,-121.650520,CA,Crumbl,2024-11-01
wvmorgantown,Morgantown,1156 Giant St.,Morgantown,West Virginia,26501,wv.morgantown@crumbl.com,(304) 554-9698,39.6474589,-80.0052598,WV,Crumbl,2024-11-01
njmorrisplains,Morris Plains,1711 NJ-10 ,Morris Plains  ,New Jersey,07950,nj.morrisplains@crumbl.com,(862) 701-3544,40.844754,-74.467460,NJ,Crumbl,2024-11-01
tnmorristown,Morristown,"4357 Erica Greene Cir, Ste 5",Morristown,Tennessee,37814,tn.morristown@crumbl.com,(865) 212-0296,36.1906511645686,-83.3613924535966,TN,Crumbl,2024-11-01
morrisville,Morrisville,1105 Market Center Dr,Morrisville,North Carolina,27560,morrisville@crumbl.com,(919) 364-1100,35.8076324,-78.8142535,NC,Crumbl,2024-11-01
gamosaic,Mosaic,"2201 Pooler Pkwy, Unit 400",Pooler,Georgia,31322,ga.mosaic@crumbl.com,(912) 581-2727,32.0780252,-81.2811749,GA,Crumbl,2024-11-01
idmoscow,Moscow,954 W Pullman Rd,Moscow,Idaho,83843,id.moscow@crumbl.com,(208) 301-5353,46.7335501,-117.015778,ID,Crumbl,2024-11-01
wamoseslake,Moses Lake,601 South Pioneer Way suite h,Moses Lake,Washington,98837,wa.moseslake@crumbl.com,(509)350-4336,47.1299467,-119.2683356,WA,Crumbl,2024-11-01
almountainbrook,Mountain Brook,360 Rele St,Mountain Brook,Alabama,35223,al.mountainbrook@crumbl.com,(205) 719-2869,33.4854285,-86.7735968,AL,Crumbl,2024-11-01
camountainview,Mountain View,660B San Antonio Rd,Mountain View,California,94040,ca.mountainview@crumbl.com,(650) 567-6822,37.4019776,-122.1134991,CA,Crumbl,2024-11-01
mountjuliet,Mt. Juliet,"401 S Mt Juliet Rd, Ste 247",Mount Juliet,Tennessee,37122,mountjuliet@crumbl.com,(615) 433-5669,36.1667026,-86.5102586,TN,Crumbl,2024-11-01
njmtlaurel,Mt. Laurel,32 Centerton Rd ,Mt. Laurel,New Jersey,08054,nj.mtlaurel@crumbl.com,(856) 396-8727,39.96921,-74.91209,NJ,Crumbl,2024-11-01
scmtpleasant,Mt. Pleasant,"1485 N US Hwy 17, Ste B",Mt Pleasant,South Carolina,29464,sc.mtpleasant@crumbl.com,(843) 284-7192,32.81435025967119,-79.84330750360668,SC,Crumbl,2024-11-01
mimtpleasant,Mt. Pleasant,"4445 E Blue Grass Rd, Ste B",Mt. Pleasant,Michigan,48858,mi.mtpleasant@crumbl.com,(989) 572-0809,43.5759088,-84.7577248,MI,Crumbl,2024-11-01
murfreesboro,Murfreesboro,2839 Medical Center Pkwy,Murfreesboro,Tennessee,37129,murfreesboro@crumbl.com,(615) 551-2160,35.86406449130417,-86.44667365993148,TN,Crumbl,2024-11-01
mimuskegon,Muskegon,"1720 E Sternberg Rd, Ste 40",Muskegon,Michigan,49444	,mi.muskegon@crumbl.com,(231) 875-6566,43.1546165,-86.2027569,MI,Crumbl,2024-11-01
myrtlebeach,Myrtle Beach,"106 Sayebrook Pkwy, Ste 5",Myrtle Beach,South Carolina,29588,sc.myrtlebeach@crumbl.com,(843) 582-0333,33.6520868,-78.9856706,SC,Crumbl,2024-11-01
nampa,Nampa,16391 N Marketplace Blvd,Nampa,Idaho,83687,nampa@crumbl.com,(208) 505-6256,43.614330,-116.593210,ID,Crumbl,2024-11-01
naperville,Naperville,"2936 Showplace Dr, Ste 112",Naperville,Illinois,60564,naperville@crumbl.com,(331) 213-2840,41.7106473,-88.207917,IL,Crumbl,2024-11-01
flnaples,Naples,"6270 Naples Blvd, Unit 3",Naples,Florida,34109,fl.naples@crumbl.com,(239) 799-5289,26.21855,-81.77331,FL,Crumbl,2024-11-01
nhnashua,Nashua,256A Daniel Webster Hwy,Nashua,New Hampshire,03060,nhnashua@crumbl.com,(603) 821-0889,42.7079573,-71.4405314,NH,Crumbl,2024-11-01
tnnashvillewest,Nashville West,"6706 Charlotte Pike, Ste C",Nashville,Tennessee,37209,nashvillewest@crumbl.com,(629) 401-0600,36.136600,-86.886400,TN,Crumbl,2024-11-01
canatomas,Natomas,"3661 N Freeway Blvd, Ste 110",Sacramento,California,95834,ca.natomas@crumbl.com,(279) 666-4040,38.64123,-121.49558,CA,Crumbl,2024-11-01
ohnewalbany,New Albany,6326 E Dublin Granville Rd,Westerville,Ohio,43081,oh.newalbany@crumbl.com,(614) 392-7020,40.079392028873976,-82.84844538754173,OH,Crumbl,2024-11-01
txnewbraunfels,New Braunfels,"2180 State Hwy 46 W, Ste 102",New Braunfels,Texas,78132,tx.newbraunfels@crumbl.com,(210) 435-9227,29.721390,-98.174150,TX,Crumbl,2024-11-01
txnewcaney,New Caney,"12073 N Grand Pkwy E, Ste 300",New Caney,Texas,77357,tx.newcaney@crumbl.com,(281) 721-4749,30.130140,-95.232240,TX,Crumbl,2024-11-01
ksnewmarketsquare,New Market Square,"2755 N Maize Rd, Ste 101",Wichita,Kansas,67205,ks.newmarketsquare@crumbl.com,(316) 202-1552,37.73320,-97.46320,KS,Crumbl,2024-11-01
canewburypark,Newbury Park,"935 Broadbeck Dr, Ste B",Newbury Park,California,91320-1274,ca.newburypark@crumbl.com,(805) 244-5552,34.191320,-118.937680,CA,Crumbl,2024-11-01
ganewnan,Newnan,"110 Glenda Trace, Ste A ",Newnan,Georgia,30265,ga.newnan@crumbl.com, (470) 215-1783,33.411410,-84.684280,GA,Crumbl,2024-11-01
vanewportnews,Newport News,12080 Jefferson Ave suite 700b,Newport News,Virginia,23606,va.newportnews@crumbl.com,(276) 249-1303,37.1028889,-76.49075669999999,VA,Crumbl,2024-11-01
kynewport,Newport,1313 A Monmouth St,Newport,Kentucky,41071,ky.newport@crumbl.com,(859) 228-7967,39.08565,-84.48364,KY,Crumbl,2024-11-01
panewtown,Newtown,2934 S Eagle Rd,Newtown,Pennsylvania,18940,panewtown@crumbl.com,267) 753-0129,40.2358201,-74.9428398,PA,Crumbl,2024-11-01
nyniagarafalls,Niagara Falls,1637 Military Rd,Niagara Falls,New York,14304,ny.niagarafalls@crumbl.com,(716) 469-2944,43.09520370000001,-78.9727817,NY,Crumbl,2024-11-01
flniceville,Niceville,1552 E John Sims Pkwy ,Niceville,Florida,32578,fl.niceville@crumbl.com,(850) 389-2234,30.513160,-86.453120,FL,Crumbl,2024-11-01
kynicholasville,Nicholasville,255 E Brannon Rd,Nicholasville,Kentucky,40356,ky.nicholasville@crumbl.com,(859) 305-7134,37.95664319999999,-84.5343554,KY,Crumbl,2024-11-01
ilniles,Niles,5704 W Touhy Ave,Niles,Illinois,60714 ,il.niles@crumbl.com,(224) 592-5422,42.0126335,-87.7710924,IL,Crumbl,2024-11-01
ilnormal,Normal,"309 S Veterans Pkwy, Ste 405",Normal,Illinois,61761,il.normal@crumbl.com,(309) 204-0040,40.505951,-88.955897,IL,Crumbl,2024-11-01
oknorman,Norman,1607 24th Ave NW,Norman,Oklahoma,73069,ok.norman@crumbl.com,(405) 701-6692,35.238438,-97.4816616,OK,Crumbl,2024-11-01
norterra,Norterra,"2450 W Happy Valley Rd, Ste 1151",Phoenix,Arizona,85085,norterra@crumbl.com,(602) 726-5008,33.7143361,-112.1115143,AZ,Crumbl,2024-11-01
njnorthbrunswick,North Brunswick,755 Shoppes Blvd,North Brunswick,New Jersey,08902,nj.northbrunswick@crumbl.com,(732) 640-8555,40.4607636,-74.4592238,NJ,Crumbl,2024-11-01
flnorthcape,North Cape,"1519 NE Pine Island Rd, Ste 150",Cape Coral,Florida,33909,fl.northcape@crumbl.com,(239)539-9269,26.6676405,-81.9427504,FL,Crumbl,2024-11-01
wanorthdivision,North Division,7808 N Division St Suite 4,Spokane ,Washington,99208,wa.northdivision@crumbl.com,5093561124,47.72928,-117.41078,WA,Crumbl,2024-11-01
panorthfayette,North Fayette,306 McHolme Dr,Pittsburgh,Pennsylvania,15275,pa.northfayette@crumbl.com,(724) 213-2047,40.44897,-80.17446,PA,Crumbl,2024-11-01
ctnorthhaven,North Haven,209 Universal Dr N,North Haven,Connecticut,06473,ct.northhaven@crumbl.com,(203) 909-6481,41.356639,-72.87141500000001,CT,Crumbl,2024-11-01
canorthhollywood,North Hollywood,"6160 Laurel Canyon Blvd, Ste 145",North Hollywood ,California,91606,ca.northhollywood@crumbl.com,(747) 248 - 0422,34.182853,-118.3980716,CA,Crumbl,2024-11-01
panorthhuntingdon,North Huntingdon,"714 Mills Dr, Ste 6",North Huntingdon,Pennsylvania,15642,pa.northhuntingdon@crumbl.com,(412) 763-0942,40.3155055,-79.6867388,PA,Crumbl,2024-11-01
flnorthlakeland,North Lakeland,"919 Lakeland Park Center Dr, Ste 370",Lakeland,Florida,33809,fl.northlakeland@crumbl.com,(239) 365-2458,28.0904265,-81.9689082,FL,Crumbl,2024-11-01
nenorthlincoln,North Lincoln,"6005 O St, Ste I",Lincoln,Nebraska,68510,ne.northlincoln@crumbl.com,(402) 413-0259,40.8131466,-96.6398863,NE,Crumbl,2024-11-01
arlittlerock,North Little Rock,2805 Lakewood Village Dr,North Little Rock,Arkansas,72116,ar.northlittlerock@crumbl.com,(501) 436-5252,34.79699000000001,-92.23088,AR,Crumbl,2024-11-01
oknorthmay,North May,"6315 N May Ave, Ste B",Oklahoma City,Oklahoma,73112,ok.northmay@crumbl.com,(405) 500-7950,35.53608778088109,-97.56615094492803,OK,Crumbl,2024-11-01
ilnorthnaperville,North Naperville,1504 N Naper Blvd,Naperville,Illinois,60563,il.northnaperville@crumbl.com,(331) 330-7617,41.7967652,-88.118624,IL,Crumbl,2024-11-01
northnashua,North Nashua,"2 Cellu Dr, Unit 101",Nashua,New Hampshire,03063,nh.northnashua@crumbl.com,(603) 821-0058,42.7979376,-71.5357984,NH,Crumbl,2024-11-01
utnorthogden,North Ogden,2568 N 400 E,North Ogden,Utah,84414,ut.northogden@crumbl.com,(385) 205-8046,41.3050846,-111.9702082,UT,Crumbl,2024-11-01
ohnortholmsted,North Olmsted,"25102 Brookpark Rd, Ste 118",North Olmsted,Ohio,44070,oh.northolmsted@crumbl.com,(440) 427-4078,41.418990,-81.900730,OH,Crumbl,2024-11-01
flnorthport,North Port,17437 Tamiami Trail,North Port,Florida,34287,fl.northport@crumbl.com,(941) 280-1500,27.037383,-82.2136496,FL,Crumbl,2024-11-01
txnorthrichlandhills,North Richland Hills,8183 Precinct Line Rd,North Richland Hills,Texas,76182,tx.northrichlandhills@crumbl.com,(682) 593-1041,32.9016892,-97.1889283,TX,Crumbl,2024-11-01
winorthshore,North Shore,5600 N Bayshore Dr.,Glendale,Wisconsin,53217,wi.northshore@crumbl.com,(414) 600-9289,43.118920,-87.913730,WI,Crumbl,2024-11-01
monorthspringfield,North Springfield,2411 N Glenstone Ave,Springfield,Missouri,65803,mo.northspringfield@crumbl.com,(417) 851-0169,37.2406297,-93.2619386,MO,Crumbl,2024-11-01
panorthamptoncrossings,Northampton Crossings,3712-3 Nazareth Rd,Easton,Pennsylvania,18045,pa.northamptoncrossings@crumbl.com,(484) 292-4032,40.7234072,-75.2871523,PA,Crumbl,2024-11-01
ilnorthbrook,Northbrook,"984 Willow Rd, Ste C",Northbrook,Illinois,60062,il.northbrook@crumbl.com,(224) 203-2453,42.10693,-87.80292,IL,Crumbl,2024-11-01
ncnorthlake,Northlake,"9821 Northlake Centre Pkwy, Ste J",Charlotte,North Carolina,28216,nc.northlake@crumbl.com,(980) 477-6222,35.3490244,-80.8598487,NC,Crumbl,2024-11-01
flnorthlake,Northlake,"3333 Northlake Blvd, Ste 4",Palm Beach Gardens,Florida,33403,fl.northlake@crumbl.com,561) 377-2118,26.8089136,-80.0908842,FL,Crumbl,2024-11-01
canorthridge,Northridge,8752 Corbin Ave,Northridge,California,91324,ca.northridge@crumbl.com,(747) 216-0332,34.2294342,-118.5638396,CA,Crumbl,2024-11-01
minorthville,Northville,20075 Haggerty Rd,Northville,Michigan,48167,mi.northville@crumbl.com,(734) 228-4838,42.4329833,-83.4363818,MI,Crumbl,2024-11-01
parosspark,Northway,6300 Northway Mall Dr,Pittsburgh ,Pennsylvania,15237,pa.rosspark@crumbl.com,(412) 939-7177,40.5513919,-80.0228496,PA,Crumbl,2024-11-01
canovato,Novato,"132 Vintage Way, Unit F-11",Novato,California,94945,ca.novato@crumbl.com,(707) 390-8797,38.091910,-122.556250,CA,Crumbl,2024-11-01
minovi,Novi,26060 Ingersol Dr,Novi,Michigan,48375,mi.novi@crumbl.com,248) 916-9450,42.48168,-83.4747823,MI,Crumbl,2024-11-01
ohosu,OSU,"1759 Olentangy River Rd, Unit 18-B",Columbus,Ohio,43212,oh.osu@crumbl.com,(380) 900-8548,39.994930,-83.025580,OH,Crumbl,2024-11-01
iloakbrook,Oak Brook,17W410 22nd St,Oak Brook Terrace,Illinois,60181,il.oakbrook@crumbl.com,(331) 551-6923,41.84713,-87.96827,IL,Crumbl,2024-11-01
wioakcreek,Oak Creek,"160 W Town Square Way, Suite 400",Oak Creek,Wisconsin,53154,wioakcreek@crumbl.com,(262) 320-7002,42.900540,-87.914760,WI,Crumbl,2024-11-01
txoakforest,Oak Forest,"1214 W 43rd St, Ste 400",Houston,Texas,77018,tx.oakforest@crumbl.com,(281) 925-7264,29.8292283,-95.4330074,TX,Crumbl,2024-11-01
ksoakpark,Oak Park,12154 W 95th St,Lenexa,Kansas,66215,ks.oakpark@crumbl.com,(913) 210-1331,38.9572408,-94.7271927,KS,Crumbl,2024-11-01
floakleaf,Oakleaf,"9526 Argyle Forest Blvd, Ste B-6",Jacksonville,Florida,32222,fl.oakleaf@crumbl.com,(904) 449 7459,30.192990,-81.826180,FL,Crumbl,2024-11-01
oakley,Oakley,3321 Vandercar Way,Cincinnati,Ohio,45209,oakley@crumbl.com,(513) 580-7711,39.1580598,-84.4253952,OH,Crumbl,2024-11-01
paoaks,Oaks,"1570 Egypt Rd, Ste 110",Phoenixville,Pennsylvania,19460,pa.oaks@crumbl.com,(484) 996-1333,40.1350764754703,-75.45214391523675,PA,Crumbl,2024-11-01
flocala,Ocala,"4414 SW College Rd, Ste 325",Ocala,Florida,34474,fl.ocala@crumbl.com,(352) 619-4692,29.1412417,-82.19065119999999,FL,Crumbl,2024-11-01
njocean,Ocean,2303 State Route 66,Ocean Township,New Jersey,07712,nj.ocean@crumbl.com,(732) 455-1452,40.2282498,-74.0462235,NJ,Crumbl,2024-11-01
nyoceanside,Oceanside,3554 Long Beach Rd,Oceanside,New York,11572,ny.oceanside@crumbl.com,(516) 266-9901,40.6239677,-73.6403985,NY,Crumbl,2024-11-01
caoceanside,Oceanside,"459 College Blvd, Ste 3",Oceanside,California,92057,ca.oceanside@crumbl.com,(760) 330-5969,33.24514437007896,-117.29295177970367,CA,Crumbl,2024-11-01
txodessa,Odessa,4925 E 42nd St,Odessa,Texas,79762,tx.odessa@crumbl.com,(432) 248-0116,31.8941692,-102.3352747,TX,Crumbl,2024-11-01
ogden,Ogden,809 W Riverdale Rd,Riverdale,Utah,84405,ut.ogden@crumbl.com,(801) 695-4054,41.17976700977942,-111.99728826941396,UT,Crumbl,2024-11-01
miokemos,Okemos,"2843 E Grand River Ave, Ste 150",East Lansing,Michigan,48823,mi.okemos@crumbl.com,(517) 853-7065,42.72691564,-84.4559057,MI,Crumbl,2024-11-01
olathe,Olathe,15159 W 119th St,Olathe,Kansas,66062,olathe@crumbl.com,(913) 361-7073,38.9118254,-94.7656254,KS,Crumbl,2024-11-01
olivebranch,Olive Branch,"5400 Goodman Rd, Ste 109",Olive Branch,Mississippi,38654,ms.olivebranch@crumbl.com,(662) 932-3330,34.9630613,-89.8957084,MS,Crumbl,2024-11-01
waolympia,Olympia,1309 Cooper Point Dr Southwest,Olympia,Washington,98502,wa.olympia@crumbl.com,(360) 634-4573,47.03537221403731,-122.93969068238763,WA,Crumbl,2024-11-01
neomahanorthwest,Omaha Northwest,3606 N 156th St,Omaha,Nebraska,68116,ne.omahanorthwest@crumbl.com,(402) 671-0566,41.2901378,-96.1607698,NE,Crumbl,2024-11-01
ohontario,Ontario,2152 Walker Lake Rd,Ontario,Ohio,44903,oh.ontario@crumbl.com,(567) 227-2040,40.78791287420629,-82.59176124551657,OH,Crumbl,2024-11-01
orange,Orange,"1500 E Village Way, Ste F19A",Orange,California,92865,orange@crumbl.com,(657) 549-4575,33.8263977,-117.8405129,CA,Crumbl,2024-11-01
inorchardcrossing,Orchard Crossing,"1034 Thomas Rd, Ste 116",Fort Wayne,Indiana,46804,in.orchardcrossing@crumbl.com,(260) 203-0015,41.077150,-85.201400,IN,Crumbl,2024-11-01
waorchards,Orchards,8101 NE Parkway Dr Ste A-1,Vancouver,Washington,98662,wa.orchards@crumbl.com,(360) 553-7059,45.65564,-122.59005,WA,Crumbl,2024-11-01
utorem,Orem,"160 E University Pkwy, Suite G",Orem,Utah,84058,ut.orem@crumbl.com,(385) 446-5419,40.273064,-111.69104,UT,Crumbl,2024-11-01
ilorlandpark,Orland Park,"9505 W 142nd St, Unit 302",Orland Park ,Illinois,60462,il.orlandpark@crumbl.com,(708) 778-3358,41.6321306,-87.8516888,IL,Crumbl,2024-11-01
azorovalley,Oro Valley,"7805 N Oracle Rd, Ste 151",Oro Valley,Arizona,85704,az.orovalley@crumbl.com,(520) 355-3848,32.3491865,-110.9760675,AZ,Crumbl,2024-11-01
wioshkosh,Oshkosh,2241 Westowne Ave,Oshkosh,Wisconsin,54904,wi.oshkosh@crumbl.com,(920) 479-9493,44.02954,-88.59188259999999,WI,Crumbl,2024-11-01
outerbanks,Outer Banks,"5385 N Virginia Dare Trl, Ste 4",Southern Shores,North Carolina,27949,nc.outerbanks@crumbl.com,(252) 573-3366,36.1007968,-75.7178882,NC,Crumbl,2024-11-01
overlandpark,Overland Park,6780 W 135th St,Overland Park,Kansas,66223,overlandpark@crumbl.com,(913) 361-7072,38.885336,-94.6641311,KS,Crumbl,2024-11-01
okowasso,Owasso,"9002 N 121st E Ave, Ste 400",Owasso,Oklahoma,74055,ok.owasso@crumbl.com,(539) 444-0833,36.2882564,-95.84701,OK,Crumbl,2024-11-01
kyowensboro,Owensboro,3250 Hayden Rd,Owensboro,Kentucky,42303,ky.owensboro@crumbl.com,(270)574-5821,37.759980,-87.054710,KY,Crumbl,2024-11-01
mdowingsmills,Owings Mills,"10200 Mill Run Cir, Ste 102",Owings Mills,Maryland,21117,md.owingsmills@crumbl.com,(443) 272-1758,39.4053949,-76.7896798,MD,Crumbl,2024-11-01
aloxford,Oxford,262 Oxford Exchange Blvd,Oxford,Alabama,36203,al.oxford@crumbl.com,(205) 379-8245,33.6084175,-85.7843121,AL,Crumbl,2024-11-01
msoxford,Oxford,103 Merchants Dr,Oxford,Mississippi,38655,ms.oxford@crumbl.com,(662) 636-6265,34.3628593,-89.5682032,MS,Crumbl,2024-11-01
caoxnard,Oxnard,"365 W Esplanade Dr, Ste B",Oxnard,California,93036,caoxnard@crumbl.com,(805) 307-0060,34.233890,-119.178570,CA,Crumbl,2024-11-01
capacificcommons,Pacific Commons,43839 Pacific Commons Blvd,Fremont,California,94538,ca.pacificcommons@crumbl.com,(510) 403-1033,37.5014745,-121.969994,CA,Crumbl,2024-11-01
kypaddock,Paddock,4110 Summit Plaza Dr,Louisville,Kentucky,40241,ky.paddock@crumbl.com,(502) 509-2828,38.308740,-85.575470,KY,Crumbl,2024-11-01
kypaducah,Paducah,"2929 James Sanders Blvd, Ste G-2",Paducah,Kentucky,42001,ky.paducah@crumbl.com,(270) 953-7104,37.076199,-88.685865,KY,Crumbl,2024-11-01
palmbeachgardens,Palm Beach Gardens,"5240 Donald Ross Rd, Ste 105",Palm Beach Gardens,Florida,33418,palmbeachgardens@crumbl.com,(561) 484-5063,26.882530,-80.115420,FL,Crumbl,2024-11-01
flpalmcoast,Palm Coast,"250 Palm Coast Pkwy NE, Ste 207",Palm Coast,Florida,32137,fl.palmcoast@crumbl.com,(239) 291-3002,29.5579608,-81.2121341,FL,Crumbl,2024-11-01
capalmdesert,Palm Desert,"44-491 Town Center Way, Ste F",Palm Desert ,California,92260,ca.palmdesert@crumbl.com,(442) 227-0556,33.7248324,-116.4008749,CA,Crumbl,2024-11-01
flpalmharbor,Palm Harbor,"798 E Lake Rd S, Ste 54",Palm Harbor,Florida,34685,fl.palmharbor@crumbl.com,(727) 279-0005,28.062570,-82.706540,FL,Crumbl,2024-11-01
flpanamacitybeach,Panama City Beach,"15600 Panama City Beach Pkwy, Ste 380",Panama City Beach,Florida,32413,fl.panamacitybeach@crumbl.com,Phone: (850) 919-1005,30.22264,-85.866520,FL,Crumbl,2024-11-01
nepapillion,Papillion,"8650 S 71st Plaza, Ste F",Papillion,Nebraska,68133,ne.papillion@crumbl.com,tel:3082228796,41.1725766,-96.022793,NE,Crumbl,2024-11-01
njparamus,Paramus,"380 Bergen Town Center, Ste E-5A",Paramus,New Jersey,07652,nj.paramus@crumbl.com, (201) 212-4923,40.9148749,-74.0590196,NJ,Crumbl,2024-11-01
parker,Parker,"11153 S Parker Rd, Unit B",Parker,Colorado,80134,parker@crumbl.com,(720) 386-1263,39.512180,-104.766040,CO,Crumbl,2024-11-01
ncparkside,Parkside,1164 Parkside Main St,Cary,North Carolina,27519,nc.parkside@crumbl.com,(919) 230-0000,35.84830609999999,-78.8900106,NC,Crumbl,2024-11-01
ohparma,Parma,8647 W Ridgewood Dr,Parma,Ohio,44129,oh.parma@crumbl.com,(440) 482-1950,41.3840787,-81.7458341,OH,Crumbl,2024-11-01
pasadena,Pasadena,"5765 Fairmont Pkwy, Ste 100",Pasadena,Texas,77505,tx.pasadena@crumbl.com,(832) 553 0015,29.6504793,-95.1545792,TX,Crumbl,2024-11-01
wapasco,Pasco,5025 RD 68,Pasco,Washington,99301,wa.pasco@crumbl.com,(509) 380-9413,46.2730709,-119.1825943,WA,Crumbl,2024-11-01
nmpaseodelnorte,Paseo Del Norte,"8100 Wyoming Blvd NE, Ste F-3",Albuquerque,New Mexico,87113,nm.paseodelnorte@crumbl.com,tel:5052264900,35.17456981814922,-106.555869862012,NM,Crumbl,2024-11-01
capasorobles,Paso Robles,"2307 Theater Dr, Ste H6",Paso Robles,California,93446,ca.pasorobles@crumbl.com,(805) 257-2599,35.5833202,-120.6994142,CA,Crumbl,2024-11-01
payson,Payson,855 Turf Farm Rd Suite G,Payson,Utah,84651,ut.payson@crumbl.com,(385) 404-0158,40.0309837,-111.7552304,UT,Crumbl,2024-11-01
gapeachtreecity,Peachtree City,"130 Peachtree East Shopping Center, Ste 108",Peachtree City,Georgia,30269,ga.peachtree@crumbl.com,(470) 288-4077,33.4243919,-84.5572023,GA,Crumbl,2024-11-01
hipearlcity,Pearl City,1029 Makolu St,Pearl City,Hawaii,96782,hi.pearlcity@crumbl.com,808) 272-8693,21.399260,-157.974106,HI,Crumbl,2024-11-01
txpearlandparkway,Pearland Parkway,"2550 Pearland Pkwy, Ste 160",Pearland,Texas,77581,tx.pearlandparkway@crumbl.com,(281) 816-9550,29.5617682,-95.2607716,TX,Crumbl,2024-11-01
txpearland,Pearland,"11041 Shadow Creek Pkwy, Ste 115",Pearland,Texas,77584,tx.pearland@crumbl.com,(281) 549-1960,29.58154,-95.39070,TX,Crumbl,2024-11-01
txpebblehills,Pebble Hills,"14011 Pebble Hills, Ste 108",El Paso,Texas,79938,tx.pebblehills@crumbl.com,(915) 455-0583,31.7828825,-106.2429431,TX,Crumbl,2024-11-01
pembrokepines,Pembroke Pines,"15999 Pines Blvd, Ste 103",Pembroke Pines,Florida,33027,fl.pembrokepines@crumbl.com,(754) 220-3030,26.0114272,-80.3605145,FL,Crumbl,2024-11-01
vapembroke,Pembroke,300 Constitution Drive Suite 104 ,Virginia Beach,Virginia,23462,va.pembroke@crumbl.com,(757) 671-5855,36.844560,-76.129470,VA,Crumbl,2024-11-01
pensacola,Pensacola,1670 E Nine Mile Rd,Pensacola,Florida,32514,pensacola@crumbl.com,(850) 905-6414,30.5324532,-87.2303141,FL,Crumbl,2024-11-01
ilpeoriasterling,Peoria Sterling,4509 N Sterling Ave,Peoria,Illinois,61615,il.peoriasterling@crumbl.com,(309) 340-1669,40.74271,-89.63215,IL,Crumbl,2024-11-01
ohperrysburg,Perrysburg,"10411 Fremont Pike, Ste C",Perrysburg,Ohio,43551,oh.perrysburg@crumbl.com,(567) 331-2008,41.5459031,-83.59444789999999,OH,Crumbl,2024-11-01
capetaluma,Petaluma,179 N McDowell,Petaluma,California,94954,ca.petaluma@crumbl.com,(707) 238-2351	,38.250390,-122.628080,CA,Crumbl,2024-11-01
wipewaukee,Pewaukee,1466 Capitol Drive,Pewaukee,Wisconsin,53072,wi.pewaukee@crumbl.com,(262) 737-4291,43.082530,-88.226670,WI,Crumbl,2024-11-01
pflugerville,Pflugerville,"18817 Limestone Commercial Dr, Ste 200",Pflugerville,Texas,78660,pflugerville@crumbl.com,(512) 649-4770,30.468910,-97.595570,TX,Crumbl,2024-11-01
tnpigeonforge,Pigeon Forge,"2655 Teaster Ln, Ste 245",Pigeon Forge,Tennessee,37863,tn.pigeonforge@crumbl.com,(865) 326-8690,35.8069106,-83.5729726,TN,Crumbl,2024-11-01
flpinecrest,Pinecrest,"8743 SW 136th St, Ste B",Miami,Florida,33176,fl.pinecrest@crumbl.com,(786) 904-0255,25.6453230,-80.3353056,FL,Crumbl,2024-11-01
flpinellaspark,Pinellas Park,3740 N Park Blvd,Pinellas Park,Florida,33781,fl.pinellaspark@crumbl.com,(727) 258-5303,27.839017067100954,-82.68505909109446,FL,Crumbl,2024-11-01
capismobeach,Pismo Beach,503B 5 Cities Dr,Pismo Beach ,California,93449-3007,ca.pismobeach@crumbl.com,(805) 295-4404,35.1357545,-120.6275463,CA,Crumbl,2024-11-01
txplano,Plano,"6100 W Park Blvd, Ste 100B",Plano,Texas,75093,plano@crumbl.com,(469) 200-6537,33.02693660000001,-96.8311756,TX,Crumbl,2024-11-01
wipleasantprairie,Pleasant Prairie,"9901 77th Street, #820 ",Pleasant Prairie,Wisconsin,53158,wi.pleasantprairie@crumbl.com,(262) 425-0008,42.5653281,-87.9319155,WI,Crumbl,2024-11-01
maplymouth,Plymouth,67 Long Pond Rd,Plymouth,Massachusetts,02360,ma.plymouth@crumbl.com,(508) 591-0906,41.9298395,-70.6613007,MA,Crumbl,2024-11-01
pocatello,Pocatello,"231 W Quinn Rd, Ste E",Pocatello,Idaho,83202,idpocatello@crumbl.com,(208) 242-2303,42.90425718220646,-112.45257618540509,ID,Crumbl,2024-11-01
capointloma,Point Loma,"2990 Midway Dr, Ste B",San Diego,California,92110,ca.pointloma@crumbl.com,(619) 633-3770,32.749683,-117.205632,CA,Crumbl,2024-11-01
ohpolaris,Polaris,1219 Polaris Pkwy,Columbus,Ohio,43240,oh.polaris@crumbl.com,(614) 392-7540,40.139997,-82.9913608,OH,Crumbl,2024-11-01
miporthuron,Port Huron ,4071 24th Avenue,Fort Gratiot Township,Michigan,48059,mi.porthuron@crumbl.com, (810) 292-0694,43.0273564,-82.4576106,MI,Crumbl,2024-11-01
flportstlucie,Port St. Lucie,"1707 St Lucie W Blvd, Ste 152 ",Port St. Lucie,Florida,34986,fl.portstlucie@crumbl.com,(772) 242-9724,27.3131345,-80.4069324,FL,Crumbl,2024-11-01
nyportwashington,Port Washington,"20 Soundview Market Pl, Unit 7",Port Washington,New York,11050,ny.portwashington@crumbl.com,(516) 373-2770,40.8419749,-73.704869,NY,Crumbl,2024-11-01
nhportsmouth,Portsmouth,"45 Gosling Rd, Ste 5C",Newington,New Hampshire,03801,nh.portsmouth@crumbl.com,(603) 617-3338,43.09451,-70.80032,NH,Crumbl,2024-11-01
capoway,Poway,"13521 Poway Rd, Ste 504",Poway,California,92064,ca.poway@crumbl.com,(858) 859-8292,32.9551361,-117.0405707,CA,Crumbl,2024-11-01
azprescott,Prescott,"5684 E Hwy 69, Ste 120",Prescott Valley,Arizona,86314,az.prescott@crumbl.com,(928) 237-2248,34.5765096,-112.3682165,AZ,Crumbl,2024-11-01
txprestonhollow,Preston Hollow,"4347 W Northwest Hwy, Ste 160",Dallas,Texas,75220,tx.prestonhollow@crumbl.com,210-791-0122,32.865568,-96.836791,TX,Crumbl,2024-11-01
njprinceton,Princeton,650 Nassau Park Blvd,Princeton,New Jersey,08540,nj.princeton@crumbl.com,(609) 450-3166,40.304741491009686,-74.68084597330328,NJ,Crumbl,2024-11-01
progressridge,Progress Ridge,"14900 SW Barrows Rd, Ste 104",Beaverton,Oregon,97007,progressridge@crumbl.com,(971) 317-9412,45.429750,-122.828840,OR,Crumbl,2024-11-01
capromenade,Promenade,"9877 Chapman Ave, Ste C",Garden Grove,California,92841,ca.promenade@crumbl.com,(657) 233-4050,33.789040,-117.960550,CA,Crumbl,2024-11-01
txprosper,Prosper,"220 S Preston Rd, Ste 10",Prosper,Texas,75078,tx.prosper@crumbl.com,(469) 296-6593,33.23447284138688,-96.79125207300247,TX,Crumbl,2024-11-01
provo,Provo,154 W 1230 N,Provo,Utah,84604,provo@crumbl.com,(801) 823-1544,40.2510024,-111.6615833,UT,Crumbl,2024-11-01
copueblo,Pueblo,"1617 Hwy 50, Ste 160",Pueblo,Colorado,81008,co.pueblo@crumbl.com,(719) 501-2987,38.310841,-104.628650,CO,Crumbl,2024-11-01
puyallup,Puyallup,10301 156th St. E. Suite B5 106,Puyallup,Washington,98374,puyallup@crumbl.com,(253) 242-5232,47.115026,-122.291496,WA,Crumbl,2024-11-01
txquarry,Quarry,"255 E Basse Rd, Ste 152",San Antonio,Texas,78209,tx.quarry@crumbl.com,(210) 699-4993,29.4960263,-98.480173,TX,Crumbl,2024-11-01
queencreek,Queen Creek,"21172 S Ellsworth Loop Rd, Ste 102",Queen Creek,Arizona,85142,queencreek@crumbl.com,(480) 565-7737,33.2561271,-111.6391032,AZ,Crumbl,2024-11-01
paqueensgate,Queensgate,2073 Springwood Rd,York,Pennsylvania,17403,pa.queensgate@crumbl.com,(223) 848-8283pa.queensgate@crumbl.com,39.94049,-76.6964023,PA,Crumbl,2024-11-01
raleigh,Raleigh,"2920 Sherman Oak Pl, Ste 100 ",Raleigh,North Carolina,27609,nc.raleigh@crumbl.com,(919) 249-1333,35.821631,-78.620847,NC,Crumbl,2024-11-01
caranchocordova,Rancho Cordova,10909-B Olson Dr,Rancho Cordova,California,95670,ca.ranchocordova@crumbl.com,(916) 633-1673,38.5950316,-121.2838765,CA,Crumbl,2024-11-01
caranchocucamonga,Rancho Cucamonga,"12335 Base Line Rd, Unit 100",Rancho Cucamonga,California,91739,ca.ranchocucamonga@crumbl.com,(909) 317-0282,34.12118612878862,-117.53605540374126,CA,Crumbl,2024-11-01
caranchosandiego,Rancho San Diego,"2883 Jamacha Rd, Ste 13H",El Cajon,California,92019,ca.ranchosandiego@crumbl.com,(619) 631-3712,32.7401754,-116.9390187,CA,Crumbl,2024-11-01
ranchosantamargarita,Rancho Santa Margarita,22342 El Paseo,Rancho Santa Margarita,California,92688,santamargarita@crumbl.com,(949) 298-5540,33.640364,-117.594806,CA,Crumbl,2024-11-01
sdrapidcity,Rapid City,"1745 Eglin St, Ste 440  ",Rapid City,South Dakota,57701,sd.rapidcity@crumbl.com,(605) 291-4040,44.096308,-103.182496,SD,Crumbl,2024-11-01
txrayzorranch,Rayzor Ranch,"2710 W University Dr, Unit 1030",Denton,Texas,76201,tx.rayzorranch@crumbl.com,(940) 331-0577,33.2302937,-97.16728340000002,TX,Crumbl,2024-11-01
varedmill,Red Mill,1157 Nimmo Parkway Ste. 112 ,Virginia Beach ,Virginia,23456,va.redmill@crumbl.com,(757) 426-4406,36.760308473623496,-76.01088257344973,VA,Crumbl,2024-11-01
azredmountain,Red Mountain,"5942 E Longbow Pkwy, Ste 103",Mesa,Arizona,85215,az.redmountain@crumbl.com,(480) 645-9966,33.4721043,-111.7018731,AZ,Crumbl,2024-11-01
redrock,Red Rock,"9901 W Charleston Blvd, Ste 2",Las Vegas,Nevada,89117,redrock@crumbl.com,(702) 846-1089,36.15785,-115.31288,NV,Crumbl,2024-11-01
caredding,Redding,"4641 Churn Creek Rd, Ste 4",Redding,California,96002,ca.redding@crumbl.com,(530) 638-7461,40.5408716,-122.3499354,CA,Crumbl,2024-11-01
redlands,Redlands,"27510 W Lugonia Ave, Ste C",Redlands,California,92374,redlands@crumbl.com,(909) 312-0793,34.0711049,-117.2066411,CA,Crumbl,2024-11-01
warenton,Renton,815 North 10th Street suite e,Renton,Washington,98057,wa.renton@crumbl.com,(425) 988-0562,47.497475784850685,-122.20463517059022,WA,Crumbl,2024-11-01
vareston,Reston,11686 Plaza America Dr ,Reston,Virginia,20190,va.reston@crumbl.com,(571) 346-2322,38.9519772,-77.3490967,VA,Crumbl,2024-11-01
rexburg,Rexburg,"160 W 2nd S, Ste 102",Rexburg,Idaho,83440,rexburg@crumbl.com,(208) 254-5556,43.8220966213705,-111.78835077914651,ID,Crumbl,2024-11-01
ohreynoldsburg,Reynoldsburg,2863 Taylor Rd Ext,Reynoldsburg,Ohio,43068,oh.reynoldsburg@crumbl.com,tel:3802241400,39.9390793,-82.7875821,OH,Crumbl,2024-11-01
richland,Richland,2665 Queensgate Drive,Richland,Washington,99352,richland@crumbl.com,(509) 289-4267,46.258770,-119.310832,WA,Crumbl,2024-11-01
kyrichmond,Richmond,"2073 Lantern Ridge Dr, Ste 100",Richmond,Kentucky,40475,ky.richmond@crumbl.com,(859) 353-4191,37.7377441,-84.3282243,KY,Crumbl,2024-11-01
ohridgepark,Ridge Park,7323 Northcliff Ave,Brooklyn,Ohio,44144,oh.ridgepark@crumbl.com,(440) 253-0310,41.42364024806987,-81.7353456931009,OH,Crumbl,2024-11-01
mnridgehaven,Ridgehaven,13181 Ridgedale Dr,Minnetonka,Minnesota,55305,mn.ridgehaven@crumbl.com,(218) 212-8169,44.9691197,-93.44745119999999,MN,Crumbl,2024-11-01
larivermarketplace,River Marketplace,"4409 Ambassador Caffery Pkwy, Ste 700",Lafayette,Louisiana,70508,la.rivermarketplace@crumbl.com,(337) 362-1699,30.15836,-92.04678,LA,Crumbl,2024-11-01
txriveroaks,River Oaks,"2036 Westheimer Rd, Ste B",Houston,Texas,77098,tx.riveroaks@crumbl.com,(281) 886-8856,29.7430499,-95.4100315,TX,Crumbl,2024-11-01
riverbank,Riverbank,"2207 Claribel Rd, Ste D",Riverbank,California,95367,riverbank@crumbl.com,(209) 719-1011,37.7114285,-120.9601522,CA,Crumbl,2024-11-01
riverside,Riverside,"3540 Riverside Plaza Dr, Ste 312",Riverside,California,92506,riverside@crumbl.com,(951) 335-0635,33.955148,-117.390466,CA,Crumbl,2024-11-01
riverton,Riverton,2778 W 12600 S,Riverton,Utah,84065,ut.riverton@crumbl.com,(801) 747-9970,40.52269915742294,-111.95922124021995,UT,Crumbl,2024-11-01
flriverview,Riverview,"12926 US-301, Ste B",Riverview,Florida,33578,fl.riverview@crumbl.com,(813) 331-5003,27.8009455,-82.3341873,FL,Crumbl,2024-11-01
gariverwatch,Riverwatch,"826 Cabela Dr, Ste 2",Augusta,Georgia,30909,ga.riverwatch@crumbl.com,(803) 599-8283,33.5238496,-82.019054,GA,Crumbl,2024-11-01
mnrobertstreet,Robert Street,"2037 S Roberts St, Ste 300",West St Paul,Minnesota,55118,mn.robertstreet@crumbl.com,(612) 268-0152,44.8847946,-93.0831104,MN,Crumbl,2024-11-01
rochesterhills,Rochester Hills,2575 S Rochester Rd,Rochester Hills,Michigan,48307,rochesterhills@crumbl.com,(947) 218-0413,42.643260,-83.132020,MI,Crumbl,2024-11-01
mnrochester,Rochester,"2665 Commerce Dr NW, Ste 200",Rochester,Minnesota,55901,mnrochester@crumbl.com,(507) 328-0636,44.0514152,-92.5233268,MN,Crumbl,2024-11-01
nhrochester,Rochester,"150 Marketplace Blvd, Unit 11",Rochester,New Hampshire,03867,nh.rochester@crumbl.com,(603) 403-3991,43.33276,-71.00976,NH,Crumbl,2024-11-01
merockrow,Rock Row,"95 Rock Row, Ste 160 ",Westbrook,Maine,04092,me.rockrow@crumbl.com,(207) 887-0907,43.6768503,-70.3305866,ME,Crumbl,2024-11-01
njrockaway,Rockaway,"395 Mt Hope Ave, Ste 650 ",Rockaway,New Jersey,07866,nj.rockaway@crumbl.com,(862) 397-0911,40.9071626,-74.5480086,NJ,Crumbl,2024-11-01
ilrockford,Rockford,"6150 E State St, Ste 120",Rockford,Illinois,61108,il.rockford@crumbl.com,(779) 774-7668,42.26721200000001,-88.99640930000001,IL,Crumbl,2024-11-01
rocklin,Rocklin,"5194 Commons Dr, Ste 107",Rocklin,California,95677,ca.rocklin@crumbl.com,(279) 999-1003,38.8044039,-121.208748,CA,Crumbl,2024-11-01
rockville,Rockville,12266 Rockville Pike Ste K,Rockville,Maryland,20852,rockville@crumbl.com,(240) 406-7655,39.057319,-77.124571,MD,Crumbl,2024-11-01
txrockwall,Rockwall,"951 E I-30, Ste 105",Rockwall,Texas,75087,tx.rockwall@crumbl.com,(469) 264-5180,32.90231830681945,-96.45461444260788,TX,Crumbl,2024-11-01
arrogers,Rogers,4307 S Pleasant Crossing Blvd ,Rogers,Arkansas,72758,ar.rogers@crumbl.com,(479) 335-1927,36.2785627,-94.1486949,AR,Crumbl,2024-11-01
carollinghillsestates,Rolling Hills Estates,"46 Peninsula Ctr, Ste C",Rolling Hills Estates,California,90274,ca.rollinghillsestates@crumbl.com,(424) 305-6556,33.7747536,-118.3761892,CA,Crumbl,2024-11-01
garome,Rome,487 Turner McCall Blvd NE,Rome,Georgia,30165,ga.rome@crumbl.com,(762) 254-1160 ,34.2607229,-85.1768591,GA,Crumbl,2024-11-01
ilroscoevillage,Roscoe Village,3340 N Western Ave,Chicago,Illinois,60618 ,il.roscoevillage@crumbl.com,(773) 938-4448,41.94182178980535,-87.68983899270705,IL,Crumbl,2024-11-01
roseburg,Roseburg,"1500 NW Mulholland Dr, Ste 105",Roseburg,Oregon,97470,orroseburg@crumbl.com,(541) 671-5512,43.2284359,-123.3623435,OR,Crumbl,2024-11-01
carosemead,Rosemead,3624 Rosemead Blvd,Rosemead,California,91770,ca.rosemead@crumbl.com,(209) 319-2377,34.075032,-118.0726962,CA,Crumbl,2024-11-01
caroseville,Roseville,"6726 Stanford Ranch Rd, Ste 5",Roseville,California,95678,ca.roseville@crumbl.com,(916) 846-9682,38.783032,-121.267085,CA,Crumbl,2024-11-01
txroundrockcrossing,Round Rock Crossing,"3021 S I-35 Frontage Rd, Ste 140",Round Rock,Texas,78664,tx.roundrockcrossing@crumbl.com,512) 425-4103,30.4787334,-97.6690751,TX,Crumbl,2024-11-01
txrowlett,Rowlett,"3001 Lakeview Pkwy, Ste 102",Rowlett,Texas,75088,tx.rowlett@crumbl.com,(469) 314-2030,32.90864,-96.57296,TX,Crumbl,2024-11-01
miroyaloak,Royal Oak,"30955 Woodward Ave, Ste 715",Royal Oak,Michigan,48073,mi.royaloak@crumbl.com,248) 952-8988,42.5166916,-83.1877933,MI,Crumbl,2024-11-01
mosaintjoseph,Saint Joseph,"5301 N Belt Hwy, Ste 111",Saint Joseph,Missouri,64506,mo.saintjoseph@crumbl.com,(816) 646-2612,39.81423147,-94.81358889,MO,Crumbl,2024-11-01
salem,Salem,717 Lancaster Dr NE,Salem,Oregon,97301,salem@crumbl.com,(503) 877-1502,44.94014739732843,-122.98368377324438,OR,Crumbl,2024-11-01
nhsalem,Salem,"55 Central St, Unit D",Salem,New Hampshire,03079,nh.salem@crumbl.com,603) 681-6522,42.7767427,-71.2318651,NH,Crumbl,2024-11-01
casalinas,Salinas,1528 N Main St ,Salinas,California,93906,ca.salinas@crumbl.com,(831) 769-6333,36.7071353,-121.655446,CA,Crumbl,2024-11-01
saltlake,Salt Lake City,675 E 2100 S ,Salt Lake City,Utah,84106,ut.saltlake@crumbl.com,(385) 501-1777,40.725337,-111.872066,UT,Crumbl,2024-11-01
sanangelo,San Angelo,5651 Sherwood Way,San Angelo,Texas,76904,sanangelo@crumbl.com,(325) 939-8261,31.427340,-100.511600,TX,Crumbl,2024-11-01
banderapointe,San Antonio,"11619 Bandera Rd, Ste 103",San Antonio,Texas,78250,sanantonio@crumbl.com,(210) 741-6193,29.5494886,-98.666191,TX,Crumbl,2024-11-01
sanclemente,San Clemente,410 Camino De Estrella,San Clemente,California,92672,sanclemente@crumbl.com,949-234-7797,33.456007,-117.657071,CA,Crumbl,2024-11-01
flsanmarco,San Marco,"2039 Hendricks Ave, Ste 214",Jacksonville,Florida,32207,fl.sanmarco@crumbl.com,(904) 663-4333,30.304310,-81.652700,FL,Crumbl,2024-11-01
casanmarcos,San Marcos,"751 Center Dr, Ste 103",San Marcos,California,92069,ca.sanmarcos@crumbl.com,(442) 286-0700,33.1354962,-117.1216502,CA,Crumbl,2024-11-01
sanramon,San Ramon,152 Sunset Dr,San Ramon,California,94583,ca.sanramon@crumbl.com,(925) 361-2104,37.763200,-121.961070,CA,Crumbl,2024-11-01
flsandlake,Sand Lake,"7800 Dr Phillips Blvd, Ste 200",Orlando,Florida,32819,fl.sandlake@crumbl.com,(407) 487-8824,28.450520,-81.489100,FL,Crumbl,2024-11-01
gasandfly,Sandfly,"1932 E Montgomery Cross Rd, Ste 100",Savannah,Georgia,31406,ga.sandfly@crumbl.com,(912) 581-2669,31.990516,-81.0800886,GA,Crumbl,2024-11-01
ohsandusky,Sandusky,"4917 Milan Rd, Ste 9",Sandusky,Ohio,44870,oh.sandusky@crumbl.com,(567) 283-7030 ,41.4084897,-82.6674529,OH,Crumbl,2024-11-01
gasandysprings,Sandy Springs,5948 Roswell Rd,Sandy Springs,Georgia,30328,ga.sandysprings@crumbl.com,(470) 531-4077,33.9179619,-84.3837758,GA,Crumbl,2024-11-01
casantaclarita,Santa Clarita,19137 Golden Valley Rd,Santa Clarita,California,91387,ca.santaclarita@crumbl.com,(661) 299-7174,34.4054954,-118.5002278,CA,Crumbl,2024-11-01
casantamaria,Santa Maria,449 E Betteravia Rd,Santa Maria,California,93454,ca.santamaria@crumbl.com,(805) 293-7272  ,34.9238377,-120.4285312,CA,Crumbl,2024-11-01
santarosa,Santa Rosa,2154 Santa Rosa Ave,Santa Rosa,California,95407,santarosa@crumbl.com,(707) 324-1781,38.417190,-122.713490,CA,Crumbl,2024-11-01
santee,Santee,"9862 Mission Gorge Rd, Ste B",Santee,California,92071,ca.santee@crumbl.com,(619) 728-4625,32.8411822,-116.9822514,CA,Crumbl,2024-11-01
flsarasotautc,Sarasota UTC,"215 N Cattleman Rd, Unit 56",Sarasota ,Florida,34243,fl.sarasotautc@crumbl.com,(941) 210-0533,27.3853134,-82.45687,FL,Crumbl,2024-11-01
saratoga,Saratoga,"24 W Pioneer Crossing, Suite 110",Saratoga Springs,Utah,84045,saratoga@crumbl.com,(801) 823-1630,40.3732175,-111.9171963,UT,Crumbl,2024-11-01
casaratoga,Saratoga,1350 El Paseo de Saratoga,San Jose,California,95130,ca.saratoga@crumbl.com,(669) 200-0456,37.290374,-121.9922403,CA,Crumbl,2024-11-01
masaugus,Saugus,"358 Broadway, Unit N",Saugus,Massachusetts,01906,ma.saugus@crumbl.com,(339) 210-5052,42.48354952076915,-71.01754863756935,MA,Crumbl,2024-11-01
schaumburg,Schaumburg,106 E Golf Rd,Schaumburg,Illinois,60173,schaumburg@crumbl.com,(224) 377-0925,42.05030650687853,-88.0767762880486,IL,Crumbl,2024-11-01
scottsdale,Scottsdale,"7300 N V铆a Paseo Del Sur, Ste 106",Scottsdale,Arizona,85258,scottsdale@crumbl.com,(602) 675-9550,33.5434456,-111.9068364,AZ,Crumbl,2024-11-01
flseminole,Seminole,"11167 Park Blvd, Ste E",Seminole,Florida,33772,fl.seminole@crumbl.com,727) 371-8758,27.841368,-82.7968297,FL,Crumbl,2024-11-01
wisheboygan,Sheboygan,4065 WI State Hwy 28,Kohler,Wisconsin,53044,wi.sheboygan@crumbl.com,(920) 234-5042	,43.715057466717035,-87.76662190170006,WI,Crumbl,2024-11-01
ctshelton,Shelton,785 Bridgeport Ave,Shelton,Connecticut,06484,ct.shelton@crumbl.com,(203) 204-8403,41.272617499746126,-73.12795209305797,CT,Crumbl,2024-11-01
txsherman,Sherman,"4114 N Hwy 75, Ste 300",Sherman,Texas,75090,tx.sherman@crumbl.com,(903) 375-9990,33.682078,-96.609279,TX,Crumbl,2024-11-01
orsherwood,Sherwood,"21260 SW Langer Farms Pkwy, Ste 110",Sherwood,Oregon,97140,orsherwood@crumbl.com,(971) 979-0001,45.366705,-122.835791,OR,Crumbl,2024-11-01
ilshiloh,Shiloh,3760 Green Mount Crossing Dr,Shiloh,Illinois,62269,il.shiloh@crumbl.com,(217) 385-3221,38.571417352815395,-89.92518262345811,IL,Crumbl,2024-11-01
casierralakes,Sierra Lakes,"16918 S Highland Ave, Ste 200",Fontana,California,92336,ca.sierralakes@crumbl.com,(909) 317-0283,34.1339500,-117.4357172,CA,Crumbl,2024-11-01
signalbutte,Signal Butte,"1804 S Signal Butte Rd, Ste 103",Mesa,Arizona,85209,signalbutte@crumbl.com,(602) 661 2799,33.3822423,-111.6003494,AZ,Crumbl,2024-11-01
wasilverdale,Silverdale,11199 Pacific Crest Place Suite E110,Silverdale,Washington,98383,wa.silverdale@crumbl.com,(360) 340-9336,47.6636137,-122.6986636,WA,Crumbl,2024-11-01
scsimpsonville,Simpsonville,"702 Fairview Rd, Ste 103",Simpsonville,South Carolina,29680,sc.simpsonville@crumbl.com,864) 881-2684,34.7033153,-82.2620886,SC,Crumbl,2024-11-01
iasiouxcity,Sioux City,5822 Sunnybrook Dr,Sioux City,Iowa,51106,ia.siouxcity@crumbl.com,+1 712-823-9702,42.4473704,-96.3332036,IA,Crumbl,2024-11-01
ncsixforksstation,Six Forks,8815 Six Forks Rd ,Raleigh,North Carolina,27615,nc.sixforksstation@crumbl.com,(919) 561-5160,35.8993035,-78.6545413,NC,Crumbl,2024-11-01
ilskokie,Skokie,9418 Skokie Blvd,Skokie,Illinois,60077,il.skokie@crumbl.com,(224) 341-5310,42.0526557,-87.7478203,IL,Crumbl,2024-11-01
laslidell,Slidell,"106 Gause Blvd, Ste E",Slidell,Louisiana,70460,la.slidell@crumbl.com,(985) 248-8558,30.28853,-89.78028,LA,Crumbl,2024-11-01
rismithfield,Smithfield,371 Putnam Pike,Smithfield,Rhode Island,02917,ri.smithfield@crumbl.com,(401) 249-6002,41.870706175860896,-71.52125983439882999999,RI,Crumbl,2024-11-01
tnsmyrna,Smyrna,"817 Industrial Blvd, Ste 900",Smyrna,Tennessee,37167,tn.smyrna@crumbl.com,(615) 625-2447,35.9811382,-86.5704939,TN,Crumbl,2024-11-01
gasnellville,Snellville,"1905 Scenic Hwy S, Ste 330 ",Snellville,Georgia,30078,ga.snellville@crumbl.com,(470) 563-9995	,33.8776292,-84.0145071,GA,Crumbl,2024-11-01
ohsolon,Solon,34330 Aurora Rd,Solon ,Ohio,44139,oh.solon@crumbl.com,(440) 589-4284,41.38360871250861,-81.43536084473388,OH,Crumbl,2024-11-01
insouthbend,South Bend,"1290 E Ireland Rd, Ste Z200",South Bend,Indiana,46614,in.southbend@crumbl.com,(574) 318-7300,41.628975,-86.230231,IN,Crumbl,2024-11-01
mosouthcounty,South County,"12404 Tesson Ferry, Ste 2",St. Louis ,Missouri,63128,mo.southcounty@crumbl.com,(314) 347-0402,38.509465,-90.3739015,MO,Crumbl,2024-11-01
ilsouthelgin,South Elgin,315 Randall Rd,South Elgin,Illinois,60177,il.southelgin@crumbl.com,(224) 276-6668,41.9881008,-88.3389006,IL,Crumbl,2024-11-01
oksouthmemorial,South Memorial,"7890 E 106th Place S, Ste V-6",Tulsa,Oklahoma,74133,ok.southmemorial@crumbl.com,(539) 842-0969,36.008875,-95.8881831,OK,Crumbl,2024-11-01
southmountain,South Mountain,"2160 E Baseline Rd, Ste 124",Phoenix,Arizona,85042,az.southmountain@crumbl.com,(623) 289-2660,33.3793288,-112.0330589,AZ,Crumbl,2024-11-01
txsouthrim,South Rim,5311 N Loop 1604 W,San Antonio,Texas,78249,tx.southrim@crumbl.com,(726) 202-2147,29.5920776,-98.5909623,TX,Crumbl,2024-11-01
orsouthsalem,South Salem,"2520 Kuebler Blvd SE, Ste 150",Salem,Oregon,97306,or.southsalem@crumbl.com,(503) 610-3969,44.8841451,-123.0115076,OR,Crumbl,2024-11-01
flsouthsarasota,South Sarasota,4942 S Tamiami Trail,Sarasota,Florida,34231,fl.southsarasota@crumbl.com,(941) 259-6673,27.28153,-82.53205,FL,Crumbl,2024-11-01
nysouthshorecommons,South Shore Commons,2955 Veterans Rd W,Staten Island,New York,10309,ny.southshorecommons@crumbl.com,(718) 313-5420,40.5273545,-74.23255999999999,NY,Crumbl,2024-11-01
nvsouthstrip,South Strip,"7390 S Las Vegas Blvd, Ste 115",Las Vegas,Nevada,89123,nv.southstrip@crumbl.com,(702) 660-0233,36.0553712,-115.1715467,NV,Crumbl,2024-11-01
flsouthtampa,South Tampa,1902A S Dale Mabry Hwy,Tampa,Florida,33629,fl.southtampa@crumbl.com,(813) 586-2211,27.927390,-82.505420,FL,Crumbl,2024-11-01
idsoutheastboise,Southeast Boise,3629 S Federal Way,Boise,Idaho,83705,id.southeastboise@crumbl.com,(208) 992-3122,43.5687077731406,-116.184314659194,ID,Crumbl,2024-11-01
southlake,Southlake,1516 E Southlake Blvd,Southlake,Texas,76092,southlake@crumbl.com,(817) 601-8162,32.941079,-97.128708,TX,Crumbl,2024-11-01
southparkmeadows,Southpark Meadows,"9600 S IH-35, Ste 31",Austin,Texas,78748,southparkmeadows@crumbl.com,(512) 649-4555,30.1607196,-97.7924013,TX,Crumbl,2024-11-01
ncsouthpoint,Southpoint,"8128 Renaissance Pkwy, Ste 113",Durham,North Carolina,27713,nc.southpoint@crumbl.com,(984) 666-1671,35.9033212,-78.9551075,NC,Crumbl,2024-11-01
insouthport,Southport,6905 S Emerson Ave,Indianapolis,Indiana,46237,in.southport@crumbl.com,(463) 274-5595,39.667582908923684,-86.081830992999,IN,Crumbl,2024-11-01
spanishfork,Spanish Fork,330 N Main St,Spanish Fork,Utah,84660,ut.spanishfork@crumbl.com,(385) 448-1137,40.1141765,-111.6566438,UT,Crumbl,2024-11-01
nvsparks,Sparks,"4731 Galleria Pkwy, Ste 109",Sparks,Nevada,89436,nv.sparks@crumbl.com,(775) 432-0721,39.5771275,-119.7428359,NV,Crumbl,2024-11-01
scspartanburg,Spartanburg,"117 E Blackstock Rd, Ste C",Spartanburg,South Carolina,29301,sc.spartanburg@crumbl.com,(864) 485-9339,34.9343675,-81.991334,SC,Crumbl,2024-11-01
alspringhill,Spring Hill,"4356-A Old Shell Rd, Unit 14",Mobile,Alabama,36608,al.springhill@crumbl.com,(251) 298-8599,30.699133,-88.14268179999999,AL,Crumbl,2024-11-01
tnspringhill,Spring Hill,2051 Wall St,Spring Hill,Tennessee,37174,tn.springhill@crumbl.com,(931) 674-1199,35.7721147,-86.9154508,TN,Crumbl,2024-11-01
flspringhill,Spring Hill,7069 Coastal Blvd,Brooksville,Florida,34613,fl.springhill@crumbl.com,(352) 600-4044,28.5351707,-82.505112,FL,Crumbl,2024-11-01
txspring,Spring,"20530 N I-45, Ste C",Spring ,Texas,77373,tx.spring@crumbl.com,(346) 298-0326,30.0637917,-95.4331112,TX,Crumbl,2024-11-01
ilspringfield,Springfield,"3429 Freedom Dr, Ste A",Springfield,Illinois,62704,il.springfield@crumbl.com,(217) 718-6391,39.75172790364256,-89.70829780057014,IL,Crumbl,2024-11-01
springville,Springville,1129 W 400 S,Springville,Utah,84663,ut.springville@crumbl.com,(385) 327-0308,40.16103443202349,-111.63015372173646,UT,Crumbl,2024-11-01
kystmatthews,St Matthews,"291 N Hubbards Ln, Ste 140",Louisville,Kentucky,40207,ky.stmatthews@crumbl.com,(502) 493-6676,38.2580388,-85.6377766,KY,Crumbl,2024-11-01
mostcharles,St. Charles,1997 Zumbehl Rd,Saint Charles,Missouri,63303,mo.stcharles@crumbl.com,(636) 206-4694,38.7818929381898,-90.53368778204369,MO,Crumbl,2024-11-01
mnstcloud,St. Cloud,"3959 2nd St, Ste 204",St. Cloud,Minnesota,56301,mn.stcloud@crumbl.com,(320) 316-0577,45.5515052,-94.2077162,MN,Crumbl,2024-11-01
utstgeorge,St. George,1333 Auto Mall Dr Ste 307,St. George,Utah,84790,stgeorgebluff@crumbl.com,(435) 272-4238,37.081390,-113.588210,UT,Crumbl,2024-11-01
mnstlouispark,St. Louis Park,"5330 Cedar Lake Rd, Ste 500",St. Louis Park,Minnesota,55416,mn.stlouispark@crumbl.com,(612) 504-8687,44.9629466,-93.3501,MN,Crumbl,2024-11-01
vastafford,Stafford,1495 Stafford Marketplace #121,Stafford,Virginia,22556,va.stafford@crumbl.com,(540) 242-1969,38.4703162,-77.4112159,VA,Crumbl,2024-11-01
ctstamford,Stamford,1131 High Ridge Rd,Stamford,Connecticut,06905,ct.stamford@crumbl.com,(475) 477-9499,41.1088242,-73.5466612,CT,Crumbl,2024-11-01
pastatecollege,State College,19 Colonnade Way,State College ,Pennsylvania,16803,pa.statecollege@crumbl.com,(814) 826-3699,40.810370,-77.905780,PA,Crumbl,2024-11-01
gastatesboro,Statesboro,"113 Tormenta Way, Ste 205",Statesboro,Georgia,30458,ga.southern@crumbl.com,(912) 225-4445,32.41158,-81.79488,GA,Crumbl,2024-11-01
ncsteelecreek,Steele Creek,"13551 Steelecroft Pkwy, Ste 120",Charlotte,North Carolina,28278,nc.steelecreek@crumbl.com,(803) 619-0191,35.102136,-80.9924462,NC,Crumbl,2024-11-01
misterlingheights,Sterling Heights,14844 Hall Rd,Sterling Heights,Michigan,48313,mi.sterlingheights@crumbl.com,(586) 580-1270,42.626612,-82.977562,MI,Crumbl,2024-11-01
castockton,Stockton,864 W Benjamin Holt Dr,Stockton,California,95207,ca.stockton@crumbl.com,209) 337-3337,38.01034394781714,-121.32194966009715,CA,Crumbl,2024-11-01
txstoneoak,Stone Oak,"20811 US Hwy 281 N, Ste 420",San Antonio,Texas,78258,tx.stoneoak@crumbl.com,(210) 864-0757,29.6393038,-98.459939,TX,Crumbl,2024-11-01
ohstow,Stow,"4326 Kent Rd, Unit C300",Stow ,Ohio,44224,oh.stow@crumbl.com,(330) 552-8550,41.1561597,-81.4093633,OH,Crumbl,2024-11-01
ohstreetsboro,Streetsboro,1274 SR OH-303,Streetsboro,Ohio,44241,oh.streetsboro@crumbl.com,(330) 299-8299,41.2374607,-81.3501871,OH,Crumbl,2024-11-01
ohstrongsville,Strongsville,16734 Royalton Rd,Strongsville,Ohio,44136,oh.strongsville@crumbl.com,(440) 638-1350,41.31445,-81.81729,OH,Crumbl,2024-11-01
flstuart,Stuart,2535 NW Federal Hwy,Stuart,Florida,34994,fl.stuart@crumbl.com,(772) 261-0222,27.236059,-80.268600,FL,Crumbl,2024-11-01
txsugarland,Sugar Land,2735-E Town Center Blvd N,Sugar Land,Texas,77479,tx.sugarland@crumbl.com,(346) 767-0369,29.593310,-95.622120,TX,Crumbl,2024-11-01
ohsugarcreek,Sugarcreek,4457 Feedwire Rd,Centerville,Ohio,45440,oh.sugarcreek@crumbl.com,(937) 907-6569,39.659615823007435,-84.1070994427904,OH,Crumbl,2024-11-01
summerville,Summerville,214 Azalea Square Blvd,Summerville,South Carolina,29483,summerville@crumbl.com,(843) 900-0622,33.038160,-80.157270,SC,Crumbl,2024-11-01
sunprairie,Sun Prairie,"2808 Prairie Lakes Dr., Bldg E, Ste. 102",Sun Prairie,Wisconsin,53590,sunprairie@crumbl.com,(608) 912-0015,43.167860,-89.270070,WI,Crumbl,2024-11-01
casunnyside,Sunnyside,"570 S Clovis Ave, Ste 102",Fresno,California,93727,ca.sunnyside@crumbl.com,(559) 475-8800,36.7370012,-119.7006198,CA,Crumbl,2024-11-01
flsunrise,Sunrise,12584 W Sunrise Blvd,Sunrise,Florida,33323,fl.sunrise@crumbl.com,(954) 800-8508,26.1441400,-80.3176214,FL,Crumbl,2024-11-01
txsunsetvalley,Sunset Valley,"5207 Brodie Ln, Ste 110",Austin,Texas,78745,tx.sunsetvalley@crumbl.com,(512) 649-4488,30.2306535,-97.8149562,TX,Crumbl,2024-11-01
flsunshinesquare,Sunshine Square,546 E Woolbright Rd,Boynton Beach,Florida,33435,fl.sunshinesquare@crumbl.com,(561) 536-7310,26.513504,-80.0611669,FL,Crumbl,2024-11-01
superior,Superior,302 Center Dr,Superior,Colorado,80027,superior@crumbl.com,(720) 727-0199,39.956437,-105.174179,CO,Crumbl,2024-11-01
surprise,Surprise,"13983 W Waddell Rd, Ste 100",Surprise,Arizona,85379,surprise@crumbl.com,(623) 246-1774,33.6086019,-112.3612285,AZ,Crumbl,2024-11-01
ohsylvania,Sylvania,"6710 W Central Ave, Ste 15",Toledo,Ohio,43617,oh.sylvania@crumbl.com,(567) 408-2899,41.675770,-83.704970,OH,Crumbl,2024-11-01
watacomacentral,Tacoma Central,3304 S. 23rd Street Suite 1 ,Tacoma,Washington,98405,wa.tacomacentral@crumbl.com,(253) 366-6424,47.2377506,-122.48263,WA,Crumbl,2024-11-01
nctallywood,Tallywood,"3114 Raeford Rd, Ste 240",Fayetteville,North Carolina,28303,nc.tallywood@crumbl.com,(910) 635-3999,35.0464627,-78.9331604,NC,Crumbl,2024-11-01
tanasbourne,Tanasbourne,2251 NW 185th Ave,Hillsboro,Oregon,97124,or.tanasbourne@crumbl.com,(971) 220-8199,45.536549,-122.869183,OR,Crumbl,2024-11-01
tatum,Tatum,"4747 E Bell Rd, Ste 9",Phoenix,Arizona,85032,az.tatum@crumbl.com,(602) 607-0937,33.6399565,-111.978311,AZ,Crumbl,2024-11-01
tegacay,Tegacay,"2435 Hwy 160, Ste 108",Fort Mill,South Carolina,29708,tegacay@crumbl.com,(803) 402-4626,35.046480,-80.991592,SC,Crumbl,2024-11-01
tehamaridge,Tehama Ridge Parkway,9017 Tehama Ridge,Fort Worth,Texas,76177,tx.tehama@crumbl.com,(682) 514-9970,32.905010,-97.323430,TX,Crumbl,2024-11-01
catemecula,Temecula,"31867 Rancho California Rd, Ste E-300",Temecula ,California,92591,ca.temecula@crumbl.com,(951) 297-7322,33.5134042,-117.1026244,CA,Crumbl,2024-11-01
tempe,Tempe,"430 N Scottsdale Rd, Ste 112",Tempe,Arizona,85281,tempe@crumbl.com,(602) 726-4553,33.4342654,-111.9275498,AZ,Crumbl,2024-11-01
txtemple,Temple,6768 W Adams Ave,Temple,Texas,76502,tx.temple@crumbl.com,(254) 677-7474,31.1167934,-97.4139581,TX,Crumbl,2024-11-01
caterranova,Terra Nova,"374 E H St, Ste 1702",Chula Vista,California,91910,ca.terranova@crumbl.com,(619) 737-2981,32.6394964,-117.0519249,CA,Crumbl,2024-11-01
txtexaslive,Texas Live,"2100 N Collins St, Ste 110",Arlington,Texas,76011,tx.texaslive@crumbl.com,(210) 268-0436,32.767461,-97.0977116,TX,Crumbl,2024-11-01
txtheforum,The Forum,"8380 Agora Pkwy, Ste 140",Selma,Texas,78154,tx.theforum@crumbl.com,(830) 420-6099,29.575760,-98.320690,TX,Crumbl,2024-11-01
azthelandings,The Landings,"4850 S Landing Way, Ste 170",Tucson,Arizona,85714,az.thelandings@crumbl.com,(520) 485-7254,32.165148,-110.988841,AZ,Crumbl,2024-11-01
thornton,Thornton,14332 Lincoln St,Thornton,Colorado,80023,thornton@crumbl.com,(720) 791-6977,39.955594,-104.986835,CO,Crumbl,2024-11-01
motiffanysprings,Tiffany Springs,9008 NW Skyview Ave,Kansas City,Missouri,64154,mo.tiffanysprings@crumbl.com,(816) 873-5657,39.2585306,-94.6532412,MO,Crumbl,2024-11-01
aktikahtnucommons,Tikahtnu Commons,"1118 N Muldoon Road, Unit 145",Anchorage,Alaska,99504,ak.tikahtnucommons@crumbl.com,(907) 600-8611,61.227523,-149.74274,AK,Crumbl,2024-11-01
iltinleypark,Tinley Park,15943A S Harlem Ave,Tinley Park,Illinois,60477,il.tinleypark@crumbl.com,(708) 407-9446,41.6002662,-87.7929754,IL,Crumbl,2024-11-01
gatocohills,Toco Hills,"2949 N Druid Hills Rd, Ste 260",Atlanta,Georgia,30329,ga.tocohills@crumbl.com,(404) 369-3069,33.8150218,-84.3103422,GA,Crumbl,2024-11-01
tooele,Tooele,1351 N Main St,Tooele,Utah,84074,ut.tooele@crumbl.com,(435) 728-2025,40.557378,-112.2997695,UT,Crumbl,2024-11-01
kstopeka,Topeka,"2130 SW Wanamaker Rd, Ste 160",Topeka,Kansas,66614,ks.topeka@crumbl.com,(785) 274-9944,39.0274268,-95.7605382,KS,Crumbl,2024-11-01
catorrancecrossroads,Torrance Crossroads,"24667 Crenshaw Blvd, Unit E & F",Torrance,California,90505,ca.torrancecrossroads@crumbl.com,(424) 250-2991,33.8027914,-118.3298524,CA,Crumbl,2024-11-01
townelake,Towne Lake,"9915 Barker Cypress Rd, Suite 155",Cypress,Texas,77433,townelake@crumbl.com,(346) 278-2112,29.922427,-95.688558,TX,Crumbl,2024-11-01
mdtowson,Towson,28 W Ridgely Rd,Timonium,Maryland,21093,md.towson@crumbl.com,(443) 846-0222,39.4306693,-76.6239183,MD,Crumbl,2024-11-01
catracy,Tracy,2467 Naglee Rd ,Tracy,California,95304,ca.tracy@crumbl.com,(209) 229-2083,37.75742881247793,-121.46608511238274,CA,Crumbl,2024-11-01
patrainersstation,Trainer's Station,42 N West End Blvd,Quakertown,Pennsylvania,18951,pa.trainersstation@crumbl.com,(267) 379-8211,40.4447322,-75.3596666,PA,Crumbl,2024-11-01
fltrinity,Trinity,3140 Little Rd,New Port Richey,Florida,34655,fl.trinity@crumbl.com,(727) 810-3850,28.20493,-82.66364,FL,Crumbl,2024-11-01
ohtroy,Troy,1849B W Main St,Troy,Ohio,45373,oh.troy@crumbl.com,(937) 552-5295,40.0567536,-84.2382358,OH,Crumbl,2024-11-01
altrussville,Trussville,"5431 Patrick Way, Ste 105",Trussville,Alabama,35235,al.trussville@crumbl.com,(205) 273-0909,33.6091703471497,-86.6259804320444,AL,Crumbl,2024-11-01
catulare,Tulare,2035 E Prosperity Ave,Tulare,California,93274,ca.tulare@crumbl.com,(559) 607-0005,36.225830,-119.315380,CA,Crumbl,2024-11-01
oktulsahills,Tulsa Hills,7458 S Olympia Ave,Tulsa,Oklahoma,74132,ok.tulsahills@crumbl.com,(918) 417-6906,36.0563196,-96.0037913,OK,Crumbl,2024-11-01
mstupelo,Tupelo,"837 Kings Crossing Dr, Ste 6",Tupelo,Mississippi,38804,ms.tupelo@crumbl.com,(662) 205-5766,34.31151791151048,-88.70626102059049,MS,Crumbl,2024-11-01
tnturkeycreek,Turkey Creek,11055 Parkside Dr,Knoxville,Tennessee,37934,tn.turkeycreek@crumbl.com,(865) 896-3435,35.902810,-84.151310,TN,Crumbl,2024-11-01
turlock,Turlock,"2745 Countryside Dr, Ste A",Turlock,California,95380,turlock@crumbl.com,(209) 336-6449,37.5162871,-120.8794035,CA,Crumbl,2024-11-01
njturnersville,Turnersville,"3501 NJ-42, Unit 190",Turnersville,New Jersey,08012,nj.turnersville@crumbl.com,(856) 210-8584,39.72713159341406,-75.03414234457408,NJ,Crumbl,2024-11-01
twinfalls,Twin Falls,"799 Cheney Dr, Unit 30C",Twin Falls,Idaho,83301,twinfalls@crumbl.com,(208) 329-5800,42.5889035,-114.4619136,ID,Crumbl,2024-11-01
tyler,Tyler,"8982 S Broadway Ave, Suite 110",Tyler,Texas,75703,tyler@crumbl.com,(430) 201-6110,32.2497978,-95.3077592,TX,Crumbl,2024-11-01
unlv,UNLV,"4700 Maryland Pkwy, Ste 135",Las Vegas,Nevada,89119,nv.unlv@crumbl.com,(702) 323-8005,36.103960,-115.136230,NV,Crumbl,2024-11-01
flusf,USF,8795 N 56th St,Temple Terrace,Florida,33617,fl.usf@crumbl.com,(813) 283-4513,28.0287933,-82.3943515,FL,Crumbl,2024-11-01
caunioncity,Union City,31047 Courthouse Dr,Union City,California,94587,ca.unioncity@crumbl.com,(510) 470-7677,37.602900,-122.067710,CA,Crumbl,2024-11-01
njunion,Union,"1235 W Chestnut St, Unit 5C",Union ,New Jersey,07083,nj.union@crumbl.com,(908) 481-9966,40.6922305,-74.2896708,NJ,Crumbl,2024-11-01
ncuniversitycommons,University Commons,"3040 S Evans St, Ste 101C",Greenville,North Carolina,27834,nc.universitycommons@crumbl.com,(252) 597-9336,35.5771287,-77.3842447,NC,Crumbl,2024-11-01
upland,Upland,"1071 E 19th St, Ste B",Upland,California,91784,upland@crumbl.com,(909) 493-5109,34.1323319,-117.6361795,CA,Crumbl,2024-11-01
nyuppereastside,Upper East Side,1195 3rd Ave,New York,New York,10021,ny.uppereastside@crumbl.com,(332) 282-5959,40.76808763883522,-73.96170024937614,NY,Crumbl,2024-11-01
nyupperwestside,Upper West Side,301 Columbus Ave,New York ,New York,10023,ny.upperwestside@crumbl.com,(332) 236-9577,40.77878509046969,-73.97742875963777,NY,Crumbl,2024-11-01
cavacaville,Vacaville,"2000 Harbison Dr, Ste C",Vacaville,California,95687,ca.vacaville@crumbl.com,(707) 359-7027,38.363180,-121.964120,CA,Crumbl,2024-11-01
cavalencia,Valencia,27021 McBean Pkwy,Valencia,California,91355,cavalencia@crumbl.com,(661) 383-0454,34.4211846,-118.5673735,CA,Crumbl,2024-11-01
cavallejo,Vallejo,764 Admiral Callaghan Ln,Vallejo,California,94591,ca.vallejo@crumbl.com,(707) 563-9909,38.1251585,-122.2281519,CA,Crumbl,2024-11-01
invalparaiso,Valparaiso,"2310 Laporte Ave, Ste 800",Valparaiso,Indiana,46383,in.valparaiso@crumbl.com,(219) 386-2555,41.467240,-87.032400,IN,Crumbl,2024-11-01
vancouver,Vancouver,616 NE 81st St E,Vancouver,Washington,98665,vancouver@crumbl.com,(360) 859-0811,45.6809747,-122.6655135,WA,Crumbl,2024-11-01
caventura,Ventura,"1708 S Victoria Ave, Ste C",Ventura,California,93003,ca.ventura@crumbl.com,(805) 666-2233,34.2596737,-119.2128808,CA,Crumbl,2024-11-01
ilvernonhills,Vernon Hills,"875 N Milwaukee Ave, Ste 500",Vernon Hills,Illinois,60061,il.vernonhills@crumbl.com,(217) 296-2652,42.24184690000001,-87.9442792,IL,Crumbl,2024-11-01
flverobeach,Vero Beach,"500 21st St, Ste 2",Vero Beach,Florida,32960,fl.verobeach@crumbl.com,(772) 253-2442,27.640870,-80.383690,FL,Crumbl,2024-11-01
vestaviahills,Vestavia Hills,"708 Montgomery Hwy, Ste 116",Vestavia Hills,Alabama,35216,vestaviahills@crumbl.com,(205) 379-0293,33.4469216,-86.79153480000001,AL,Crumbl,2024-11-01
nyvictor,Victor,"407 Commerce Dr, Ste 500",Victor,New York,14564,ny.victor@crumbl.com,(585) 433-5659,43.0194669488479,-77.43760072443987,NY,Crumbl,2024-11-01
txvictoria,Victoria,"8806 N Navarro St, Suite 100",Victoria,Texas,77904,tx.victoria@crumbl.com,361) 579-2599,28.876844,-96.996603,TX,Crumbl,2024-11-01
vienna,Vienna,203 Maple Ave E,Vienna,Virginia,22180,va.vienna@crumbl.com,(571) 295-4264,38.903330,-77.262300,VA,Crumbl,2024-11-01
vineland,Vineland,11561 Regency Village Dr,Orlando,Florida,32821,fl.vineland@crumbl.com,(321) 401-6160,28.3940655,-81.4865842,FL,Crumbl,2024-11-01
vavirginiabeach,Virginia Beach,737 First Colonial Road Suite 214,Virginia Beach,Virginia,23451,va.virginiabeach@crumbl.com,757) 916-5700,36.851601,-76.0271452,VA,Crumbl,2024-11-01
visalia,Visalia,3839 S Mooney Blvd ,Visalia,California,93277,visalia@crumbl.com,(559) 429-5958,36.295670,-119.313980,CA,Crumbl,2024-11-01
waco,Waco,2444 W Loop 340 #A15,Waco,Texas,76711,waco@crumbl.com,(254) 265-7278,31.497904,-97.157886,TX,Crumbl,2024-11-01
wakeforest,Wake Forest,"2815 Rogers Rd, Ste 101",Wake Forest,North Carolina,27587,ncwakeforest@crumbl.com,(919) 263-0584,35.953326,-78.5247327,NC,Crumbl,2024-11-01
mdwaldorf,Waldorf,"3728 Crain Hwy, Ste 102",Waldorf,Maryland,20603,md.waldorf@crumbl.com,(240) 785-0566,38.6100787,-76.9291911,MD,Crumbl,2024-11-01
cawalnutcreek,Walnut Creek,1970-C Tice Valley Blvd ,Walnut Creek,California,94595,ca.walnutcreek@crumbl.com,(925) 476-4443,37.877140,-122.072870,CA,Crumbl,2024-11-01
mawaltham,Waltham,"1077 Lexington St, Unit 1",Waltham,Massachusetts,02452,ma.waltham@crumbl.com,(781) 226-1699,42.411940,-71.232970,MA,Crumbl,2024-11-01
mowardparkway,Ward Parkway,"8600 Ward Pkwy, Ste 1018",Kansas City,Missouri,64114,mo.wardparkway@crumbl.com,(816) 301-4930,38.9712015,-94.60610895,MO,Crumbl,2024-11-01
mawareham,Wareham,"1 Tobey Rd, Unit C-2",Wareham,Massachusetts,02571,ma.wareham@crumbl.com,(774) 667-0050,41.78171,-70.74476,MA,Crumbl,2024-11-01
gawarnerrobins,Warner Robins,"2907 Watson Blvd, Ste C-1", Warner Robins,Georgia,31093,ga.warnerrobins@crumbl.com,(478) 217-2922,32.61659382440234,-83.68320318104274,GA,Crumbl,2024-11-01
pawarrington,Warrington,211 Easton Rd,Warrington,Pennsylvania,18976,pa.warrington@crumbl.com,(267) 328-4931,40.216730,-75.139570,PA,Crumbl,2024-11-01
cowashingtonplaza,Washington Plaza,9770 Washington St,Thornton,Colorado,80229,co.washingtonplaza@crumbl.com,tel:7208534288,39.87434761546168,-104.97715501372751,CO,Crumbl,2024-11-01
ohwashingtontownship,Washington Township,1530 Miamisburg Centerville Rd,Washington Township,Ohio,45459,oh.washingtontownship@crumbl.com,(937) 350-1365,39.629577,-84.196279,OH,Crumbl,2024-11-01
pawashington,Washington,94 Trinity Point Dr,Washington,Pennsylvania,15301,pa.washington@crumbl.com,(724) 350-8508,40.1847381,-80.2211265,PA,Crumbl,2024-11-01
flwaterfordlakes,Waterford Lakes,455 N Alafaya Trail,Orlando,Florida,32828,fl.waterfordlakes@crumbl.com,(321) 244-4048,28.553370,-81.202880,FL,Crumbl,2024-11-01
miwaterford,Waterford,"4998 Highland Rd, Ste A",Waterford ,Michigan,48328,mi.waterford@crumbl.com,(248) 886-4997,42.6606858,-83.385741,MI,Crumbl,2024-11-01
iawaterloo,Waterloo,1503 Flammang Dr,Waterloo,Iowa,50701,ia.waterloo@crumbl.com,(319) 493-7766 ,42.460316,-92.32659,IA,Crumbl,2024-11-01
waughchapel,Waugh Chapel,"1410 S Main Chapel Way, Ste 116",Gambrills,Maryland,21054,md.waughchapel@crumbl.com,(240) 449-4748,39.0343089,-76.689095,MD,Crumbl,2024-11-01
wiwausau,Wausau,225696 Rib Mountain Drive,Wausau,Wisconsin,54401,wi.wausau@crumbl.com,(715) 680-9898,44.91566599999999,-89.650443,WI,Crumbl,2024-11-01
txwaxahachie,Waxahachie,1620 N Hwy 77 Suite #400,Waxahachie,Texas,75165,tx.waxahachie@crumbl.com,(469) 527-9235,32.4296633,-96.8400942,TX,Crumbl,2024-11-01
pawayne,Wayne,"125 E Swedesford Rd, Unit 297",Wayne ,Pennsylvania,19087,pa.wayne@crumbl.com,(484) 393-2525,40.0737767,-75.433096,PA,Crumbl,2024-11-01
njwayne,Wayne,1271 Hamburg Tpk,Wayne,New Jersey,07470,nj.wayne@crumbl.com,(973) 587-5065,40.9606369,-74.2473224,NJ,Crumbl,2024-11-01
wawenatchee,Wenatchee,1304 N Miller Suite A,Wenatchee,Washington,98801,wa.wenatchee@crumbl.com,(509) 300-4171,47.4403887,-120.3282916,WA,Crumbl,2024-11-01
mowentzville,Wentzville,1768 Wentzville Pkwy,Wentzville,Missouri,63385,mo.wentzville@crumbl.com,(636) 445-5799,38.820090,-90.876443,MO,Crumbl,2024-11-01
txweslaco,Weslaco,915 E Expressway 83 suite 600 ,Weslaco,Texas,78596,tx.weslaco@crumbl.com,(956) 332-1053,26.172079,-97.980057,TX,Crumbl,2024-11-01
vawestalexandria,West Alexandria,3618 King Street,Alexandria,Virginia,22302,va.westalexandria@crumbl.com,(571) 480-6336,38.82817327538535,-77.0909740525147,VA,Crumbl,2024-11-01
nywestbrighton,West Brighton,423 Forest Ave,Staten Island,New York,10301,ny.westbrighton@crumbl.com,(718) 316-4288,40.63100,-74.10346,NY,Crumbl,2024-11-01
inwestcarmel,West Carmel,"9873 N Michigan Rd, Ste 130-B ",Carmel,Indiana,46032,in.westcarmel@crumbl.com,(463) 345-3863,39.93141,-86.23154,IN,Crumbl,2024-11-01
ohwestchester,West Chester,7614 Voice of America Center Dr,West Chester ,Ohio,45069,oh.westchester@crumbl.com,(513) 644-5314,39.3575025,-84.3611233,OH,Crumbl,2024-11-01
westcounty,West County,13335 Manchester Rd,Des Peres,Missouri,63131,mo.westcounty@crumbl.com,(314) 347-1436,38.601200,-90.467070,MO,Crumbl,2024-11-01
iawestdesmoines,West Des Moines,"5585 Mills Civic Pkwy, Ste 140",West Des Moines,Iowa,50266,ia.westdesmoines@crumbl.com,(515) 585-0611,41.559790,-93.784060,IA,Crumbl,2024-11-01
ndwestfargo,West Fargo,"833 24th Ave E, Ste J",West Fargo,North Dakota,58078,nd.westfargo@crumbl.com,(701) 997-3879,46.8416691,-96.8863826,ND,Crumbl,2024-11-01
ctwestfarms,West Farms,1445 New Britain Ave,West Hartford,Connecticut,06110,ct.westfarms@crumbl.com,(860) 470-6699,41.7248536,-72.7604559,CT,Crumbl,2024-11-01
cawesthills,West Hills,"22815 Victory Blvd, Ste B",West Hills ,California,91307,ca.westhills@crumbl.com,(747) 263-0321,34.186796,-118.6264937,CA,Crumbl,2024-11-01
cawesthollywood,West Hollywood,"7100 Santa Monica Blvd, Unit 117",West Hollywood,California,90046,ca.westhollywood@crumbl.com,(323) 372-8188,34.0899901,-118.3442461,CA,Crumbl,2024-11-01
westjordan,West Jordan,"7626 S Campus View Dr, Suite 130",West Jordan,Utah,84084,ut.westjordan@crumbl.com,(385) 434-3777,40.611883,-111.982236,UT,Crumbl,2024-11-01
orwestlinn,West Linn,"21900 Willamette Dr, Ste 206 ",West Linn,Oregon,97068,or.westlinn@crumbl.com,(503) 406-8940,45.367062561995624,-122.61321890061765,OR,Crumbl,2024-11-01
pawestmanchester,West Manchester,814 Town Center Dr,York,Pennsylvania,17408,pa.westmanchester@crumbl.com,(223) 848-6868,39.9700472,-76.7725374,PA,Crumbl,2024-11-01
lawestmonroe,West Monroe,109 Constitution Dr,West Monroe,Louisiana,71292,la.westmonroe@crumbl.com,(318) 350-6599,32.5034012,-92.1603536,LA,Crumbl,2024-11-01
flwestpalmbeach,West Palm Beach,"721 Village Blvd, Ste 107B",West Palm Beach,Florida,33409,fl.westpalmbeach@crumbl.com,(561) 559-2244,26.7135262,-80.1008246,FL,Crumbl,2024-11-01
cawestsacramento,West Sacramento,"2155 Town Center Plaza, Ste E170",West Sacramento ,California,95691,ca.westsacramento@crumbl.com,(279) 895-7142,38.5488365,-121.538204,CA,Crumbl,2024-11-01
mawestspringfield,West Springfield,"935 Riverdale St, Ste A-106",West Springfield,Massachusetts,01089,ma.westspringfield@crumbl.com,(413) 707-5021,42.1283584,-72.6230631,MA,Crumbl,2024-11-01
txwesttowne,West Towne,"6450 Desert Blvd. North, Building E, Suite 103",El Paso,Texas,79912,tx.westtowne@crumbl.com,(915) 642-7023,31.886290,-106.579150,TX,Crumbl,2024-11-01
westvalley,West Valley,3515 W 3500 S,West Valley City,Utah,84119,ut.westvalley@crumbl.com,(385) 388-8325,40.6965175,-111.9771572,UT,Crumbl,2024-11-01
nywestvillage,West Village,195 Bleecker St,New York,New York,10012,ny.westvillage@crumbl.com,646-248-6303,40.729400,-74.001400,NY,Crumbl,2024-11-01
flwestchase,Westchase,10601 Sheldon Rd,Tampa,Florida,33626,fl.westchase@crumbl.com,(727) 626-2653,28.0450136,-82.5845218,FL,Crumbl,2024-11-01
txwestchase,Westchase,11660 Westheimer Rd suite 119,Houston,Texas,77077,tx.westchase@crumbl.com,(281) 994-9690,29.7373492,-95.583472,TX,Crumbl,2024-11-01
ohwesternhills,Western Hills,6173C Glenway Ave,Cincinnati,Ohio,45211,oh.westernhills@crumbl.com,(513) 362-4665,39.143819,-84.622408,OH,Crumbl,2024-11-01
ncwestgate,Westgate,"5 Westgate Pkwy, Ste 130",Asheville,North Carolina,28806,nc.westgate@crumbl.com,Store Phone: (828) 365-6543,35.590800,-82.574948,NC,Crumbl,2024-11-01
cawestlakevillage,Westlake Village,30768 Russell Ranch Rd,Westlake Village,California,91362,ca.westlakevillage@crumbl.com,805) 601-6653,34.1477564,-118.7983647,CA,Crumbl,2024-11-01
flweston,Weston,4448 Weston Rd,Davie,Florida,33331,fl.weston@crumbl.com,(954) 639-9119,26.064750,-80.362210,FL,Crumbl,2024-11-01
txwestovervillage,Westover Village,677 Sherry Lane,Fort Worth,Texas,76114,tx.westovervillage@crumbl.com,(682) 348-5850,32.7496309,-97.4311852,TX,Crumbl,2024-11-01
alwestwoodplaza,Westwood Plaza,"7765 Airport Blvd, Ste 140",Mobile,Alabama,36608,al.westwoodplaza@crumbl.com, (251) 910-3907,30.6831274,-88.2237869,AL,Crumbl,2024-11-01
wvwheeling,Wheeling,410 Cabela Drive,Triadelphia,West Virginia,26059,wv.wheeling@crumbl.com,tel:6812100520,40.060102594827335,-80.60110605782639,WV,Crumbl,2024-11-01
mdwhitemarsh,White Marsh,"5350 Campbell Blvd, Ste D-2",Nottingham,Maryland,21236,md.whitemarsh@crumbl.com,(443) 648-3443,39.3676680,-76.4497573,MD,Crumbl,2024-11-01
nywhiteplains,White Plains,377 N Central Ave,Hartsdale,New York,10530,ny.whiteplains@crumbl.com,(914) 215-7775,41.0301718,-73.7894081,NY,Crumbl,2024-11-01
cawhittier,Whittier,"11836 Whittier Blvd, Unit B",Whittier,California,90601,ca.whittier@crumbl.com,(626) 412-0451,33.980117,-118.0505077,CA,Crumbl,2024-11-01
wichitafalls,Wichita Falls,"3201 Lawrence Rd, Suite 530",Wichita Falls,Texas,76308,wichitafalls@crumbl.com,(940) 249-5943,33.875621,-98.538103,TX,Crumbl,2024-11-01
wichita,Wichita,"2564 N Greenwich Rd, Ste 500",Wichita,Kansas,67226,wichita@crumbl.com,(316) 778 8862,37.7288651,-97.2091276,KS,Crumbl,2024-11-01
ilwickerpark,Wicker Park,1513 N Milwaukee Ave,Chicago,Illinois,60622,il.wickerpark@crumbl.com,(773) 598-6908,41.90923,-87.67519,IL,Crumbl,2024-11-01
vawilliamsburg,Williamsburg,"4680 Monticello Avenue, Unit 16B",Williamsburg,Virginia,23188,va.williamsburg@crumbl.com,(757) 378-6222,37.2722404,-76.7610895,VA,Crumbl,2024-11-01
pawilliamsport,Williamsport,1879 E 3rd St,Williamsport ,Pennsylvania,17701,pa.williamsport@crumbl.com,(570) 666-1120,41.249300,-76.964940,PA,Crumbl,2024-11-01
nywilliamsville,Williamsville,"5205 Transit Rd, Ste 200",Buffalo,New York,14221,ny.williamsville@crumbl.com,716) 257-8555,42.9880504,-78.69628709999999,NY,Crumbl,2024-11-01
vtwilliston,Williston,69 Market St suite 3,Williston,Vermont,05495,vt.williston@crumbl.com,(802) 209-8747,44.44836979999999,-73.107287,VT,Crumbl,2024-11-01
ohwilloughby,Willoughby,"36001 Euclid Ave, Unit 2",Willoughby,Ohio,44094,oh.willoughby@crumbl.com,(440) 306-6869,41.6271722,-81.43207199999999,OH,Crumbl,2024-11-01
wilmington,Wilmington,311 S College Rd,Wilmington,North Carolina,28403,wilmington@crumbl.com,(910) 679-6615,34.236428,-77.871220,NC,Crumbl,2024-11-01
dewilmington,Wilmington,3210 Kirkwood Hwy,Wilmington,Delaware,19808,de.wilmington@crumbl.com,(302) 888-9499,39.73712,-75.62427,DE,Crumbl,2024-11-01
wilsonville,Wilsonville,"8249 SW Wilsonville Rd, Ste B ",Wilsonville,Oregon,97070,wilsonville@crumbl.com,(971) 364-0006,45.303945,-122.761989,OR,Crumbl,2024-11-01
vawinchester,Winchester,139 Market Street,Winchester,Virginia,22603,va.winchester@crumbl.com,(540) 686-1092,39.2197532,-78.1351507,VA,Crumbl,2024-11-01
gawinder,Winder,"916 Loganville Hwy, Ste 360",Bethlehem,Georgia,30620,ga.winder@crumbl.com,(470) 739-7838,33.9433459,-83.7557889,GA,Crumbl,2024-11-01
ncwinstonsalem,Winston-Salem,1039 Hanes Mall Blvd,Winston-Salem,North Carolina,27103,ncwinstonsalem@crumbl.com,(336) 448-4794,36.0658577,-80.3162482,NC,Crumbl,2024-11-01
flwinterpark,Winter Park,"501 N Orlando Ave, Ste 309",Winter Park,Florida,32789,fl.winterpark@crumbl.com,(689) 206-9099,28.604031,-81.365318,FL,Crumbl,2024-11-01
wintersprings,Winter Springs,"1425 Tuskawilla Rd, Unit 263",Winter Springs,Florida,32708,wintersprings@crumbl.com,(407) 674-9997,28.646632,-81.266570,FL,Crumbl,2024-11-01
mawoburn,Woburn,"300 Mishawum Rd, Unit 410",Woburn,Massachusetts,01801,ma.woburn@crumbl.com,(339) 298-7054,42.5042626,-71.134386,MA,Crumbl,2024-11-01
vawoodbridge,Woodbridge,"14900 Potomac Town Place, Suite 115",Woodbridge,Virginia,22191,va.woodbridge@crumbl.com,(571) 513-4243,38.63014039876294,-77.2887031960497,VA,Crumbl,2024-11-01
mnwoodbury,Woodbury,"345 Radio Dr, Ste B",Woodbury,Minnesota,55125,mn.woodbury@crumbl.com,(651) 321-1177,44.943070,-92.933980,MN,Crumbl,2024-11-01
miwoodhaven,Woodhaven,23398 Allen Rd,Woodhaven,Michigan,48183,mi.woodhaven@crumbl.com,(734) 304-0752,42.1376401,-83.22646,MI,Crumbl,2024-11-01
wawoodinville,Woodinville,"13930 NE 178th Pl, Suite 110  WA ",Woodinville,Washington,98072,wa.woodinville@crumbl.com,(425)287-5759,47.75832565158912,-122.153563341812,WA,Crumbl,2024-11-01
cawoodland,Woodland,"2115 Bronze Star Dr, Ste 160",Woodland,California,95776,ca.woodland@crumbl.com,530) 207-0144,38.6702086,-121.724356,CA,Crumbl,2024-11-01
txwoodlands,Woodlands,"9595 Six Pines Dr, Ste 1075",The Woodlands,Texas,77380,tx.woodlands@crumbl.com,(936) 777-6912,30.1639651,-95.4664891,TX,Crumbl,2024-11-01
ilwrigleyville,Wrigleyville,1109 W Addison St,Chicago,Illinois,60613,il.wrigleyville@crumbl.com,(708) 405-8668,41.9470221,-87.65741179999999,IL,Crumbl,2024-11-01
txwylie,Wylie,"809 Woodbridge Parkway, Suite 400",Wylie,Texas,75098,txwylie@crumbl.com,(469) 440-9004,33.009830,-96.573630,TX,Crumbl,2024-11-01
wayakima,Yakima,2412 W Nob Hill BLVD #104,Yakima,Washington,98902,wa.yakima@crumbl.com,(509) 571-9520,46.58502,-120.54279,WA,Crumbl,2024-11-01
txyale,Yale,"174 Yale St, ste 700",Houston,Texas,77007,txyale@crumbl.com,832) 696-0105,29.773657,-95.4004386,TX,Crumbl,2024-11-01
cayorbalinda,Yorba Linda,18349 Imperial Hwy,Yorba Linda,California,92886,ca.yorbalinda@crumbl.com,(657) 234-2462,33.889340,-117.813840,CA,Crumbl,2024-11-01
nyyorktownheights,Yorktown Heights,"3333 Crompond Rd, Ste 2A",Yorktown Heights,New York,10598,ny.yorktownheights@crumbl.com,(914) 214-1996,41.289646842343345,-73.83003212988672,NY,Crumbl,2024-11-01
layouree,Youree,"7020 Youree Dr, Ste F",Shreveport,Louisiana, 71105,la.youree@crumbl.com,(318) 230-7776,32.4418449,-93.7208487,LA,Crumbl,2024-11-01
cayubacity,Yuba City,"1054 Harter Pkwy, Ste 6",Yuba City,California,95993,ca.yubacity@crumbl.com,(530) 645-3364,39.143880,-121.655430,CA,Crumbl,2024-11-01
okyukon,Yukon,"1680 Garth Brooks Blvd, Ste 100",Yukon,Oklahoma,73099,ok.yukon@crumbl.com,(405) 805-3380,35.4815369,-97.7609821,OK,Crumbl,2024-11-01
alzelda,Zelda,3012 Zelda Rd,Montgomery,Alabama,36106,al.zelda@crumbl.com,(334) 523-0499,32.355000,-86.264660,AL,Crumbl,2024-11-01
